{"type":"FeatureCollection","features":[{"type":"Feature","id":"8471f5b9-dda4-4d77-b642-6533e652562c","geometry":{"type":"Polygon","coordinates":[[[3051.91, 589.48],[3051.91, 1102.01],[3564.45, 1102.01],[3564.45, 589.48],[3051.91, 589.48]]]},"properties":{"objectType":"annotation","classification":{"name":"Traditional Coconut Farms","color":[165, 69, 116]}}},{"type":"Feature","id":"9d8a1dff-c3c6-4bd8-b278-a26ba30118ec","geometry":{"type":"Polygon","coordinates":[[[2729.18, -0.35],[2729.18, 512.19],[3241.71, 512.19],[3241.71, -0.35],[2729.18, -0.35]]]},"properties":{"objectType":"annotation","classification":{"name":"Traditional Coconut Farms","color":[165, 69, 116]}}},{"type":"Feature","id":"64146309-7d8a-4a12-8e8b-310efbec1d2c","geometry":{"type":"MultiPoint","coordinates":[[3064.16, 970.81],[3065.15, 892.99],[3075.13, 1030.67],[3095.09, 673.49],[3111.05, 732.36],[3120.03, 816.16],[3131, 869.04],[3142.97, 1039.65],[3147.96, 960.83],[3183.88, 662.52],[3191.86, 740.34],[3195.85, 804.19],[3204.83, 878.02],[3215.81, 958.83],[3226.46, 1031.2],[3254.72, 660.52],[3266.69, 730.36],[3268.68, 797.21],[3281.65, 954.84],[3288.64, 864.05],[3298.62, 1021.69],[3302.61, 1090.53],[3316.57, 656.53],[3343.51, 715.4],[3348.5, 798.2],[3361.47, 944.87],[3364.46, 850.08],[3370.45, 1081.55],[3376.44, 1016.7],[3398.39, 642.56],[3412.35, 789.23],[3414.35, 840.11],[3418.34, 706.42],[3437.3, 935.89],[3444.28, 1083.55],[3446.27, 997.74],[3480.2, 635.58],[3493.17, 693.45],[3501.15, 769.27],[3509.52, 1009.25],[3510.13, 828.14],[3516.11, 936.88],[3523.1, 1075.56],[3544.05, 631.59],[3556.33, 694.74]]},"properties":{"objectType":"annotation"}},{"type":"Feature","id":"ce7b7ceb-dc41-424c-bd48-a646888b74eb","geometry":{"type":"MultiPoint","coordinates":[[2745.35, 491.21],[2754.64, 186.78],[2760.2, 259.18],[2771.34, 38.27],[2773.2, 316.72],[2789.91, 396.54],[2793.62, 118.1],[2823.32, 480.08],[2847.45, 36.42],[2851.16, 262.89],[2856.73, 322.29],[2864.16, 403.97],[2877.15, 118.1],[2906.85, 480.08],[2916.14, 184.92],[2917.99, 272.17],[2929.13, 34.56],[2942.12, 383.55],[2947.69, 108.81],[2975.54, 454.09],[2981.11, 183.07],[2990.39, 300.01],[2997.7, 15.64],[2997.81, 244.32],[3012.66, 67.97],[3016.38, 366.84],[3042.36, 452.23],[3062.78, 171.93],[3073.92, 240.61],[3079.49, 301.87],[3088.77, 366.84],[3094.34, 75.4],[3120.33, 446.66],[3127.76, 160.79],[3144.34, 227.05],[3163.23, 370.08],[3164.13, 286.42],[3165.93, 65.12],[3188.42, 425.86],[3200.11, 142.48],[3201.91, 202.76],[3222.6, 288.22],[3223.5, 37.23],[3232.5, 356.59]]},"properties":{"objectType":"annotation"}}]}