{"type":"FeatureCollection","features":[{"type":"Feature","id":"6acfa99f-adbe-4b9c-8fa0-40d436a19833","geometry":{"type":"Polygon","coordinates":[[[2720.51, 3212.61],[2720.51, 3725.14],[3233.04, 3725.14],[3233.04, 3212.61],[2720.51, 3212.61]]]},"properties":{"objectType":"annotation","classification":{"name":"Traditional Coconut Farms","color":[165, 69, 116]}}},{"type":"Feature","id":"5914f74e-f3a9-4da9-bdad-0109efc7d267","geometry":{"type":"MultiPoint","coordinates":[[2730.47, 3462.12],[2749.52, 3294.73],[2749.52, 3531.52],[2763.13, 3599.57],[2769.94, 3674.42],[2788.99, 3366.85],[2810.77, 3440.34],[2820.29, 3285.2],[2825.74, 3517.91],[2837.98, 3350.52],[2850.23, 3584.6],[2859.76, 3651.28],[2873.37, 3421.29],[2893.78, 3267.51],[2900.58, 3489.34],[2907.39, 3562.82],[2908.75, 3339.64],[2927.8, 3644.48],[2929.16, 3711.16],[2950.94, 3259.34],[2953.66, 3404.96],[2976.79, 3547.85],[2982.24, 3467.56],[2987.68, 3317.86],[2995.85, 3679.86],[3010.82, 3617.26],[3029.87, 3381.82],[3032.59, 3449.87],[3033.95, 3223.96],[3044.84, 3505.67],[3062.53, 3600.93],[3067.97, 3294.73],[3088.39, 3361.41],[3089.75, 3664.89],[3106.08, 3440.34],[3125.13, 3508.39],[3138.74, 3585.96],[3144.19, 3279.76],[3148.27, 3649.92],[3160.52, 3355.97],[3168.68, 3414.49],[3198.62, 3252.54],[3210.87, 3569.63],[3210.87, 3640.4]]},"properties":{"objectType":"annotation"}},{"type":"Feature","id":"9b312480-38b6-4fb9-8557-87119084c63c","geometry":{"type":"Polygon","coordinates":[[[5978.67, 2996.68],[5978.67, 3509.22],[6491.2, 3509.22],[6491.2, 2996.68],[5978.67, 2996.68]]]},"properties":{"objectType":"annotation","classification":{"name":"Traditional Coconut Farms","color":[165, 69, 116]}}},{"type":"Feature","id":"82c483a2-9124-4468-9854-e68068f949a1","geometry":{"type":"MultiPoint","coordinates":[[5990.63, 3446.36],[6001.52, 3027.2],[6004.24, 3185.07],[6008.32, 3336.13],[6023.29, 3077.56],[6035.54, 3251.75],[6046.43, 3412.34],[6073.64, 3308.91],[6075, 3130.63],[6089.97, 3474.94],[6091.33, 3044.89],[6104.94, 3195.95],[6125.36, 3382.4],[6128.08, 3097.97],[6138.97, 3278.97],[6151.21, 3432.75],[6160.74, 3010.87],[6163.46, 3155.13],[6182.51, 3348.37],[6190.68, 3492.63],[6194.76, 3232.7],[6196.12, 3063.95],[6221.98, 3397.37],[6243.76, 3123.83],[6246.48, 3308.91],[6260.09, 3453.16],[6262.81, 3028.56],[6275.06, 3191.87],[6283.22, 3357.9],[6292.75, 3269.44],[6299.55, 3088.44],[6314.52, 3413.7],[6328.13, 3156.49],[6336.3, 3483.1],[6347.18, 3318.43],[6368.96, 3118.38],[6374.4, 3062.59],[6379.84, 3223.17],[6386.65, 3378.31],[6402.98, 3285.77],[6417.95, 3445],[6441.09, 3027.2],[6441.09, 3187.79],[6442.45, 3352.46],[6456.06, 3084.36],[6471.02, 3251.75]]},"properties":{"objectType":"annotation"}}]}