{"type":"FeatureCollection","features":[{"type":"Feature","id":"eced3fe2-5e73-404d-97da-213c207d03f9","geometry":{"type":"Polygon","coordinates":[[[3581.59, 863.76],[3581.59, 1374.72],[4092.54, 1374.72],[4092.54, 863.76],[3581.59, 863.76]]]},"properties":{"objectType":"annotation","classification":{"name":"1","color":[186, 103, 31]}}},{"type":"Feature","id":"e62a506c-e920-4d35-baa8-093d621c51c9","geometry":{"type":"Polygon","coordinates":[[[4836.13, 1591.47],[4836.13, 2102.43],[5347.08, 2102.43],[5347.08, 1591.47],[4836.13, 1591.47]]]},"properties":{"objectType":"annotation","classification":{"name":"1","color":[186, 103, 31]}}},{"type":"Feature","id":"f7f31f35-af18-4480-be6e-6e4fa424df52","geometry":{"type":"Polygon","coordinates":[[[3836.76, 1606.5],[3836.76, 2117.46],[4347.72, 2117.46],[4347.72, 1606.5],[3836.76, 1606.5]]]},"properties":{"objectType":"annotation","classification":{"name":"1","color":[186, 103, 31]}}},{"type":"Feature","id":"086cf2aa-9a9f-4cd7-92e0-c534a539ef7d","geometry":{"type":"Polygon","coordinates":[[[5978.26, 2350.39],[5978.26, 2861.35],[6489.22, 2861.35],[6489.22, 2350.39],[5978.26, 2350.39]]]},"properties":{"objectType":"annotation","classification":{"name":"1","color":[186, 103, 31]}}},{"type":"Feature","id":"686a14a6-ad82-49fd-9a75-6db167a154d8","geometry":{"type":"Polygon","coordinates":[[[5482.34, 1598.99],[5482.34, 2109.94],[5993.29, 2109.94],[5993.29, 1598.99],[5482.34, 1598.99]]]},"properties":{"objectType":"annotation","classification":{"name":"1","color":[186, 103, 31]}}},{"type":"Feature","id":"620763ee-1443-4494-af20-86bd93b469d3","geometry":{"type":"Polygon","coordinates":[[[4866.18, 847.58],[4866.18, 1358.54],[5377.14, 1358.54],[5377.14, 847.58],[4866.18, 847.58]]]},"properties":{"objectType":"annotation","classification":{"name":"1","color":[186, 103, 31]}}},{"type":"Feature","id":"9624ed27-43df-4ab3-911e-9b10f6174f52","geometry":{"type":"Polygon","coordinates":[[[6616.96, 3710.43],[6616.96, 4221.39],[7127.91, 4221.39],[7127.91, 3710.43],[6616.96, 3710.43]]]},"properties":{"objectType":"annotation","classification":{"name":"1","color":[186, 103, 31]}}},{"type":"Feature","id":"388bcd99-f0c7-40dd-9498-c9cb89bc47a1","geometry":{"type":"Polygon","coordinates":[[[2213.87, 1540.34],[2213.87, 2051.29],[2724.83, 2051.29],[2724.83, 1540.34],[2213.87, 1540.34]]]},"properties":{"objectType":"annotation","classification":{"name":"1","color":[186, 103, 31]}}},{"type":"Feature","id":"6a6b8054-0b7a-4260-812e-c242ccd72b57","geometry":{"type":"Polygon","coordinates":[[[5708.6, 2575.17],[5708.6, 3086.12],[6219.56, 3086.12],[6219.56, 2575.17],[5708.6, 2575.17]]]},"properties":{"objectType":"annotation","classification":{"name":"1","color":[186, 103, 31]}}},{"type":"Feature","id":"4db0d31e-3dbb-4736-ac13-ed6bd5f909d7","geometry":{"type":"Polygon","coordinates":[[[6092.42, 3087.23],[6092.42, 3598.19],[6603.38, 3598.19],[6603.38, 3087.23],[6092.42, 3087.23]]]},"properties":{"objectType":"annotation","classification":{"name":"1","color":[186, 103, 31]}}},{"type":"Feature","id":"890f6a29-30ce-4a4b-bc59-809ba8897bc2","geometry":{"type":"Polygon","coordinates":[[[4530.52, 1777.86],[4530.52, 2288.81],[5041.48, 2288.81],[5041.48, 1777.86],[4530.52, 1777.86]]]},"properties":{"objectType":"annotation","classification":{"name":"1","color":[186, 103, 31]}}},{"type":"Feature","id":"dc35e768-a916-4ebf-b62d-afa5207d9164","geometry":{"type":"Polygon","coordinates":[[[3957.21, 1091.7],[3957.21, 1602.65],[4468.17, 1602.65],[4468.17, 1091.7],[3957.21, 1091.7]]]},"properties":{"objectType":"annotation","classification":{"name":"1","color":[186, 103, 31]}}},{"type":"Feature","id":"bdd065e2-82b2-485f-81cb-a5539fd1242b","geometry":{"type":"Polygon","coordinates":[[[5794.74, 2214.23],[5794.74, 2725.19],[6305.7, 2725.19],[6305.7, 2214.23],[5794.74, 2214.23]]]},"properties":{"objectType":"annotation","classification":{"name":"1","color":[186, 103, 31]}}},{"type":"Feature","id":"482a9591-0c15-430c-bd50-fc32a6eb4149","geometry":{"type":"Polygon","coordinates":[[[4156.13, 1718.49],[4156.13, 2229.45],[4667.08, 2229.45],[4667.08, 1718.49],[4156.13, 1718.49]]]},"properties":{"objectType":"annotation","classification":{"name":"1","color":[186, 103, 31]}}},{"type":"Feature","id":"1144400a-c5e2-4fd0-8a9c-2bd9750e0bf1","geometry":{"type":"Polygon","coordinates":[[[6158.61, 2195.64],[6158.61, 2706.59],[6669.56, 2706.59],[6669.56, 2195.64],[6158.61, 2195.64]]]},"properties":{"objectType":"annotation","classification":{"name":"1","color":[186, 103, 31]}}},{"type":"Feature","id":"cf025b9a-b1c8-4031-bc94-1afb1766dcdd","geometry":{"type":"Polygon","coordinates":[[[4523.08, 1523.35],[4523.08, 2034.3],[5034.03, 2034.3],[5034.03, 1523.35],[4523.08, 1523.35]]]},"properties":{"objectType":"annotation","classification":{"name":"1","color":[186, 103, 31]}}},{"type":"Feature","id":"3d979a13-d9ef-4bef-a3eb-ea29d8f57958","geometry":{"type":"Polygon","coordinates":[[[2145.56, 1086.89],[2145.56, 1597.85],[2656.52, 1597.85],[2656.52, 1086.89],[2145.56, 1086.89]]]},"properties":{"objectType":"annotation","classification":{"name":"1","color":[186, 103, 31]}}},{"type":"Feature","id":"33028bca-d83f-4c93-af56-2300369a1c75","geometry":{"type":"Polygon","coordinates":[[[5790.22, 1880.83],[5790.22, 2391.79],[6301.17, 2391.79],[6301.17, 1880.83],[5790.22, 1880.83]]]},"properties":{"objectType":"annotation","classification":{"name":"1","color":[186, 103, 31]}}},{"type":"Feature","id":"d888683f-5f9b-4e1b-b91c-a26d11bfb09d","geometry":{"type":"Polygon","coordinates":[[[5163.85, 1026.61],[5163.85, 1537.57],[5674.8, 1537.57],[5674.8, 1026.61],[5163.85, 1026.61]]]},"properties":{"objectType":"annotation","classification":{"name":"1","color":[186, 103, 31]}}},{"type":"Feature","id":"1f444019-8ed4-4a8b-b831-d0a02457649a","geometry":{"type":"Polygon","coordinates":[[[2696.45, 2959.33],[2696.45, 3470.29],[3207.41, 3470.29],[3207.41, 2959.33],[2696.45, 2959.33]]]},"properties":{"objectType":"annotation","classification":{"name":"1","color":[186, 103, 31]}}},{"type":"Feature","id":"ed1dd6f6-a30b-42f7-a56d-1e3591ca1636","geometry":{"type":"Polygon","coordinates":[[[6476.38, 2912.43],[6476.38, 3423.38],[6987.34, 3423.38],[6987.34, 2912.43],[6476.38, 2912.43]]]},"properties":{"objectType":"annotation","classification":{"name":"1","color":[186, 103, 31]}}},{"type":"Feature","id":"c8991331-ef5e-4a1c-9a86-e14833adf6e1","geometry":{"type":"MultiPoint","coordinates":[[4881.25, 1144.69],[4886.23, 1037.93],[4890.22, 978.07],[4909.18, 1114.76],[4912.17, 1304.32],[4915.17, 1199.56],[4934.12, 1272.39],[4937.12, 1024.96],[4943.1, 888.28],[4952.08, 952.13],[4966.05, 1071.86],[4984.01, 909.23],[4985.01, 1185.59],[4992.99, 1148.68],[5013.94, 1015.99],[5022.92, 976.08],[5025.91, 1261.42],[5025.91, 1315.29],[5032.9, 927.19],[5038.88, 1055.89],[5042.87, 1201.56],[5044.87, 1148.68],[5049.86, 888.28],[5065.82, 1309.31],[5070.81, 1236.48],[5072.8, 1093.81],[5084.78, 956.12],[5087.77, 893.27],[5098.74, 1184.6],[5105.73, 1125.73],[5108.72, 1284.37],[5109.72, 1010],[5131.67, 938.16],[5151.62, 1332.25],[5157.61, 1143.69],[5157.61, 1214.53],[5164.59, 1089.81],[5165.59, 1255.43],[5172.57, 868.33],[5177.56, 992.04],[5186.54, 1325.27],[5195.52, 915.22],[5209.49, 1169.63],[5215.47, 1078.84],[5235.43, 1012.99],[5241.41, 1298.33],[5248.4, 1247.45],[5256.38, 1118.75],[5261.37, 927.19],[5261.37, 1038.93],[5264.36, 993.04],[5267.35, 875.31],[5276.23, 1168.35],[5292.3, 954.13],[5298.28, 1236.48],[5303.27, 912.22],[5320.23, 1308.31],[5329.21, 1152.67],[5331.21, 1054.9],[5353.16, 1195.57],[5359.14, 939.16],[5367.12, 1111.76]]},"properties":{"objectType":"annotation","color":[255, 0, 0]}},{"type":"Feature","id":"9332fd56-e739-4631-b48a-1365a213aa12","geometry":{"type":"MultiPoint","coordinates":[[3873.21, 1813.71],[3874.44, 1718],[3878.12, 1862.8],[3885.48, 2087.36],[3895.3, 1652.96],[3896.53, 2007.59],[3916.16, 1859.11],[3927.2, 1951.15],[3944.38, 1789.17],[3946.84, 1713.09],[3971.38, 2006.37],[3973.83, 1873.84],[3978.74, 1673.82],[3983.65, 1753.58],[3986.11, 1940.1],[3992.24, 1791.62],[4008.19, 2070.18],[4020.46, 1682.41],[4032.74, 1846.84],[4043.78, 2038.27],[4045.01, 1798.99],[4053.6, 1617.37],[4053.6, 1738.86],[4056.05, 1937.65],[4059.73, 1655.41],[4084.27, 2076.31],[4087.96, 1767.08],[4091.64, 1683.64],[4094.09, 1980.6],[4096.55, 1931.51],[4102.68, 1867.7],[4130.9, 1897.15],[4132.13, 1997.78],[4134.59, 1818.62],[4151.77, 1754.81],[4156.67, 1935.19],[4164.04, 1789.17],[4166.49, 2088.58],[4168.94, 1848.07],[4171.4, 1614.92],[4171.4, 1684.86],[4183.67, 1891.02],[4184.9, 1646.82],[4186.12, 1991.64],[4199.45, 1957.33],[4203.3, 1840.71],[4219.26, 1676.27],[4221.71, 2041.95],[4237.66, 2102.08],[4249.93, 1989.19],[4252.39, 1634.55],[4253.88, 1947.8],[4259.39, 1822.72],[4272.02, 1785.49],[4275.7, 1659.1],[4279.38, 1700.82],[4279.38, 1737.63],[4279.38, 2055.45],[4309.24, 1836.65],[4314.97, 1774.44],[4314.97, 2083.68],[4322.33, 1661.55],[4326.01, 2032.14]]},"properties":{"objectType":"annotation","color":[255, 0, 0]}},{"type":"Feature","id":"06c032b7-4b47-4f75-b3e8-37321772f7c0","geometry":{"type":"Polygon","coordinates":[[[6637.18, 3502.97],[6637.18, 4013.93],[7148.14, 4013.93],[7148.14, 3502.97],[6637.18, 3502.97]]]},"properties":{"objectType":"annotation","classification":{"name":"1","color":[186, 103, 31]}}},{"type":"Feature","id":"40459fe7-8428-47b1-af3c-3db4657703e1","geometry":{"type":"MultiPoint","coordinates":[[6659.45, 3556.29],[6684.91, 3936.95],[6693.89, 3765.23],[6702.48, 3870.76],[6707.39, 3987.34],[6708.62, 3816.77],[6709.34, 3636.1],[6713.33, 3685.99],[6716.32, 3594.2],[6741.27, 3540.32],[6747.88, 3917.16],[6747.89, 3733.33],[6750.34, 3793.45],[6763.21, 3633.11],[6772.43, 3978.75],[6779.18, 3588.21],[6789.16, 3679],[6804.33, 3760.32],[6806.79, 3848.67],[6812.66, 3942.35],[6823.08, 3617.15],[6830.1, 3804.5],[6845.03, 3539.32],[6846.06, 3756.64],[6847.02, 3579.23],[6855.87, 3876.9],[6870.6, 3957.89],[6877.95, 3619.14],[6880.42, 3821.68],[6901.7, 3578.4],[6906.88, 3528.35],[6907.41, 3878.13],[6909.87, 3757.87],[6917.23, 3943.16],[6922.85, 3616.15],[6923.84, 3675.01],[6927.64, 3847.77],[6932.63, 3808.86],[6944.22, 3889.17],[6944.8, 3556.29],[6967.54, 3811.86],[6971.22, 4002.06],[6987.7, 3665.03],[6990.69, 3577.24],[7000.67, 3922.3],[7008.03, 3973.84],[7009.26, 3873.22],[7020.42, 3769.95],[7025.21, 3711.24],[7033.59, 3594.2],[7039.94, 3940.71],[7042.39, 3833.95],[7076.75, 3752.96],[7085.34, 3813.09],[7086.57, 3975.07],[7092.46, 3622.13],[7103.75, 3923.53],[7112.41, 3569.26],[7113.57, 3885.49],[7117.4, 3691.97]]},"properties":{"objectType":"annotation","color":[255, 0, 0]}},{"type":"Feature","id":"cce2881b-de01-4c70-8030-ab2ef08e77f4","geometry":{"type":"MultiPoint","coordinates":[[6105.46, 3349.04],[6117.63, 3235.07],[6123.16, 3405.47],[6126.48, 3488.46],[6139.76, 3137.7],[6143.08, 3188.6],[6156.36, 3554.84],[6160.78, 3508.37],[6164.1, 3395.51],[6167.42, 3285.97],[6172.96, 3349.04],[6178.49, 3146.56],[6185.13, 3429.81],[6199.51, 3561.48],[6211.68, 3474.07],[6213.9, 3116.68],[6221.64, 3301.46],[6226.07, 3174.22],[6243.77, 3568.12],[6251.52, 3520.54],[6255.94, 3354.57],[6259.26, 3204.09],[6262.58, 3282.65],[6280.28, 3420.96],[6280.28, 3472.96],[6284.71, 3165.37],[6286.92, 3115.57],[6300.2, 3333.55],[6310.16, 3508.37],[6314.58, 3568.12],[6327.86, 3412.11],[6327.86, 3451.94],[6352.2, 3120],[6357.74, 3538.25],[6358.84, 3331.34],[6371.01, 3485.14],[6379.87, 3270.48],[6386.5, 3416.53],[6395.36, 3336.87],[6398.68, 3148.77],[6407.53, 3501.73],[6410.85, 3195.24],[6413.06, 3235.07],[6415.27, 3281.54],[6425.23, 3436.45],[6449.57, 3350.15],[6451.79, 3555.95],[6455.11, 3121.11],[6455.11, 3250.56],[6455.11, 3303.67],[6457.32, 3200.77],[6487.19, 3164.26],[6488.3, 3104.51],[6492.73, 3402.15],[6496.05, 3352.36],[6498.26, 3537.14],[6506, 3478.5],[6518.17, 3205.2],[6524.81, 3273.8],[6524.81, 3309.21],[6552.48, 3227.33],[6553.58, 3461.9],[6554.69, 3174.22],[6555.79, 3414.32],[6559.11, 3568.12],[6574.6, 3339.08],[6579.03, 3276.01],[6590.1, 3521.65]]},"properties":{"objectType":"annotation","color":[255, 0, 0]}},{"type":"Feature","id":"43241cae-97c7-4ffa-a527-9dd4a64a5f4b","geometry":{"type":"MultiPoint","coordinates":[[6180.13, 2411.45],[6183.05, 2322.22],[6205, 2354.4],[6207.92, 2585.53],[6209.39, 2253.46],[6209.39, 2640.39],[6232.06, 2693.05],[6238.64, 2447.29],[6244.49, 2287.11],[6247.42, 2331.73],[6253.27, 2540.18],[6258.39, 2500.69],[6272.29, 2371.22],[6275.21, 2684.28],[6286.92, 2260.05],[6288.38, 2638.2],[6311.05, 2313.44],[6335.92, 2248.34],[6353.48, 2600.89],[6356.4, 2403.41],[6357.13, 2486.06],[6358.6, 2552.62],[6361.52, 2268.82],[6371.76, 2230.79],[6381.87, 2307.69],[6395.17, 2383.66],[6411.26, 2532.14],[6411.26, 2652.82],[6422.96, 2272.48],[6427.35, 2340.5],[6434.67, 2481.67],[6454.41, 2552.62],[6458.07, 2217.62],[6466.85, 2371.22],[6469.77, 2608.94],[6470.94, 2322.09],[6475.63, 2420.96],[6488.79, 2246.15],[6515.12, 2638.2],[6518.78, 2570.17],[6520.24, 2276.87],[6520.24, 2331],[6523.17, 2446.56],[6531.95, 2370.49],[6534.87, 2491.91],[6561.2, 2623.57],[6569.98, 2446.56],[6572.17, 2271.75],[6574.39, 2582.97],[6580.95, 2658.68],[6586.8, 2529.21],[6589.73, 2409.26],[6593.39, 2366.84],[6599.24, 2286.38],[6617.52, 2454.61],[6628.49, 2651.36],[6630.69, 2246.15],[6636.54, 2393.9],[6643.12, 2310.52],[6647.51, 2505.81],[6649.96, 2570.38]]},"properties":{"objectType":"annotation","color":[255, 0, 0]}},{"type":"Feature","id":"d4b9e2c4-32e6-4611-8bb6-d80de1bc57be","geometry":{"type":"MultiPoint","coordinates":[[5725.45, 2728.7],[5733.43, 2867.38],[5744.97, 2637.72],[5763.37, 2793.57],[5773.33, 3034.99],[5787.3, 2992.09],[5789.14, 2743.25],[5791.29, 3069.91],[5795.28, 2603.36],[5805.26, 2852.41],[5811.23, 2662.26],[5820.23, 2944.2],[5824.22, 3028.01],[5836.19, 2892.32],[5836.19, 2983.11],[5840.68, 2701.53],[5854.18, 2753.07],[5857.14, 3070.91],[5868.91, 2670.85],[5871.36, 2862.28],[5872.11, 2590.02],[5872.11, 2999.07],[5893.06, 2722.71],[5899.58, 2824.24],[5904.49, 2791.11],[5922.99, 2941.21],[5924.98, 3008.05],[5926.58, 2648.77],[5926.58, 2865.96],[5949.93, 2902.3],[5972.87, 2612.97],[5976.89, 2799.7],[5977.86, 3037.98],[5992.83, 2994.09],[5996.82, 2692.78],[5996.82, 2871.37],[6000.81, 2657.86],[6006.8, 2821.48],[6018.77, 2932.23],[6041.72, 2762.62],[6044.71, 3041.98],[6080.63, 2836.45],[6084.62, 2971.14],[6084.79, 2676.57],[6094.59, 2630.92],[6097.59, 2777.59],[6098.58, 2922.25],[6104.57, 3043.97],[6117.54, 2617.95],[6122.53, 2749.65],[6126.52, 2707.75],[6136.06, 2657.68],[6136.5, 2922.25],[6149.47, 2996.08],[6149.47, 3041.98],[6157.45, 2792.55],[6157.45, 2851.42],[6161.44, 2621.95],[6191.37, 2761.62],[6191.37, 2979.12],[6197.36, 2929.24],[6213.32, 2822.48]]},"properties":{"objectType":"annotation","color":[255, 0, 0]}},{"type":"Feature","id":"bc238b7c-bc6a-4a30-8aa9-b73bafee997d","geometry":{"type":"MultiPoint","coordinates":[[5991.27, 2690.91],[5994.26, 2653.99],[6012.22, 2569.19],[6016.21, 2821.61],[6026.19, 2479.4],[6041.16, 2760.75],[6047.14, 2469.42],[6051.13, 2404.57],[6061.11, 2570.19],[6065.89, 2679.27],[6078.07, 2373.64],[6090.04, 2520.3],[6091.04, 2629.05],[6105.01, 2786.69],[6110, 2448.47],[6116.98, 2705.87],[6119.97, 2383.62],[6126.96, 2618.08],[6126.96, 2746.78],[6132.47, 2659.48],[6141.92, 2536.27],[6155.89, 2847.55],[6161.88, 2794.67],[6184.82, 2423.53],[6195.8, 2767.73],[6206.77, 2578.17],[6208.77, 2818.61],[6212.76, 2644.02],[6221.74, 2694.9],[6231.72, 2453.46],[6232.71, 2846.55],[6244.69, 2542.25],[6246.68, 2622.07],[6253.66, 2496.36],[6269.63, 2370.65],[6272.62, 2799.66],[6274.62, 2688.91],[6288.58, 2641.02],[6293.57, 2761.75],[6311.53, 2435.5],[6314.52, 2823.6],[6335.48, 2361.67],[6343.46, 2739.8],[6348.45, 2649.01],[6353.43, 2407.56],[6354.43, 2483.39],[6354.43, 2604.11],[6368.4, 2819.61],[6390.35, 2380.63],[6394.34, 2731.81],[6395.34, 2776.71],[6404.32, 2650],[6430.26, 2477.4],[6431.25, 2834.58],[6455.2, 2555.22],[6462.18, 2801.65],[6463.18, 2371.65],[6469.17, 2413.55],[6470.16, 2606.1],[6474.16, 2762.74]]},"properties":{"objectType":"annotation","color":[255, 0, 0]}},{"type":"Feature","id":"a4008b4b-bc79-46f1-bf87-25cd2ef5b2ff","geometry":{"type":"MultiPoint","coordinates":[[5811.57, 2657.83],[5824.54, 2422.38],[5829.53, 2220.84],[5840.5, 2277.71],[5840.5, 2516.16],[5843.49, 2702.73],[5864.44, 2348.55],[5873.42, 2591.98],[5876.42, 2675.79],[5879.41, 2261.75],[5885.4, 2400.43],[5891.38, 2440.33],[5898.37, 2495.21],[5923.31, 2535.12],[5929.29, 2467.27],[5929.29, 2643.86],[5942.27, 2372.49],[5947.25, 2561.06],[5948.25, 2304.65],[5971.2, 2420.38],[5972.2, 2609.94],[5990.15, 2530.13],[6001.13, 2648.85],[6001.13, 2696.74],[6004.12, 2360.52],[6014.1, 2575.02],[6015.1, 2247.78],[6022.08, 2487.23],[6038.04, 2317.62],[6047.02, 2467.27],[6054.01, 2401.42],[6066.98, 2338.57],[6066.98, 2572.03],[6068.59, 2678.37],[6080.94, 2633.89],[6092.92, 2374.49],[6095.91, 2515.16],[6110.88, 2296.67],[6115.86, 2452.31],[6122.85, 2390.45],[6128.83, 2616.93],[6129.83, 2713.7],[6130.67, 2664.87],[6132.83, 2339.57],[6140.81, 2263.74],[6149.79, 2538.11],[6163.75, 2623.91],[6181.71, 2415.39],[6186.7, 2323.6],[6205.66, 2642.87],[6209.65, 2257.76],[6213.64, 2587],[6242.57, 2281.7],[6245.56, 2457.3],[6246.56, 2317.62],[6260.53, 2540.1],[6263.52, 2493.21],[6270.51, 2377.48],[6281.48, 2256.76],[6283.48, 2640.87]]},"properties":{"objectType":"annotation","color":[255, 0, 0]}},{"type":"Feature","id":"15a2f0e1-31c2-4a58-80fe-e66587c817ce","geometry":{"type":"MultiPoint","coordinates":[[5818.61, 2157.43],[5821.31, 1999.1],[5835.71, 2226.7],[5835.71, 2281.58],[5849.2, 2184.42],[5859.1, 2061.17],[5861.8, 2130.44],[5868.99, 2355.34],[5877.09, 1910.93],[5878.89, 2262.68],[5892.38, 2035.08],[5900.48, 2189.82],[5913.07, 2110.65],[5922.97, 1973.01],[5931.07, 2070.17],[5940.96, 2379.63],[5949.96, 2258.19],[5957.16, 2315.76],[5961.65, 1925.33],[5966.15, 2032.38],[5976.95, 2083.66],[5994.04, 2176.32],[5998.54, 2358.04],[6003.94, 1911.83],[6011.13, 2071.07],[6014.73, 1970.31],[6021.03, 2248.29],[6033.62, 2014.39],[6042.62, 2317.56],[6045.32, 2105.25],[6047.12, 1904.64],[6047.12, 1937.92],[6048.02, 2053.97],[6062.41, 2141.24],[6070.51, 2340.95],[6076.8, 1981.1],[6076.8, 2189.82],[6088.5, 1929.83],[6096.6, 2087.26],[6109.19, 2140.34],[6110.09, 2301.37],[6116.39, 1996.4],[6116.39, 2335.55],[6121.78, 2050.38],[6133.48, 2184.42],[6141.58, 2264.48],[6146.97, 1913.63],[6157.77, 2044.98],[6161.37, 2141.24],[6190.16, 2100.75],[6190.16, 2329.26],[6194.65, 1940.62],[6208.15, 2062.07],[6210.85, 2259.99],[6219.84, 1969.41],[6235.14, 2160.13],[6241.43, 2286.97],[6253.13, 2004.49],[6254.03, 2322.06],[6270.22, 1896.54],[6271.12, 1937.02],[6276.52, 2070.17],[6277.42, 2144.83],[6281.92, 2256.39]]},"properties":{"objectType":"annotation","color":[255, 0, 0]}},{"type":"Feature","id":"2a7db46a-6498-43ff-a338-26ced172f056","geometry":{"type":"MultiPoint","coordinates":[[4858.46, 1735.23],[4859.69, 2005.19],[4860.3, 2072.83],[4867.05, 1649.33],[4886.68, 1823.58],[4892.82, 1856.71],[4896.5, 1676.33],[4919.81, 2005.19],[4923.5, 1718.05],[4929.33, 2042.73],[4929.63, 1902.11],[4939.45, 1821.13],[4940.67, 1619.88],[4948.04, 1703.32],[4952.95, 1749.95],[4967.37, 2039.05],[4977.49, 1790.45],[4982.4, 1881.25],[4983.62, 1997.83],[5010.62, 1675.1],[5013.07, 1624.79],[5016.76, 1802.72],[5017.98, 1734],[5018.48, 1927.63],[5020.44, 2057.96],[5031.48, 1964.7],[5063.39, 1697.19],[5064.61, 1629.7],[5064.61, 2037.1],[5071.98, 1920.52],[5076.88, 2086.18],[5080.56, 1741.36],[5098.97, 1806.4],[5106.33, 1968.38],[5108.79, 1693.51],[5116.15, 1659.15],[5118.61, 1876.34],[5119.83, 2049.37],[5132.1, 1829.71],[5150.51, 2019.92],[5160.33, 1748.73],[5164.01, 1947.52],[5168.92, 1799.04],[5176.28, 2089.86],[5182.42, 1699.64],[5186.1, 1657.92],[5204.5, 1891.07],[5205.05, 1771.08],[5206.96, 2071.46],[5208.3, 1611.28],[5210.64, 1837.08],[5221.68, 1995.37],[5231.5, 1810.08],[5238.86, 1661.6],[5243.77, 1735.23],[5251.13, 1959.79],[5267.09, 2062.87],[5270.77, 1768.36],[5273.19, 1626.69],[5275.68, 1915.61],[5279.36, 2022.37],[5291.04, 1859.49],[5294.08, 1976.97],[5312.13, 1682.66],[5316.17, 1935.25],[5325.99, 1787.99],[5325.99, 1905.8],[5327.21, 1824.81],[5333.35, 2069]]},"properties":{"objectType":"annotation","color":[255, 0, 0]}},{"type":"Feature","id":"3be1244e-1f0b-46ba-a13f-8662fc257f96","geometry":{"type":"MultiPoint","coordinates":[[6652.83, 4020.45],[6666.79, 4185.07],[6671.78, 4107.25],[6683.11, 3934.25],[6696.34, 4068.57],[6696.73, 3769.03],[6702.71, 3870.79],[6710.69, 3989.52],[6716.68, 3817.92],[6743.38, 3919.86],[6743.62, 4079.31],[6747.61, 3726.13],[6748.61, 3787.98],[6748.61, 4182.07],[6749.6, 4046.39],[6766.56, 3977.55],[6788.51, 4129.2],[6790.51, 3767.03],[6799.49, 4096.27],[6799.49, 4172.1],[6809.47, 3848.84],[6810.86, 3942.35],[6821.44, 3804.95],[6827.42, 4026.43],[6835.94, 4125.08],[6838.4, 4075.32],[6841.39, 4159.13],[6846.38, 3878.77],[6847.38, 3755.06],[6864.34, 3959.59],[6881.3, 3823.9],[6884.09, 4137.61],[6886.29, 4041.4],[6896.27, 3877.78],[6898.26, 4089.29],[6898.87, 3990.75],[6902.25, 3759.05],[6917.22, 3945.62],[6922.63, 4124.03],[6948.15, 3894.74],[6954.13, 4214],[6955.13, 4067.34],[6965.11, 3999.5],[6965.72, 4157.36],[6972.09, 3815.92],[6984.06, 4121.21],[6999.03, 3923.67],[7003.02, 3969.56],[7011, 4072.33],[7013, 4161.12],[7041.93, 3938.64],[7045.92, 3833.88],[7053.9, 4014.46],[7065.87, 3750.07],[7068.87, 4141.17],[7075.85, 4056.36],[7079.84, 3811.93],[7082.83, 3974.55],[7091.81, 3923.67],[7092.81, 4208.01],[7118.37, 4128.43]]},"properties":{"objectType":"annotation","color":[255, 0, 0]}},{"type":"Feature","id":"7cf2db37-ee0b-42a2-b24f-f4be3512bac6","geometry":{"type":"MultiPoint","coordinates":[[2738.15, 2989.13],[2740.36, 3434.12],[2763.24, 3221.59],[2774.17, 3091.58],[2775.05, 3361.06],[2786.85, 3276.19],[2788.33, 3043.74],[2791.2, 3411],[2820.8, 2994.3],[2843.68, 3206.83],[2852.53, 3379.51],[2855.48, 3445.92],[2856.22, 3031.93],[2861.37, 3251.77],[2871.72, 3157.38],[2873.93, 3298.33],[2877.62, 3053.33],[2888.14, 3113.71],[2896.81, 2997.25],[2898.27, 3426.21],[2907.14, 3210.52],[2914.28, 3256.17],[2921.33, 3167.93],[2924.85, 3331.54],[2928.54, 3064.4],[2929.28, 3391.31],[2944.04, 3141.15],[2955.11, 3013.48],[2980.12, 3145.62],[2980.2, 3045.21],[2980.2, 3440.76],[2997.91, 3351.47],[3002.34, 3110.15],[3003.07, 3239.3],[3016.36, 3167.71],[3019.97, 3395.56],[3031.85, 3045.21],[3037.02, 3000.2],[3041.29, 3457.78],[3046.61, 3341.87],[3049.68, 3248.7],[3068.75, 3282.1],[3074.65, 3050.38],[3084.25, 3082.11],[3091.17, 3449.58],[3098.43, 3211.97],[3110.08, 3320.47],[3124.84, 3378.77],[3128.24, 3160.18],[3128.53, 3068.83],[3129.26, 3005.37],[3133.69, 3259.22],[3165.42, 3343.35],[3169.18, 3413.57],[3171.17, 3048.25],[3173.02, 3445.48],[3179.44, 3124.18],[3183.34, 3291.68],[3186.81, 3186.6],[3197.15, 3226.01]]},"properties":{"objectType":"annotation","color":[255, 0, 0]}},{"type":"Feature","id":"ef8e3328-8f55-4c6d-b500-52e78ccdac6f","geometry":{"type":"MultiPoint","coordinates":[[3975.18, 1292.13],[3978.45, 1140.73],[3993.18, 1328.96],[3998.09, 1189.01],[4017.74, 1563.03],[4026.74, 1476.27],[4036.56, 1115.36],[4043.92, 1249.58],[4045.56, 1395.25],[4046.38, 1337.96],[4057.84, 1162.82],[4061.11, 1513.92],[4061.37, 1302.59],[4063.57, 1594.94],[4064.38, 1440.26],[4091.39, 1200.47],[4093.75, 1254.91],[4102.03, 1323.23],[4103.67, 1136.63],[4105.31, 1378.88],[4106.94, 1465.64],[4138.04, 1265.94],[4138.04, 1548.29],[4145.41, 1121.9],[4151.95, 1171.83],[4161.77, 1408.11],[4167.5, 1372.34],[4178.14, 1483.64],[4178.96, 1586.76],[4210.06, 1257.76],[4210.88, 1203.74],[4220.7, 1529.47],[4221.5, 1429.43],[4224.79, 1106.35],[4225.61, 1300.32],[4229.7, 1373.16],[4231.34, 1154.64],[4241.16, 1460.72],[4251.79, 1216.63],[4268.99, 1121.08],[4269.81, 1257.76],[4281.26, 1407.53],[4282.9, 1539.29],[4286.99, 1475.46],[4288.97, 1301.69],[4309.83, 1203.44],[4314.82, 1170.19],[4326.28, 1360.88],[4344.28, 1130.09],[4348.37, 1412.44],[4354.67, 1220.59],[4360.65, 1280.67],[4363.1, 1452.54],[4379.74, 1174.43],[4392.57, 1126],[4395.02, 1558.93],[4402.39, 1205.38],[4406.48, 1351.06],[4408.94, 1434.54],[4411.39, 1260.21],[4440.03, 1384.61],[4441.07, 1168.49],[4444.95, 1330.6],[4459.68, 1252.85]]},"properties":{"objectType":"annotation","color":[255, 0, 0]}},{"type":"Feature","id":"0a994389-f0b7-480e-867a-c67deabffbf6","geometry":{"type":"MultiPoint","coordinates":[[4551.27, 2064.17],[4553.72, 1997.91],[4553.72, 2245.79],[4561.09, 1871.52],[4578.26, 2177.07],[4579.49, 2112.03],[4590.54, 1821.21],[4594.22, 1900.97],[4596.67, 2039.63],[4607.72, 2277.69],[4622.44, 2190.57],[4635.94, 2088.72],[4637.17, 1883.79],[4637.17, 2017.54],[4642.07, 2238.42],[4646.98, 1930.42],[4660.48, 1843.29],[4662.94, 1794.21],[4683.8, 2131.67],[4688.7, 1876.43],[4699.75, 1935.33],[4704.66, 2267.87],[4706.93, 2016.28],[4710.79, 2206.52],[4725.52, 1893.61],[4727.97, 1843.29],[4734.11, 1977.05],[4735.33, 2150.07],[4762.33, 2091.17],[4779.51, 1806.48],[4779.79, 2151.22],[4788.79, 2214.2],[4789.33, 2266.65],[4796.69, 1916.92],[4797.92, 1997.91],[4806.51, 1844.52],[4840.87, 2131.67],[4842.09, 1882.56],[4842.77, 2186.31],[4865.41, 2004.05],[4870.32, 2073.99],[4885.04, 1816.3],[4885.04, 1953.73],[4898.54, 1859.25],[4898.54, 2131.67],[4919.4, 2244.56],[4924.31, 2044.54],[4930.44, 2006.5],[4935.35, 1896.06],[4937.81, 1815.07],[4943.94, 2173.39],[4947.62, 2266.65],[4964.8, 2044.54],[4972.17, 2093.63],[4980.41, 2196.2],[4981.98, 1796.66],[4985.67, 1995.46],[4986.89, 1881.34],[5011.43, 1835.93],[5011.9, 2224.99],[5012.66, 2053.13],[5024.93, 2185.66]]},"properties":{"objectType":"annotation","color":[255, 0, 0]}},{"type":"Feature","id":"ca1ed535-1f01-4077-9f6c-81b75a30098c","geometry":{"type":"Polygon","coordinates":[[[5634.56, 1307.35],[5634.56, 1818.3],[6145.51, 1818.3],[6145.51, 1307.35],[5634.56, 1307.35]]]},"properties":{"objectType":"annotation","classification":{"name":"1","color":[186, 103, 31]}}},{"type":"Feature","id":"28ecc8ba-aed8-4c26-a7e7-e8c25b664bb3","geometry":{"type":"MultiPoint","coordinates":[[5659.58, 1805.98],[5665.26, 1373.9],[5685.21, 1400.83],[5714.9, 1784.95],[5716.55, 1751.93],[5718.14, 1330],[5718.22, 1640],[5733.71, 1438.63],[5740.35, 1373.34],[5750.31, 1334.62],[5752.52, 1594.64],[5761.37, 1668.77],[5770.22, 1510.55],[5773.54, 1799.34],[5775.76, 1420.92],[5780.18, 1456.33],[5793.46, 1366.71],[5800.1, 1633.37],[5815.59, 1673.2],[5817.8, 1561.45],[5824.44, 1602.38],[5827.76, 1498.38],[5842.14, 1372.24],[5846.57, 1765.04],[5851, 1422.03],[5867.59, 1625.62],[5879.76, 1575.83],[5883.08, 1694.22],[5894.15, 1351.22],[5904.11, 1415.39],[5906.32, 1739.59],[5912.96, 1541.53],[5916.28, 1697.54],[5918.67, 1467.68],[5922.92, 1638.9],[5935.09, 1797.12],[5947.61, 1732.07],[5950.58, 1403.22],[5959.58, 1439.74],[5970.5, 1339.04],[5972.55, 1569.45],[5978.54, 1798.92],[5994.84, 1741.8],[5995.94, 1417.6],[6023.61, 1514.97],[6031.35, 1558.13],[6032.46, 1670.99],[6045.73, 1386.62],[6046.84, 1771.68],[6063.44, 1599.07],[6066.76, 1475.14],[6067.86, 1427.56],[6081.14, 1541.53],[6083.35, 1675.41],[6091.27, 1318.03],[6094.42, 1751.76],[6119.87, 1791.59],[6128.19, 1456.71],[6136.47, 1609.02]]},"properties":{"objectType":"annotation","color":[255, 0, 0]}},{"type":"Feature","id":"be50edcb-4061-45fe-a0b6-793feb4f4e79","geometry":{"type":"MultiPoint","coordinates":[[5194.95, 1323.19],[5199.15, 1260.25],[5202.14, 1079.4],[5204.84, 1164.86],[5204.84, 1507.61],[5212.94, 1440.14],[5248.92, 1300.7],[5250.72, 1231.43],[5258.82, 1121.68],[5258.82, 1353.78],[5265.12, 1044.31],[5281.31, 1478.83],[5294.8, 1240.43],[5300.92, 1110.6],[5312.8, 1201.74],[5312.8, 1443.74],[5325.39, 1149.57],[5325.39, 1315.1],[5327.19, 1055.11],[5344.28, 1505.81],[5358.68, 1192.75],[5364.07, 1112.68],[5377.57, 1295.3],[5392.86, 1358.28],[5408.16, 1527.4],[5409.96, 1091.99],[5411.75, 1039.81],[5412.65, 1224.23],[5420.75, 1338.49],[5421.65, 1148.67],[5421.65, 1282.71],[5429.75, 1184.65],[5436.94, 1380.77],[5444.18, 1503.76],[5472.93, 1461.73],[5476.53, 1154.96],[5477.43, 1217.04],[5491.82, 1110.88],[5492.72, 1387.96],[5499.02, 1271.01],[5509.81, 1437.44],[5516.11, 1350.18],[5517.91, 1309.7],[5525.11, 1235.93],[5535.38, 1173.45],[5537.7, 1136.07],[5538.51, 1511.45],[5540.4, 1084.79],[5548.5, 1369.97],[5567.96, 1462.37],[5579.98, 1405.06],[5583.58, 1172.96],[5588.08, 1291.71],[5591.68, 1130.67],[5598.23, 1259.25],[5613.27, 1342.08],[5615.07, 1062.3],[5626.76, 1430.25],[5635.15, 1204.38],[5643.85, 1293.5],[5647.45, 1123.48],[5659.15, 1065],[5660.09, 1368]]},"properties":{"objectType":"annotation","color":[255, 0, 0]}},{"type":"Feature","id":"9b2de57c-d580-42aa-a15a-fdc0be35fffa","geometry":{"type":"MultiPoint","coordinates":[[2242.21, 1912.71],[2243.94, 1652.72],[2253.9, 1865.17],[2263.99, 1787.46],[2264.7, 1618.77],[2279.42, 1720.29],[2305.74, 2018],[2313.91, 1681.26],[2321.17, 1874.59],[2324.8, 1958.09],[2335.69, 1732.09],[2338.42, 1606.84],[2341.14, 1568.72],[2343.86, 1798.35],[2352.94, 2040.69],[2381.63, 1752.23],[2383.35, 1985.77],[2385.57, 1955.9],[2391.06, 1615.91],[2393.78, 1717.57],[2406.8, 1845.85],[2407.4, 1663.11],[2410.82, 1794.51],[2413.75, 1561.45],[2421.92, 1933.59],[2424.29, 2033.35],[2442.79, 1634.07],[2445.52, 1738.44],[2451.87, 2003.47],[2453.1, 1782.43],[2456.38, 1886.19],[2459.37, 1677.97],[2474.56, 1838.28],[2480.91, 1565.09],[2486.32, 1735.12],[2496.34, 1654.03],[2514.5, 1870.05],[2517.22, 1953.55],[2523.57, 1713.03],[2527.2, 1772.93],[2528.11, 1629.53],[2538.1, 1826.49],[2548.99, 1568.72],[2558.06, 2000.75],[2565.32, 1746.61],[2569.86, 1799.26],[2578.03, 1649.5],[2582.57, 1606.84],[2614.34, 2001.66],[2621.6, 1849.18],[2629.77, 1664.02],[2634.31, 1588.68],[2647.01, 1892.74],[2666.07, 1696.69],[2669.7, 1994.4],[2696.02, 1809.24],[2696.48, 1734.6],[2697.84, 1653.13],[2701.47, 1765.67],[2701.47, 1864.61],[2704.19, 1571.44]]},"properties":{"objectType":"annotation","color":[255, 0, 0]}},{"type":"Feature","id":"8e34e9ed-9aea-436a-a328-1b5a304c38f8","geometry":{"type":"MultiPoint","coordinates":[[2153.16, 1490.16],[2166.36, 1557.54],[2193.36, 1361.2],[2197.04, 1296.16],[2205.63, 1542.81],[2214.22, 1247.08],[2221.58, 1206.58],[2239.99, 1342.79],[2254.71, 1120.69],[2268.21, 1278.98],[2275.58, 1394.33],[2276.8, 1476.55],[2289.07, 1218.85],[2292.57, 1341.9],[2292.75, 1157.5],[2295.21, 1523.18],[2313.62, 1126.82],[2320.98, 1310.89],[2325.89, 1258.12],[2332.02, 1380.83],[2338.16, 1573.49],[2351.66, 1443.42],[2351.66, 1521.95],[2360.25, 1325.61],[2373.74, 1180.81],[2377.43, 1227.44],[2399.9, 1482.42],[2405.43, 1109.54],[2408.1, 1282.66],[2410.56, 1573.49],[2416.69, 1332.98],[2419.15, 1396.79],[2420.37, 1148.91],[2442.46, 1321.93],[2448.6, 1513.36],[2453.51, 1379.61],[2470.69, 1471.64],[2478.05, 1180.81],[2478.05, 1427.46],[2481.73, 1244.62],[2486.64, 1571.03],[2495.23, 1293.71],[2501.36, 1389.42],[2502.59, 1134.18],[2507.23, 1212.44],[2508.73, 1520.72],[2518.54, 1471.64],[2536.95, 1357.52],[2546.77, 1423.78],[2551.67, 1566.13],[2560.26, 1513.36],[2561.49, 1244.62],[2581.13, 1161.18],[2582.35, 1308.43],[2586.03, 1355.06],[2605.67, 1184.5],[2605.67, 1404.15],[2615.48, 1110.87],[2617.94, 1458.14],[2626.73, 1364.02],[2632.66, 1323.16],[2642.48, 1238.49]]},"properties":{"objectType":"annotation","color":[255, 0, 0]}},{"type":"Feature","id":"cb57e844-fac1-4ce4-9a5c-79265dc233f8","geometry":{"type":"MultiPoint","coordinates":[[4184.88, 2012.52],[4194.84, 1890.81],[4204.8, 1952.77],[4208.12, 2209.48],[4214.76, 1838.81],[4235.78, 2106.57],[4247.95, 1991.5],[4255.7, 1942.82],[4259.02, 1821.1],[4264.55, 2180.71],[4265.66, 1792.34],[4270.08, 2057.89],[4273.4, 1739.23],[4285.57, 2215.01],[4293.32, 2115.43],[4312.13, 1837.7],[4314.34, 2180.71],[4315.45, 1779.06],[4316.55, 2081.13],[4324.3, 1960.52],[4324.3, 2028.02],[4350.85, 2137.56],[4365.24, 2198.41],[4370.77, 1898.56],[4375.2, 1759.14],[4376.3, 1954.99],[4389.58, 2091.08],[4391.79, 1810.04],[4391.79, 1865.36],[4403.96, 2219.43],[4421.67, 1825.53],[4423.88, 2009.2],[4431.63, 2156.37],[4437.16, 1751.4],[4459.29, 2195.09],[4460.4, 2109.89],[4463.71, 1970.48],[4476.99, 1833.28],[4480.31, 1925.11],[4488.06, 2041.29],[4493.59, 1883.07],[4506.87, 1760.25],[4513.51, 2210.58],[4516.83, 2169.64],[4532.32, 1842.13],[4535.64, 1958.31],[4542.27, 1741.44],[4544.49, 2124.28],[4547.81, 2073.38],[4553.34, 1870.9],[4567.72, 1984.86],[4575.47, 1781.27],[4576.57, 2184.03],[4586.53, 1821.1],[4589.85, 1905.2],[4589.85, 2037.97],[4593.17, 2109.89],[4606.45, 1951.67],[4616.41, 2189.56],[4620.83, 2012.52],[4628.58, 2083.34],[4636.32, 1763.57],[4637.43, 1881.96]]},"properties":{"objectType":"annotation","color":[255, 0, 0]}},{"type":"Feature","id":"5d862f4d-2bcf-4494-99c2-74fe77cc8c12","geometry":{"type":"MultiPoint","coordinates":[[4546.81, 1574.44],[4549.03, 1680.66],[4564.52, 1990.47],[4572.26, 1780.24],[4575.58, 1547.88],[4580.01, 1654.1],[4585.54, 1824.5],[4602.14, 1907.48],[4627.58, 1597.67],[4628.69, 2022.56],[4632.01, 1563.37],[4636.44, 1766.96],[4637.54, 1882.04],[4660.78, 1936.25],[4661.89, 1971.66],[4662.99, 1839.99],[4685.12, 1723.81],[4686.23, 1543.46],[4690.65, 1875.4],[4692.87, 1665.17],[4695.08, 1940.68],[4703.93, 1573.33],[4706.14, 2017.03],[4726.06, 1894.21],[4729.38, 1734.87],[4732.7, 1608.74],[4733.81, 1842.2],[4733.81, 1977.19],[4736.02, 1784.67],[4738.23, 1548.99],[4772.53, 1809.01],[4773.64, 1729.34],[4788.02, 1609.84],[4789.13, 1996],[4791.34, 1908.59],[4795.77, 1705],[4806.83, 1759.22],[4812.37, 1651.89],[4815.69, 1856.59],[4834.5, 1811.22],[4843.35, 1889.78],[4853.31, 2004.85],[4854.41, 1727.13],[4866.58, 1655.21],[4886.5, 1562.27],[4889.82, 1824.5],[4889.82, 1950.64],[4897.56, 1677.34],[4904.2, 1765.86],[4924.12, 2003.75],[4941.82, 1831.14],[4944.04, 1574.44],[4947.36, 1624.23],[4950.68, 1699.47],[4952.89, 1749.26],[4961.74, 1997.11],[4976.12, 1794.62],[4986.08, 1874.29],[5003.79, 1564.48],[5006, 1680.66],[5012.64, 1839.99],[5014.85, 1628.65],[5019.28, 1733.77],[5022.6, 1796.84]]},"properties":{"objectType":"annotation","color":[255, 0, 0]}},{"type":"Feature","id":"61ee8f2f-5eaf-4675-8416-1d874ac29963","geometry":{"type":"MultiPoint","coordinates":[[3610.84, 883.72],[3614.11, 1258.56],[3619.84, 1346.94],[3625.57, 1170.99],[3633.75, 1301.93],[3650.94, 948.38],[3651.76, 1232.37],[3655.85, 1101.42],[3658.3, 1017.94],[3672.22, 1337.94],[3690.51, 908.64],[3694.31, 1299.48],[3698.41, 1144.8],[3702.5, 1054.77],[3707.41, 879.63],[3721.32, 1348.58],[3731.14, 1220.91],[3738.51, 937.74],[3742.6, 1193.9],[3743.3, 1060.58],[3745.05, 1254.46],[3745.87, 1121.06],[3768.07, 1019.26],[3782.7, 972.93],[3785.14, 1110.15],[3790.07, 1237.28],[3794.16, 1342.85],[3806.44, 1085.87],[3806.44, 1182.44],[3812.98, 1293.75],[3827.71, 1133.34],[3837.53, 1047.41],[3840.26, 921.59],[3858.81, 1129.25],[3874.63, 974.31],[3876, 1247.92],[3880.91, 1207],[3889.09, 1163.62],[3891.55, 1364.95],[3897.28, 916.46],[3902.13, 888.23],[3903.83, 1289.66],[3918.56, 1041.68],[3934.93, 1175.08],[3937.38, 970.48],[3943.93, 1099.78],[3957.02, 1232.37],[3962.75, 1027.76],[3970.12, 1144.8],[3975.85, 888.63],[3979.12, 1297.02],[3993.03, 929.56],[3993.85, 1327.3],[3995.49, 1186.54],[4016.77, 1006.49],[4034.77, 1103.06],[4041.32, 1340.4],[4047.87, 1161.17],[4051.14, 1245.46],[4052.78, 920.55],[4056.87, 981.93],[4065.87, 1069.5]]},"properties":{"objectType":"annotation","color":[255, 0, 0]}},{"type":"Feature","id":"a95c43da-61c9-4089-a783-ab21bfe35100","geometry":{"type":"MultiPoint","coordinates":[[5497.81, 1898.01],[5500.75, 1970.64],[5504.83, 1703.9],[5515.81, 1841.34],[5519.4, 2052.75],[5525.7, 1761.27],[5535.6, 1665.91],[5541.58, 1890.35],[5558.7, 1745.17],[5563.49, 1971.78],[5565.28, 1922.3],[5568.88, 1853.93],[5576.98, 2027.56],[5578.78, 1789.16],[5586.88, 2095.03],[5587.78, 1635.32],[5605.77, 1865.63],[5611.17, 1998.77],[5613.7, 1818.22],[5617.94, 1694.92],[5620.16, 1951.99],[5621.96, 1747.78],[5623.76, 2068.94],[5652.55, 1853.93],[5666.04, 1799.95],[5678.64, 2059.04],[5698.08, 1874.01],[5709.22, 1932.2],[5712.65, 1782.91],[5720.02, 1701.9],[5720.92, 1636.22],[5725.3, 2012.83],[5734.41, 2050.95],[5754.2, 1657.81],[5761.4, 1727.98],[5765.9, 1969.98],[5776.12, 1901.64],[5780.29, 1797.25],[5782.99, 2028.46],[5788.39, 1860.23],[5793.79, 2067.14],[5798.79, 1629.05],[5804.72, 1927.8],[5817.18, 1677.61],[5822.57, 1996.07],[5849.56, 1768.47],[5856.76, 2059.94],[5863.96, 1619.13],[5872.05, 1690.2],[5874.75, 1813.45],[5874.75, 1908.81],[5895.44, 2029.36],[5905.34, 1734.28],[5920.41, 1847.37],[5922.43, 1634.42],[5925.13, 1972.68],[5930.53, 2073.44],[5931.43, 1811.65],[5960.22, 1922.3],[5961.12, 1867.42],[5962.01, 2034.75],[5982.71, 1678.51]]},"properties":{"objectType":"annotation","color":[255, 0, 0]}},{"type":"Feature","id":"2065c81b-178b-448f-8f67-70f626695f56","geometry":{"type":"MultiPoint","coordinates":[[6492.25, 3104.39],[6492.25, 3360.85],[6494.94, 3158.73],[6500.94, 3002.63],[6501.58, 3401.04],[6512.31, 3204.14],[6520.31, 3264.61],[6522.93, 3306.86],[6526.61, 3057.76],[6548.7, 3225.87],[6554.69, 3117.79],[6554.83, 3171.88],[6570.78, 3341.22],[6585.51, 3266.37],[6587.96, 3090.89],[6591.65, 3002.54],[6595.32, 3386.77],[6608.9, 3151.32],[6619.87, 3033.21],[6622.32, 3316.68],[6623.55, 2954.68],[6626, 3191.51],[6636.4, 3240.3],[6658.31, 3065.09],[6659.14, 3160.83],[6666.5, 2975.54],[6670.18, 3105.61],[6674.53, 3022.1],[6683.68, 3327.72],[6688.59, 3206.24],[6708.44, 3285.29],[6710.22, 2992.9],[6722.1, 3125.66],[6727.85, 3246.73],[6744.12, 3329.89],[6749.27, 3057.74],[6763.08, 3009.91],[6763.44, 3142.43],[6764.67, 2954.68],[6787, 3211.69],[6789.21, 3354.72],[6793.04, 3035.1],[6796.57, 3287.23],[6803.94, 3241.82],[6828.48, 2964.5],[6832.16, 3077.39],[6839.82, 3032.09],[6845.66, 3214.83],[6851.79, 3186.6],[6859.16, 3138.75],[6862.46, 3318.85],[6867.74, 3374.35],[6868.97, 3104.39],[6872.65, 3004.99],[6892.29, 3219.74],[6906.23, 3086.42],[6925.42, 3027.08],[6944.14, 2981.39],[6947.51, 3288.45],[6951.5, 3205.95],[6952.42, 3256.55],[6954.87, 3078.62],[6962.23, 3380.49],[6962.54, 3143.37]]},"properties":{"objectType":"annotation","color":[255, 0, 0]}}]}