{"type":"FeatureCollection","features":[{"type":"Feature","id":"211533e5-c129-442e-8ef5-62a96eba09fe","geometry":{"type":"Polygon","coordinates":[[[5209.44, 3770.31],[5209.44, 4281.96],[5721.09, 4281.96],[5721.09, 3770.31],[5209.44, 3770.31]]]},"properties":{"objectType":"annotation","classification":{"name":"Organic","color":[132, 99, 212]}}},{"type":"Feature","id":"76354347-6008-4216-857b-c9befa857c62","geometry":{"type":"Polygon","coordinates":[[[5273.1, 3689.29],[5273.1, 4200.94],[5784.75, 4200.94],[5784.75, 3689.29],[5273.1, 3689.29]]]},"properties":{"objectType":"annotation","classification":{"name":"Organic","color":[132, 99, 212]}}},{"type":"Feature","id":"8917dd19-102a-4099-aca4-86452263ea67","geometry":{"type":"Polygon","coordinates":[[[3762.68, 2855.96],[3762.68, 3367.61],[4274.33, 3367.61],[4274.33, 2855.96],[3762.68, 2855.96]]]},"properties":{"objectType":"annotation","classification":{"name":"Organic","color":[132, 99, 212]}}},{"type":"Feature","id":"acfbdfc4-be6c-47a9-a429-3821224ab812","geometry":{"type":"Polygon","coordinates":[[[3490.69, 3631.42],[3490.69, 4143.07],[4002.34, 4143.07],[4002.34, 3631.42],[3490.69, 3631.42]]]},"properties":{"objectType":"annotation","classification":{"name":"Organic","color":[132, 99, 212]}}},{"type":"Feature","id":"b3442129-4590-4a33-a7f4-b74eccfea338","geometry":{"type":"Polygon","coordinates":[[[3615.22, 2765.46],[3615.22, 3277.11],[4126.87, 3277.11],[4126.87, 2765.46],[3615.22, 2765.46]]]},"properties":{"objectType":"annotation","classification":{"name":"Organic","color":[132, 99, 212]}}},{"type":"Feature","id":"52065222-8b23-416f-933b-57b43b1db031","geometry":{"type":"Polygon","coordinates":[[[2764.58, 2189.44],[2764.58, 2701.09],[3276.23, 2701.09],[3276.23, 2189.44],[2764.58, 2189.44]]]},"properties":{"objectType":"annotation","classification":{"name":"Organic-early stage","color":[205, 72, 2]}}},{"type":"Feature","id":"5f34ddb8-5827-43be-86fb-e5e55f6d7d85","geometry":{"type":"Polygon","coordinates":[[[3230.09, 2340.14],[3230.09, 2851.79],[3741.74, 2851.79],[3741.74, 2340.14],[3230.09, 2340.14]]]},"properties":{"objectType":"annotation","classification":{"name":"Organic-early stage","color":[205, 72, 2]}}},{"type":"Feature","id":"ceb37e88-e223-43e5-9e7c-188848aa6bb3","geometry":{"type":"Polygon","coordinates":[[[2602.26, 1954.47],[2602.26, 2466.12],[3113.9, 2466.12],[3113.9, 1954.47],[2602.26, 1954.47]]]},"properties":{"objectType":"annotation","classification":{"name":"Organic-early stage","color":[205, 72, 2]}}},{"type":"Feature","id":"87089368-6778-4eaf-b8b3-0ef2e20a87ce","geometry":{"type":"Polygon","coordinates":[[[2618.45, 2385.25],[2618.45, 2896.9],[3130.1, 2896.9],[3130.1, 2385.25],[2618.45, 2385.25]]]},"properties":{"objectType":"annotation","classification":{"name":"Organic-early stage","color":[205, 72, 2]}}},{"type":"Feature","id":"0e6101a9-cf61-48f2-af17-3016a178efbc","geometry":{"type":"Polygon","coordinates":[[[2715.89, 2725.27],[2715.89, 3236.92],[3227.54, 3236.92],[3227.54, 2725.27],[2715.89, 2725.27]]]},"properties":{"objectType":"annotation","classification":{"name":"Organic-early stage","color":[205, 72, 2]}}},{"type":"Feature","id":"8365b5c3-3eb0-4148-a9ae-c3631eda3f2c","geometry":{"type":"Polygon","coordinates":[[[2760.44, 3046.88],[2760.44, 3558.53],[3272.09, 3558.53],[3272.09, 3046.88],[2760.44, 3046.88]]]},"properties":{"objectType":"annotation","classification":{"name":"Organic-early stage","color":[205, 72, 2]}}},{"type":"Feature","id":"214b25a1-4601-40ef-850f-6c5ea306c6d7","geometry":{"type":"Polygon","coordinates":[[[3014.97, 3056.93],[3014.97, 3568.58],[3526.62, 3568.58],[3526.62, 3056.93],[3014.97, 3056.93]]]},"properties":{"objectType":"annotation","classification":{"name":"Organic-early stage","color":[205, 72, 2]}}},{"type":"Feature","id":"d445e189-29e8-46db-84c5-afb3a629e2ef","geometry":{"type":"Polygon","coordinates":[[[2797.28, 3284.66],[2797.28, 3796.31],[3308.93, 3796.31],[3308.93, 3284.66],[2797.28, 3284.66]]]},"properties":{"objectType":"annotation","classification":{"name":"Organic-early stage","color":[205, 72, 2]}}},{"type":"Feature","id":"54c29088-2a18-4789-a1f4-7165e29c19f4","geometry":{"type":"Polygon","coordinates":[[[4006.27, 3331.54],[4006.27, 3843.19],[4517.91, 3843.19],[4517.91, 3331.54],[4006.27, 3331.54]]]},"properties":{"objectType":"annotation","classification":{"name":"Organic","color":[132, 99, 212]}}},{"type":"Feature","id":"76e0a851-a1bd-474c-b9ae-6cc6b2a62a96","geometry":{"type":"Polygon","coordinates":[[[4220.6, 3425.31],[4220.6, 3936.96],[4732.25, 3936.96],[4732.25, 3425.31],[4220.6, 3425.31]]]},"properties":{"objectType":"annotation","classification":{"name":"Organic","color":[132, 99, 212]}}},{"type":"Feature","id":"5bc50d23-59c0-4f69-ba1d-b83ca610cba4","geometry":{"type":"Polygon","coordinates":[[[4103.39, 2906.22],[4103.39, 3417.87],[4615.03, 3417.87],[4615.03, 2906.22],[4103.39, 2906.22]]]},"properties":{"objectType":"annotation","classification":{"name":"Organic","color":[132, 99, 212]}}},{"type":"Feature","id":"18b2607a-6822-4528-89f4-fd7f63f1de81","geometry":{"type":"Polygon","coordinates":[[[4187.11, 2641.65],[4187.11, 3153.3],[4698.76, 3153.3],[4698.76, 2641.65],[4187.11, 2641.65]]]},"properties":{"objectType":"annotation","classification":{"name":"Organic","color":[132, 99, 212]}}},{"type":"Feature","id":"32fe7b93-20e2-4be1-bd44-e2b00602fe1b","geometry":{"type":"Polygon","coordinates":[[[3564.2, 3398.52],[3564.2, 3910.17],[4075.85, 3910.17],[4075.85, 3398.52],[3564.2, 3398.52]]]},"properties":{"objectType":"annotation","classification":{"name":"Organic","color":[132, 99, 212]}}},{"type":"Feature","id":"e2bc7afe-c000-49f4-9ff7-56559377513c","geometry":{"type":"Polygon","coordinates":[[[3306.33, 3756.86],[3306.33, 4268.51],[3817.98, 4268.51],[3817.98, 3756.86],[3306.33, 3756.86]]]},"properties":{"objectType":"annotation","classification":{"name":"Organic","color":[132, 99, 212]}}},{"type":"Feature","id":"f047c897-c12b-4ed2-a940-255897490ff3","geometry":{"type":"Polygon","coordinates":[[[4873.65, 3770.26],[4873.65, 4281.91],[5385.3, 4281.91],[5385.3, 3770.26],[4873.65, 3770.26]]]},"properties":{"objectType":"annotation","classification":{"name":"Organic","color":[132, 99, 212]}}},{"type":"Feature","id":"ee3fe4ed-df76-46c0-9449-ddc6a859fa7b","geometry":{"type":"Polygon","coordinates":[[[5101.38, 3050.23],[5101.38, 3561.88],[5613.03, 3561.88],[5613.03, 3050.23],[5101.38, 3050.23]]]},"properties":{"objectType":"annotation","classification":{"name":"Organic","color":[132, 99, 212]}}},{"type":"Feature","id":"c6be649f-e9c8-4d8c-a3af-93c6e8c3c2d5","geometry":{"type":"Polygon","coordinates":[[[4763.13, 2835.89],[4763.13, 3347.54],[5274.78, 3347.54],[5274.78, 2835.89],[4763.13, 2835.89]]]},"properties":{"objectType":"annotation","classification":{"name":"Organic","color":[132, 99, 212]}}},{"type":"Feature","id":"a40bee87-d1cf-45cc-ac1e-f0cb79d47835","geometry":{"type":"Polygon","coordinates":[[[4297.63, 3774.97],[4297.63, 4283],[4809.28, 4283],[4809.28, 3774.97],[4297.63, 3774.97]]]},"properties":{"objectType":"annotation","classification":{"name":"Organic-early stage","color":[205, 72, 2]}}},{"type":"Feature","id":"a1551ef5-8569-4e0d-a46b-b703cb7b5a8d","geometry":{"type":"Polygon","coordinates":[[[4659.32, 3319.51],[4659.32, 3831.16],[5170.97, 3831.16],[5170.97, 3319.51],[4659.32, 3319.51]]]},"properties":{"objectType":"annotation","classification":{"name":"Organic-early stage","color":[205, 72, 2]}}},{"type":"Feature","id":"141d3425-f730-4eae-9711-6436c35aa8ff","geometry":{"type":"Polygon","coordinates":[[[2559.3, 1552.2],[2559.3, 2063.85],[3070.95, 2063.85],[3070.95, 1552.2],[2559.3, 1552.2]]]},"properties":{"objectType":"annotation","classification":{"name":"Organic-early stage","color":[205, 72, 2]}}},{"type":"Feature","id":"d4679918-d6f0-4644-a70a-9f35c20d7aad","geometry":{"type":"Polygon","coordinates":[[[2779.2, 1685.3],[2779.2, 2196.95],[3290.85, 2196.95],[3290.85, 1685.3],[2779.2, 1685.3]]]},"properties":{"objectType":"annotation","classification":{"name":"Organic-early stage","color":[205, 72, 2]}}},{"type":"Feature","id":"3647a0a1-4be5-41b6-a829-f4c2f45c1b33","geometry":{"type":"Polygon","coordinates":[[[2437.77, 1314.93],[2437.77, 1826.58],[2949.42, 1826.58],[2949.42, 1314.93],[2437.77, 1314.93]]]},"properties":{"objectType":"annotation","classification":{"name":"Organic-early stage","color":[205, 72, 2]}}},{"type":"Feature","id":"b06f7260-8b83-4be5-a55b-680d76902dd9","geometry":{"type":"Polygon","coordinates":[[[2287.88, 1058.76],[2287.88, 1570.41],[2799.53, 1570.41],[2799.53, 1058.76],[2287.88, 1058.76]]]},"properties":{"objectType":"annotation","classification":{"name":"Organic-early stage","color":[205, 72, 2]}}},{"type":"Feature","id":"08ea5923-7809-4a21-b6fc-fb0dadd2a42f","geometry":{"type":"Polygon","coordinates":[[[3019.03, 1979.72],[3019.03, 2491.37],[3530.68, 2491.37],[3530.68, 1979.72],[3019.03, 1979.72]]]},"properties":{"objectType":"annotation","classification":{"name":"Organic-early stage","color":[205, 72, 2]}}},{"type":"Feature","id":"c1d6651d-281d-4d04-baa4-5a541444297f","geometry":{"type":"Polygon","coordinates":[[[3911.39, 3759.22],[3911.39, 4270.87],[4423.04, 4270.87],[4423.04, 3759.22],[3911.39, 3759.22]]]},"properties":{"objectType":"annotation","classification":{"name":"Organic-early stage","color":[205, 72, 2]}}},{"type":"Feature","id":"4a45e6e4-b6cc-409d-9162-c69683c8bcfe","geometry":{"type":"Polygon","coordinates":[[[1576.9, 1277.63],[1576.9, 1789.28],[2088.55, 1789.28],[2088.55, 1277.63],[1576.9, 1277.63]]]},"properties":{"objectType":"annotation","classification":{"name":"Organic-v early stage","color":[18, 184, 0]}}},{"type":"Feature","id":"c0789e23-7314-4e15-8e25-c2b29cd17ddb","geometry":{"type":"Polygon","coordinates":[[[1633.56, 1667.99],[1633.56, 2179.64],[2145.21, 2179.64],[2145.21, 1667.99],[1633.56, 1667.99]]]},"properties":{"objectType":"annotation","classification":{"name":"Organic-v early stage","color":[18, 184, 0]}}},{"type":"Feature","id":"f931c01b-2f81-4c07-a360-f26646466ae6","geometry":{"type":"Polygon","coordinates":[[[1043.15, 1596.19],[1043.15, 2107.84],[1554.8, 2107.84],[1554.8, 1596.19],[1043.15, 1596.19]]]},"properties":{"objectType":"annotation","classification":{"name":"Organic-v early stage","color":[18, 184, 0]}}},{"type":"Feature","id":"5588c253-46c6-46e3-b185-6919b8f1d7fe","geometry":{"type":"Polygon","coordinates":[[[1056.63, 2060.41],[1056.63, 2572.06],[1568.28, 2572.06],[1568.28, 2060.41],[1056.63, 2060.41]]]},"properties":{"objectType":"annotation","classification":{"name":"Organic-v early stage","color":[18, 184, 0]}}},{"type":"Feature","id":"c0845832-48c9-43e4-9484-91c98955762e","geometry":{"type":"Polygon","coordinates":[[[1805.5, 2279.02],[1805.5, 2790.67],[2317.15, 2790.67],[2317.15, 2279.02],[1805.5, 2279.02]]]},"properties":{"objectType":"annotation","classification":{"name":"Organic-v early stage","color":[18, 184, 0]}}},{"type":"Feature","id":"0246f99c-3832-4bbe-b37e-93d4ee6bea7d","geometry":{"type":"Polygon","coordinates":[[[1072.91, 2458.1],[1072.91, 2969.75],[1584.56, 2969.75],[1584.56, 2458.1],[1072.91, 2458.1]]]},"properties":{"objectType":"annotation","classification":{"name":"Organic-v early stage","color":[18, 184, 0]}}},{"type":"Feature","id":"2d2d290f-df42-4b38-a52b-cd74d0e5c1bf","geometry":{"type":"Polygon","coordinates":[[[1135.34, 2812.77],[1135.34, 3324.42],[1646.99, 3324.42],[1646.99, 2812.77],[1135.34, 2812.77]]]},"properties":{"objectType":"annotation","classification":{"name":"Organic-v early stage","color":[18, 184, 0]}}},{"type":"Feature","id":"f08a4225-3bfc-40b7-9ff8-5c7ab7e9bf17","geometry":{"type":"Polygon","coordinates":[[[1301.84, 3198.97],[1301.84, 3710.62],[1813.49, 3710.62],[1813.49, 3198.97],[1301.84, 3198.97]]]},"properties":{"objectType":"annotation","classification":{"name":"Organic-v early stage","color":[18, 184, 0]}}},{"type":"Feature","id":"b66aa7eb-e912-4bad-ad8d-2b68a3aac041","geometry":{"type":"Polygon","coordinates":[[[1477.66, 3478.05],[1477.66, 3989.7],[1989.31, 3989.7],[1989.31, 3478.05],[1477.66, 3478.05]]]},"properties":{"objectType":"annotation","classification":{"name":"Organic-v early stage","color":[18, 184, 0]}}},{"type":"Feature","id":"1a513632-a77a-410b-b611-c18e5cc97d90","geometry":{"type":"Polygon","coordinates":[[[1176.26, 3759.93],[1176.26, 4271.58],[1687.9, 4271.58],[1687.9, 3759.93],[1176.26, 3759.93]]]},"properties":{"objectType":"annotation","classification":{"name":"Organic-v early stage","color":[18, 184, 0]}}},{"type":"Feature","id":"571f7461-7892-4739-bdd7-e2435070bda9","geometry":{"type":"Polygon","coordinates":[[[1915.82, 3743.18],[1915.82, 4254.83],[2427.47, 4254.83],[2427.47, 3743.18],[1915.82, 3743.18]]]},"properties":{"objectType":"annotation","classification":{"name":"Organic-v early stage","color":[18, 184, 0]}}},{"type":"Feature","id":"dbb6cbf5-7353-4184-987d-8cead1112990","geometry":{"type":"Polygon","coordinates":[[[2312.12, 3757.14],[2312.12, 4268.79],[2823.77, 4268.79],[2823.77, 3757.14],[2312.12, 3757.14]]]},"properties":{"objectType":"annotation","classification":{"name":"Organic-v early stage","color":[18, 184, 0]}}},{"type":"Feature","id":"8424997f-d772-4bc9-8c56-8a4c879f598c","geometry":{"type":"Polygon","coordinates":[[[2264.67, 3226.88],[2264.67, 3738.53],[2776.32, 3738.53],[2776.32, 3226.88],[2264.67, 3226.88]]]},"properties":{"objectType":"annotation","classification":{"name":"Organic-v early stage","color":[18, 184, 0]}}},{"type":"Feature","id":"3720c31b-a1bd-4b66-b210-a8e420aae843","geometry":{"type":"Polygon","coordinates":[[[2072.76, 2666.17],[2072.76, 3177.82],[2584.41, 3177.82],[2584.41, 2666.17],[2072.76, 2666.17]]]},"properties":{"objectType":"annotation","classification":{"name":"Organic-v early stage","color":[18, 184, 0]}}},{"type":"Feature","id":"57e18a32-95c0-456d-8e40-0e0c753d67e0","geometry":{"type":"Polygon","coordinates":[[[1580.86, 2685.46],[1580.86, 3197.11],[2092.51, 3197.11],[2092.51, 2685.46],[1580.86, 2685.46]]]},"properties":{"objectType":"annotation","classification":{"name":"Organic-v early stage","color":[18, 184, 0]}}},{"type":"Feature","id":"4eca88a6-7be4-421e-ad52-0edddd80ec0f","geometry":{"type":"MultiPoint","coordinates":[[2307.05, 1127.17],[2335.82, 1434.77],[2422.13, 1109.47],[2487.41, 1134.92],[2499.58, 1203.52],[2522.82, 1275.44],[2530.56, 1362.85],[2540.52, 1435.88],[2546.05, 1501.16],[2577.03, 1168.11],[2623.51, 1543.2],[2724.2, 1286.5]]},"properties":{"objectType":"annotation","color":[255, 128, 128]}},{"type":"Feature","id":"a197dc02-3900-4aed-96ea-8094e7779bc1","geometry":{"type":"MultiPoint","coordinates":[[5151.41, 3437.33],[5165.79, 3112.03],[5208.95, 3062.24],[5213.37, 3320.05],[5249.89, 3195.01],[5293.04, 3429.59],[5294.14, 3089.9],[5298.57, 3155.18],[5326.23, 3311.19],[5363.85, 3124.2],[5374.92, 3189.48],[5430.24, 3148.54],[5455.69, 3212.72],[5496.63, 3110.92],[5509.91, 3168.46],[5516.55, 3250.34],[5529.82, 3414.1],[5550.85, 3060.03],[5559.7, 3146.33],[5565.23, 3195.01],[5580.72, 3275.79]]},"properties":{"objectType":"annotation","color":[0, 0, 128]}},{"type":"Feature","id":"75b49cae-7f59-4dfc-9c4e-35af41de7ccf","geometry":{"type":"MultiPoint","coordinates":[[5245.17, 4055.41],[5252.91, 4200.36],[5256.23, 4129.55],[5292.75, 3918.21],[5303.81, 4089.72],[5312.66, 4157.21],[5330.37, 4243.52],[5356.92, 3934.81],[5361.35, 4102.99],[5372.41, 4046.56],[5417.78, 3841.87],[5423.31, 3986.81],[5423.31, 4054.31],[5432.16, 3907.15],[5445.44, 4133.97],[5454.29, 4213.64],[5470.89, 3850.72],[5475.31, 4014.48],[5486.38, 3799.82],[5517.36, 4098.57],[5533.96, 3826.37],[5553.87, 3879.49],[5570.47, 4115.16],[5574.9, 4045.46],[5598.13, 4266.75],[5619.15, 3913.79],[5632.43, 4080.86],[5661.2, 3876.17],[5661.2, 4229.13],[5701.03, 4020.01],[5707.67, 4109.63]]},"properties":{"objectType":"annotation","color":[0, 0, 128]}},{"type":"Feature","id":"c1d7f200-d9d8-48ed-a18e-2ca32a65f03d","geometry":{"type":"MultiPoint","coordinates":[[5303.57, 3927.31],[5317.53, 4076.97],[5322.52, 4163.77],[5350.46, 3942.28],[5363.43, 4027.08],[5376.4, 4110.89],[5397.35, 3761.69],[5404.33, 3831.53],[5413.31, 3909.35],[5427.28, 3980.19],[5432.27, 4055.02],[5455.22, 4131.84],[5467.19, 3804.6],[5474.17, 3858.47],[5480.16, 4033.07],[5510.09, 4092.93],[5524.06, 3752.71],[5532.04, 3817.57],[5552.99, 3894.39],[5577.93, 4034.07],[5587.91, 4120.86],[5590.9, 3709.81],[5601.88, 3761.69],[5622.83, 3923.32],[5633.8, 4063],[5655.75, 3717.8],[5678.7, 3888.4],[5696.66, 4026.08],[5710.63, 4095.92],[5710.99, 4185.98]]},"properties":{"objectType":"annotation","color":[0, 0, 128]}},{"type":"Feature","id":"1ce01c97-2dff-4979-9175-6b63b85f38ed","geometry":{"type":"MultiPoint","coordinates":[[4942.41, 4208.29],[4981.09, 4245.18],[5045.86, 4032.87],[5065.65, 4193],[5074.65, 4266.77],[5092.64, 3915.02],[5122.33, 3995.99],[5128.63, 4221.79],[5167.31, 3870.04],[5191.6, 4107.54],[5194.3, 4031.07],[5233.88, 4067.05],[5247.38, 4144.42],[5264.47, 4215.49],[5300.45, 3929.41],[5317.55, 4243.38],[5321.14, 4085.95],[5328.34, 4168.71],[5364.33, 4040.97],[5371.52, 3941.11],[5371.52, 4123.73]]},"properties":{"objectType":"annotation","color":[0, 0, 128]}},{"type":"Feature","id":"43e64790-2f5a-48ce-86c8-32396c0bc888","geometry":{"type":"MultiPoint","coordinates":[[4797.12, 2896.58],[4804.1, 2981.39],[4817.07, 3305.64],[4829.04, 3046.24],[4852.99, 3181.93],[4876.93, 3004.34],[4880.92, 3244.78],[4898.88, 3077.17],[4921.83, 3145.01],[4949.77, 2951.46],[4963.73, 3098.12],[5004.64, 2902.57],[5007.63, 3299.65],[5018.61, 2972.41],[5025.59, 3046.24],[5057.52, 3199.88],[5059.51, 2862.66],[5075.48, 2930.51],[5083.46, 3002.34],[5096.43, 3074.17],[5104.41, 3148],[5160.28, 3036.26],[5180.23, 3104.1],[5201.19, 2908.56],[5207.17, 3320.6],[5229.12, 3062.2],[5252.07, 3186.91],[5262.04, 2885.61]]},"properties":{"objectType":"annotation","color":[0, 0, 128]}},{"type":"Feature","id":"2cd7efdd-253d-4590-8d2c-33b9f6865f77","geometry":{"type":"MultiPoint","coordinates":[[4076.6, 3718.47],[4086.58, 3386.23],[4142.45, 3420.16],[4145.44, 3347.32],[4152.42, 3747.4],[4186.34, 3553.85],[4191.33, 3638.65],[4207.3, 3694.52],[4212.28, 3350.32],[4216.28, 3780.32],[4227.25, 3440.11],[4252.19, 3647.63],[4312.05, 3809.26],[4354.96, 3807.26],[4355.95, 3682.55],[4367.93, 3567.81],[4399.85, 3783.32],[4413.82, 3352.31],[4415.81, 3447.09],[4421.8, 3511.94],[4429.78, 3594.75],[4443.75, 3673.57],[4478.67, 3768.35]]},"properties":{"objectType":"annotation","color":[0, 0, 128]}},{"type":"Feature","id":"9a813192-9def-45fa-a8e6-e74f9c9432cf","geometry":{"type":"MultiPoint","coordinates":[[4238.23, 3851.16],[4277.14, 3654.61],[4296.09, 3802.27],[4341.99, 3682.55],[4368.92, 3816.24],[4378.9, 3560.83],[4413.82, 3778.33],[4431.78, 3525.91],[4437.76, 3450.09],[4454.73, 3586.77],[4459.71, 3673.57],[4483.66, 3750.39],[4502.61, 3888.08],[4536.54, 3717.47],[4551.5, 3778.33],[4564.47, 3923.99],[4568.46, 3488],[4620.34, 3863.13],[4646.28, 3511.94],[4687.19, 3667.58],[4703.15, 3873.11],[4716.12, 3546.86],[4726.1, 3629.67]]},"properties":{"objectType":"annotation","color":[0, 0, 128]}},{"type":"Feature","id":"0247f5a4-c98e-44db-bc42-1324d7f3cc86","geometry":{"type":"MultiPoint","coordinates":[[3333.29, 4058.11],[3389.72, 4016.07],[3418.49, 4156.59],[3426.23, 3818.01],[3430.66, 4246.21],[3467.17, 3893.25],[3479.34, 3783.71],[3509.22, 3914.27],[3533.56, 4079.14],[3565.65, 4207.49],[3571.18, 3941.93],[3598.84, 4093.52],[3613.23, 4162.12],[3620.97, 4246.21],[3638.68, 3811.37],[3680.72, 4131.14],[3684.04, 3781.5],[3698.43, 3843.46],[3733.83, 4076.92],[3747.11, 4155.48],[3761.49, 4237.36],[3784.73, 3885.5],[3798.01, 4017.17],[3811.29, 4180.93]]},"properties":{"objectType":"annotation","color":[0, 0, 128]}},{"type":"Feature","id":"67c15e46-1228-4d87-bb13-a64c46220802","geometry":{"type":"MultiPoint","coordinates":[[3522.5, 3904.31],[3530.24, 4064.75],[3533.56, 3658.68],[3549.05, 3735.02],[3588.88, 3941.93],[3589.99, 3691.87],[3599.95, 4102.37],[3620.97, 3754.94],[3626.5, 3830.18],[3664.13, 4115.65],[3677.4, 3855.63],[3684.04, 3708.47],[3688.47, 3774.86],[3737.15, 4057.01],[3749.32, 3715.11],[3760.39, 3881.08],[3792.48, 4026.03],[3822.35, 3744.98],[3830.1, 3903.21],[3843.37, 3815.8],[3862.18, 4051.47],[3906.44, 3929.76],[3992.75, 4033.77]]},"properties":{"objectType":"annotation","color":[0, 0, 128]}},{"type":"Feature","id":"0d9e299c-aaff-41ae-9517-fb8c634827a3","geometry":{"type":"MultiPoint","coordinates":[[3616.42, 3680.27],[3617.53, 3746.66],[3621.95, 3803.08],[3638.55, 3495.49],[3662.89, 3634.9],[3673.96, 3700.18],[3693.87, 3439.06],[3697.19, 3793.13],[3707.15, 3859.52],[3723.75, 3586.22],[3742.56, 3730.06],[3776.86, 3480],[3781.28, 3863.94],[3783.5, 3544.17],[3797.88, 3621.62],[3804.52, 3755.51],[3820.01, 3824.11],[3823.33, 3423.56],[3837.71, 3575.15],[3839.93, 3497.7],[3855.42, 3896.03],[3858.74, 3633.79],[3896.36, 3450.12],[3904.1, 3533.11],[3928.44, 3601.71],[4065.65, 3711.25]]},"properties":{"objectType":"annotation","color":[0, 0, 128]}},{"type":"Feature","id":"4864458b-1925-42bb-a0ff-e0be6082b2ed","geometry":{"type":"Polygon","coordinates":[[[3822.07, 2522.04],[3822.07, 3033.69],[4333.72, 3033.69],[4333.72, 2522.04],[3822.07, 2522.04]]]},"properties":{"objectType":"annotation","classification":{"name":"Organic","color":[132, 99, 212]}}},{"type":"Feature","id":"a2435b6c-d496-4bbd-a76a-b12a66c2c872","geometry":{"type":"MultiPoint","coordinates":[[4206.06, 2887.88],[4219.56, 2946.35],[4248.34, 2685.46],[4249.24, 2745.74],[4314.91, 2788.02],[4333.81, 2852.79],[4371.59, 3072.3],[4427.37, 3108.28],[4463.35, 2682.77],[4467.85, 2831.2],[4474.15, 2931.06],[4494.84, 3047.11],[4513.73, 3127.17],[4565.01, 3078.6],[4581.2, 2743.94],[4596.49, 2811.41],[4599.19, 2888.78],[4615.39, 2958.05],[4619.88, 3036.31],[4625.28, 2698.06],[4643.27, 2770.03],[4643.27, 3106.48],[4657.67, 2829.4],[4684.66, 2997.63]]},"properties":{"objectType":"annotation","color":[0, 0, 128]}},{"type":"Feature","id":"0f7cd5c3-459e-445a-9229-93a68d0028b9","geometry":{"type":"MultiPoint","coordinates":[[4125.1, 3282.81],[4138.59, 2995.83],[4159.43, 3070.51],[4164.68, 3403.36],[4166.48, 3342.18],[4197.06, 3292.7],[4218.66, 2960.75],[4225.85, 3355.68],[4241.15, 3172.16],[4304.12, 3197.34],[4340.1, 3271.11],[4367.09, 3085.79],[4379.69, 3139.77],[4393.18, 3233.33],[4397.68, 3316.09],[4437.26, 3102.89],[4438.16, 3381.77],[4457.05, 3179.35],[4457.95, 2931.06],[4488.54, 3059.7],[4533.52, 3199.14],[4550.61, 3272.91],[4573.1, 3062.4],[4580.3, 3158.66]]},"properties":{"objectType":"annotation","color":[0, 0, 128]}},{"type":"Feature","id":"c46af0fa-7ee9-45a7-9f68-f3b5b6153538","geometry":{"type":"MultiPoint","coordinates":[[3793.82, 3196.7],[3814.1, 3346.77],[3837.63, 3156.14],[3856.29, 3238.88],[3871.7, 3303.77],[3881.43, 2951.73],[3904.14, 3106.66],[3928.48, 3181.29],[3940.65, 3260.78],[3944.7, 2903.05],[3952.81, 3337.03],[3955.25, 2980.12],[3964.98, 3069.35],[3971.47, 3130.18],[3992.56, 3217.79],[4037.99, 3085.57],[4043.67, 3165.06],[4076.11, 3029.6],[4084.22, 3308.64],[4087.47, 2977.68],[4118.29, 3199.13],[4126.41, 3264.84],[4136.95, 3335.41],[4145.06, 2986.61],[4160.48, 3083.14],[4193.73, 2892.51],[4201.85, 3357.31],[4205.9, 2946.05],[4231.86, 3155.33]]},"properties":{"objectType":"annotation","color":[0, 0, 128]}},{"type":"Feature","id":"a17b780e-222a-4618-8e13-6a5fe3526e19","geometry":{"type":"MultiPoint","coordinates":[[3685.48, 2885.08],[3719.78, 3078.71],[3726.42, 3166.13],[3730.84, 3241.37],[3734.58, 2833.2],[3779.53, 3199.32],[3791.96, 2793.63],[3793.93, 2860.9],[3850.34, 3155.06],[3858.09, 3224.77],[3870.26, 2814.27],[3879.01, 2967.09],[3910.09, 3116.33],[3922.26, 3180.51],[3926.5, 2905.09],[3928.9, 3249.11],[3935.07, 2835.18],[3946.28, 2979.62],[3962.11, 3056.12],[3980.91, 3145.1],[3996.4, 3205.96],[4032.91, 3097.52],[4032.91, 3156.17],[4060.38, 3014.57],[4070.93, 2820.01],[4074.89, 2973.68]]},"properties":{"objectType":"annotation","color":[0, 0, 128]}},{"type":"Feature","id":"6ba6f5f0-b3d8-4e90-a9f4-73bec5908475","geometry":{"type":"MultiPoint","coordinates":[[3848.01, 2732.24],[3858.69, 2822.31],[3897.49, 2963.45],[3920.88, 2764.63],[3928.98, 2850.99],[3932.58, 2916.67],[3955.97, 2991.33],[3971.26, 2631.49],[3976.66, 2720.55],[4039.63, 2674.67],[4052.23, 2827.6],[4054.03, 2753.83],[4054.93, 3014.72],[4090.91, 2965.24],[4105.3, 2691.76],[4127.79, 2775.43],[4152.98, 2999.43],[4159.28, 2734.04],[4169.18, 2644.08],[4179.07, 2810.51],[4199.76, 2876.18],[4209.66, 2950.85],[4230.35, 2605.4],[4236.65, 2673.77],[4248.34, 2759.23],[4328.41, 2865.39],[4332.01, 2783.52]]},"properties":{"objectType":"annotation","color":[0, 0, 128]}},{"type":"Feature","id":"cd737ca2-b6dd-41d7-a2db-3e5679935a83","geometry":{"type":"MultiPoint","coordinates":[[2584.64, 1660.06],[2590.08, 1734.91],[2606.41, 1807.04],[2630.91, 2028.87],[2637.71, 1604.27],[2655.4, 1760.77],[2718.01, 1641.01],[2719.37, 1700.89],[2758.83, 2019.34],[2788.77, 1647.81],[2806.46, 1891.41],[2833.68, 1616.51],[2852.73, 1683.2],[2860.9, 1768.93],[2873.15, 1836.98],[2987.46, 1666.87],[2991.55, 1737.63],[3021.49, 1887.33],[3041.9, 2004.37]]},"properties":{"objectType":"annotation","color":[255, 128, 128]}},{"type":"Feature","id":"bd6e9994-eeaf-4d95-8ca7-d5211a064fbc","geometry":{"type":"Polygon","coordinates":[[[2817.28, 3590.4],[2817.28, 4102.05],[3328.93, 4102.05],[3328.93, 3590.4],[2817.28, 3590.4]]]},"properties":{"objectType":"annotation","classification":{"name":"Organic-early stage","color":[205, 72, 2]}}},{"type":"Feature","id":"a6596e4a-ebcf-4506-be75-b4a6ba1f7cff","geometry":{"type":"MultiPoint","coordinates":[[2491.52, 1564.81],[2500.11, 1654.39],[2508.7, 1699.79],[2534.47, 1377.06],[2538.15, 1451.91],[2559.02, 1512.04],[2583.56, 1672.79],[2599.51, 1732.92],[2611.78, 1793.05],[2616.69, 1542.72],[2638.78, 1615.12],[2676.82, 1743.97],[2718.54, 1633.53],[2719.77, 1719.42],[2773.76, 1648.25],[2786.03, 1745.19],[2833.89, 1610.21],[2836.34, 1685.07],[2849.84, 1763.6]]},"properties":{"objectType":"annotation","color":[255, 128, 128]}},{"type":"Feature","id":"ae11d1b7-ef06-4c5b-9d18-9f26d56a61cb","geometry":{"type":"MultiPoint","coordinates":[[2623.99, 2017.94],[2653.44, 2186.06],[2662.03, 2263.36],[2677.98, 2332.08],[2698.84, 2073.16],[2698.84, 2144.34],[2723.38, 2206.92],[2728.29, 2283],[2743.02, 2019.17],[2763.88, 2097.71],[2779.83, 2175.01],[2793.33, 2246.19],[2803.14, 2319.81],[2848.55, 2189.74],[2851, 2151.7],[2865.73, 2280.54],[2984.76, 2260.91],[2998.25, 2202.01],[3048.57, 1999.54],[3097.65, 2084.21]]},"properties":{"objectType":"annotation","color":[255, 128, 128]}},{"type":"Feature","id":"410e43b6-cfce-446b-8791-48c8f59fa216","geometry":{"type":"MultiPoint","coordinates":[[2822.78, 2049.76],[2843.64, 2138.12],[2873.09, 1762.62],[2901.32, 2071.85],[2985.99, 1747.89],[3004.57, 1893.27],[3026.48, 2008.04],[3074.34, 1785.94],[3085.38, 1919.69],[3102.56, 2074.31],[3107.47, 1730.72],[3135.69, 1880.42],[3145.51, 1958.96],[3163.92, 2020.31],[3167.6, 2098.85],[3177.42, 2178.61],[3200.73, 1837.47],[3201.96, 1751.58],[3220.36, 1992.09],[3232.64, 2047.31],[3264.4, 1860.28],[3284.14, 1940.01]]},"properties":{"objectType":"annotation","color":[255, 128, 128]}},{"type":"Feature","id":"50711a0c-ebb8-46cf-8188-315a9509319a","geometry":{"type":"MultiPoint","coordinates":[[3041.6, 2013.98],[3107.43, 2067.37],[3110.36, 2239.99],[3152.05, 2456.49],[3156.44, 2031.53],[3168.14, 2124.42],[3190.81, 2267.78],[3194.47, 2180.01],[3202.52, 2354.09],[3211.29, 2005.2],[3224.46, 2049.09],[3247.13, 2223.9],[3268.35, 2365.8],[3313.69, 2251.69],[3336.37, 2322.64],[3352.46, 2460.88],[3372.94, 2201.96],[3380.99, 2272.9],[3393.42, 2052.74],[3433.65, 2063.72],[3462.91, 2224.63],[3464.37, 2297.04]]},"properties":{"objectType":"annotation","color":[255, 128, 128]}},{"type":"Feature","id":"41218c52-10bd-4c7f-8d04-bb6260946952","geometry":{"type":"MultiPoint","coordinates":[[2881.17, 3330.79],[2902.76, 3773.4],[2911.76, 3485.52],[2912.66, 3551.2],[2947.75, 3788.69],[2996.32, 3582.68],[3033.21, 3379.37],[3052.1, 3535],[3059.3, 3621.37],[3079.99, 3682.54],[3129.47, 3644.76],[3163.65, 3382.97],[3207.73, 3742.81],[3239.22, 3482.83],[3250.92, 3641.16],[3283.3, 3346.98],[3298.59, 3436.05]]},"properties":{"objectType":"annotation","color":[255, 128, 128]}},{"type":"Feature","id":"a5d0f287-2e54-4d01-ab42-5aa3fa2045ce","geometry":{"type":"MultiPoint","coordinates":[[3027.42, 3389.01],[3046.31, 3536.55],[3059.81, 3123.62],[3109.29, 3068.75],[3137.17, 3219.88],[3161.46, 3364.72],[3175.86, 3092.14],[3210.04, 3254.97],[3240.63, 3464.58],[3250.52, 3129.92],[3264.92, 3195.59],[3290.11, 3287.35],[3306.3, 3421.4],[3328.79, 3100.23],[3334.19, 3239.67],[3337.79, 3314.34],[3400.76, 3254.97],[3417.85, 3326.94],[3425.95, 3399.8],[3454.74, 3138.02],[3480.83, 3317.04]]},"properties":{"objectType":"annotation","color":[255, 128, 128]}},{"type":"Feature","id":"4589d216-2fa8-40d0-bb39-7392b79ea918","geometry":{"type":"MultiPoint","coordinates":[[2883.97, 3343.56],[2912.9, 3473.26],[2997.71, 3169.96],[3019.66, 3381.47],[3050.58, 3521.15],[3056.57, 3111.09],[3122.42, 3068.19],[3145.37, 3207.87],[3151.35, 3373.49],[3191.26, 3091.14],[3196.25, 3248.78],[3243.14, 3198.89],[3249.13, 3123.07],[3252.12, 3474.26]]},"properties":{"objectType":"annotation","color":[255, 128, 128]}},{"type":"Feature","id":"f630c5a1-1297-4a32-8413-8a0cb744ec20","geometry":{"type":"MultiPoint","coordinates":[[2787.41, 2674.69],[2803.6, 2242.88],[2806.3, 2296.85],[2855.78, 2618.92],[2866.57, 2267.17],[2889.06, 2484.87],[2961.03, 2528.06],[2990.72, 2672.89],[3000.61, 2259.97],[3001.51, 2602.72],[3032.1, 2479.48],[3032.1, 2542.45],[3113.97, 2662.1],[3121.16, 2231.18],[3144.55, 2461.48],[3167.94, 2609.92],[3188.63, 2257.27],[3199.43, 2344.53],[3218.32, 2492.07],[3233.61, 2214.09]]},"properties":{"objectType":"annotation","color":[255, 128, 128]}},{"type":"Feature","id":"ee9549a7-7525-47dc-a033-71a6fcf1b87c","geometry":{"type":"MultiPoint","coordinates":[[2636.78, 2528.23],[2651.75, 2602.06],[2654.74, 2672.9],[2695.65, 2481.34],[2712.61, 2558.16],[2726.57, 2629],[2736.55, 2720.79],[2747.53, 2784.64],[2823.35, 2886.41],[2879.22, 2767.68],[2899.18, 2494.31],[2953.05, 2855.48],[2967.02, 2517.26],[2984.98, 2613.04],[2995.95, 2660.93],[3035.86, 2487.33],[3036.86, 2541.2],[3103.7, 2653.94],[3122.66, 2744.73]]},"properties":{"objectType":"annotation","color":[255, 128, 128]}},{"type":"Feature","id":"1130f166-b6a2-4ad3-a76e-00d17fb84d4d","geometry":{"type":"MultiPoint","coordinates":[[2737.83, 2788.55],[2808.9, 2883.01],[2841.29, 2955.87],[2862.88, 2766.96],[2868.51, 3188.46],[2903.36, 2993.66],[2947.44, 2864.11],[2978.03, 3010.75],[3000.52, 3158.29],[3024.81, 2900.1],[3041.9, 2968.47],[3048.2, 3036.84],[3068.89, 3113.31],[3081.48, 2924.39],[3109.37, 3057.53],[3126.47, 3207.77],[3130.06, 2734.57],[3161.55, 2959.47],[3182.24, 3107.01],[3213.73, 2903.7]]},"properties":{"objectType":"annotation","color":[255, 128, 128]}},{"type":"Feature","id":"059998ce-b5a5-4271-b2e4-b61355aefa00","geometry":{"type":"MultiPoint","coordinates":[[3264.52, 2357.29],[3301.44, 2725.44],[3305.43, 2682.54],[3330.37, 2821.22],[3341.35, 2472.02],[3391.23, 2782.31],[3429.14, 2484],[3436.13, 2569.8],[3443.53, 2745.29],[3555.85, 2471.03],[3556.85, 2546.85],[3571.81, 2616.69],[3590.77, 2694.51],[3639.66, 2580.77],[3669.59, 2722.45],[3713.49, 2606.71],[3724.46, 2688.52],[3728.45, 2753.37]]},"properties":{"objectType":"annotation","color":[255, 128, 128]}},{"type":"Feature","id":"2d5c75ee-c88f-4126-b9a3-3dd384caf4c1","geometry":{"type":"Polygon","coordinates":[[[1433.74, 2973.72],[1433.74, 3485.37],[1945.39, 3485.37],[1945.39, 2973.72],[1433.74, 2973.72]]]},"properties":{"objectType":"annotation","classification":{"name":"Organic-v early stage","color":[18, 184, 0]}}},{"type":"Feature","id":"c718a1a8-42cc-4205-b00d-50e5268893bf","geometry":{"type":"Polygon","coordinates":[[[1600.09, 3753.97],[1600.09, 4265.62],[2111.74, 4265.62],[2111.74, 3753.97],[1600.09, 3753.97]]]},"properties":{"objectType":"annotation","classification":{"name":"Organic-v early stage","color":[18, 184, 0]}}},{"type":"Feature","id":"fcb6e91b-ba28-4f04-8af2-b784b20e2e3c","geometry":{"type":"Polygon","coordinates":[[[1511.73, 2101.42],[1511.73, 2613.07],[2023.38, 2613.07],[2023.38, 2101.42],[1511.73, 2101.42]]]},"properties":{"objectType":"annotation","classification":{"name":"Organic-v early stage","color":[18, 184, 0]}}},{"type":"Feature","id":"04ea840f-1572-4e8d-8921-1a4b8b1bf48c","geometry":{"type":"Polygon","coordinates":[[[983.38, 1171.19],[983.38, 1682.84],[1495.03, 1682.84],[1495.03, 1171.19],[983.38, 1171.19]]]},"properties":{"objectType":"annotation","classification":{"name":"Organic-v early stage","color":[18, 184, 0]}}},{"type":"Feature","id":"55346108-958f-47e8-8fde-34348fabc96d","geometry":{"type":"MultiPoint","coordinates":[[1023.83, 1285.26],[1044.24, 1439.04],[1056.49, 1586.01],[1146.11, 1200.58],[1278.89, 1257.01],[1304.34, 1410.81],[1329.78, 1566.82],[1401.71, 1327.82],[1422.73, 1467.24],[1450.39, 1637.64]]},"properties":{"objectType":"annotation","color":[153, 204, 153]}},{"type":"Feature","id":"1060418f-b789-479a-915f-358bc585d051","geometry":{"type":"MultiPoint","coordinates":[[1590.33, 1697.03],[1714.04, 1587.29],[1829.78, 1507.47],[1842.75, 1659.12],[1973.44, 1559.35],[1990.83, 1717.88]]},"properties":{"objectType":"annotation","color":[153, 204, 153]}},{"type":"Feature","id":"6dbc557d-84c3-40a2-a4f4-d19cbc6feca4","geometry":{"type":"MultiPoint","coordinates":[[1079.09, 1755.92],[1096.27, 1898.26],[1119.59, 2052.88],[1232.48, 1816.05],[1237.39, 1960.85],[1349.05, 1727.69],[1376.05, 1866.36],[1378.51, 2018.52],[1450.22, 1623.43],[1479.13, 1790.28]]},"properties":{"objectType":"annotation","color":[153, 204, 153]}},{"type":"Feature","id":"bee7e9b2-d2a8-445b-b3b6-a0ffb1845b81","geometry":{"type":"MultiPoint","coordinates":[[1245.45, 3794.88],[1276.13, 3953.18],[1288.4, 4102.89],[1315.4, 4259.96],[1319.08, 4163.02],[1355.89, 4048.89],[1371.85, 4132.34],[1396.39, 3842.74],[1406.2, 4005.95],[1433.2, 4159.33],[1537.51, 3905.32],[1546.1, 4059.94],[1574.32, 4205.96],[1661.44, 3977.72]]},"properties":{"objectType":"annotation","color":[153, 204, 153]}},{"type":"Feature","id":"c270f30c-f5c4-4c0d-ac39-2baf09e023c3","geometry":{"type":"MultiPoint","coordinates":[[1640.58, 3823.11],[1665.12, 3958.09],[1706.85, 4116.39],[1782.93, 3859.92],[1835.69, 4174.06],[1900.73, 4223.14],[1922.82, 3934.77],[1925.27, 4095.52],[1964.54, 3778.93],[2049.21, 4004.72],[2066.39, 4164.24]]},"properties":{"objectType":"annotation","color":[153, 204, 153]}},{"type":"Feature","id":"5a909eb5-a75b-4114-b880-f3c93321d5ff","geometry":{"type":"MultiPoint","coordinates":[[2321.83, 3950.62],[2351.76, 4092.29],[2357.74, 4235.96],[2422.6, 3801.96],[2425.59, 4180.09],[2482.46, 4141.18],[2534.34, 4195.06],[2584.22, 3915.7],[2603.18, 4065.36],[2616.15, 4205.03],[2694.97, 3820.92],[2715.92, 3916.7],[2764.81, 4249.93]]},"properties":{"objectType":"annotation","color":[153, 204, 153]}},{"type":"Feature","id":"7961903e-52d8-4e51-8c56-09f93445bb57","geometry":{"type":"MultiPoint","coordinates":[[1932.33, 4081.38],[1969.95, 3766.03],[2055.15, 3988.43],[2075.07, 4149.98],[2180.18, 3897.7],[2208.95, 4207.52],[2305.21, 3801.44],[2318.49, 3951.92],[2341.73, 4099.08],[2370.49, 4231.86],[2407.01, 4162.15],[2415.61, 3793.98]]},"properties":{"objectType":"annotation","color":[153, 204, 153]}},{"type":"Feature","id":"2572fdbb-8853-41d3-956e-5cce5d92b7de","geometry":{"type":"MultiPoint","coordinates":[[1145.13, 2190.09],[1149.65, 2365.16],[1194.93, 2505.53],[1259.83, 2113.12],[1288.51, 2259.51],[1303.6, 2416.48],[1321.71, 2558.35],[1391.14, 2168.96],[1406.23, 2328.94],[1446.98, 2466.28],[1531.5, 2229.33],[1560.18, 2378.75]]},"properties":{"objectType":"annotation","color":[153, 204, 153]}},{"type":"Feature","id":"42828981-f7f3-4dd8-a355-0201750d5476","geometry":{"type":"MultiPoint","coordinates":[[1094.63, 2748.11],[1122.86, 2897.81],[1190.35, 2494.09],[1211.21, 2652.39],[1235.75, 2804.55],[1257.84, 2961.62],[1333.92, 2549.31],[1342.51, 2708.84],[1359.69, 2865.91],[1506.94, 2924.81]]},"properties":{"objectType":"annotation","color":[153, 204, 153]}},{"type":"Feature","id":"670fda54-ab0c-489a-a54e-50a97782d7c9","geometry":{"type":"MultiPoint","coordinates":[[1844.45, 2495.69],[1851.25, 2654.91],[1958.76, 2409.95],[1976.45, 2552.84],[2097.57, 2456.22],[2130.24, 2605.92],[2157.45, 2759.7],[2177.87, 2580.06],[2191.48, 2653.55],[2195.56, 2724.32],[2215.97, 2360.96]]},"properties":{"objectType":"annotation","color":[153, 204, 153]}},{"type":"Feature","id":"498648cc-7a4a-4ab8-8509-07c667174f75","geometry":{"type":"MultiPoint","coordinates":[[1543.69, 2226.23],[1557.3, 2375.93],[1634.87, 2418.11],[1643.03, 2147.3],[1668.89, 2282.02],[1719.24, 2588.23],[1843.09, 2492.96],[1934.27, 2262.97],[1945.15, 2409.95]]},"properties":{"objectType":"annotation","color":[153, 204, 153]}},{"type":"Feature","id":"e2d83fad-344c-4c92-a6f0-6f8804c9dd61","geometry":{"type":"MultiPoint","coordinates":[[1151.8, 3211.58],[1246.29, 2942.84],[1268.38, 3115.86],[1359.18, 2872.9],[1402.13, 3009.11],[1416.86, 3166.18],[1436.49, 3310.97],[1512.57, 2918.3],[1554.29, 3064.33],[1554.29, 3221.4]]},"properties":{"objectType":"annotation","color":[153, 204, 153]}},{"type":"Feature","id":"ff15a5f8-7a93-4997-9a69-b0d1bf6b032b","geometry":{"type":"MultiPoint","coordinates":[[1627.72, 2830.78],[1654.27, 2979.04],[1665.34, 3132.84],[1733.94, 2724.56],[1756.07, 2889.42],[1793.69, 3033.26],[1813.61, 2803.12],[1914.3, 3089.69],[1933.11, 3189.27],[2063.67, 3161.61]]},"properties":{"objectType":"annotation","color":[153, 204, 153]}},{"type":"Feature","id":"e99014d1-f024-4903-8c5d-ca762bcef62b","geometry":{"type":"MultiPoint","coordinates":[[2150.78, 2756.16],[2166.07, 2908.19],[2190.36, 3067.42],[2194.86, 2714.78],[2270.42, 2812.83],[2325.3, 3117.8],[2402.67, 2723.77],[2419.76, 2877.61],[2443.15, 3022.44],[2545.71, 2769.65],[2559.2, 2929.78]]},"properties":{"objectType":"annotation","color":[153, 204, 153]}},{"type":"Feature","id":"a9dd560f-5f3b-45e5-b0a7-2e10902b2568","geometry":{"type":"MultiPoint","coordinates":[[2343.1, 3258.48],[2390.99, 3553.79],[2412.94, 3658.55],[2474.8, 3662.54],[2511.71, 3459.01],[2528.67, 3610.66],[2535.66, 3560.78],[2548.63, 3282.42],[2658.37, 3663.54],[2759.14, 3277.43],[2762.13, 3597.69]]},"properties":{"objectType":"annotation","color":[153, 204, 153]}},{"type":"Feature","id":"d5ccb33b-bf51-4149-932e-71f64b1c91d6","geometry":{"type":"MultiPoint","coordinates":[[1532.37, 3917.38],[1596.18, 3516.12],[1642.81, 3962.78],[1644.04, 3816.76],[1733.62, 3577.47],[1769.21, 3718.59],[1770.43, 3871.98],[1869.83, 3637.6],[1910.32, 3928.42],[1965.54, 3776.26]]},"properties":{"objectType":"annotation","color":[153, 204, 153]}},{"type":"Feature","id":"6828bcad-e594-4bd4-a283-ce87c2a6eb09","geometry":{"type":"MultiPoint","coordinates":[[1341.23, 3567.11],[1408.73, 3509.57],[1426.43, 3311.51],[1452.99, 3468.63],[1563.63, 3216.35],[1589.08, 3360.2],[1602.36, 3516.21],[1628.92, 3667.8],[1718.54, 3432.12],[1741.78, 3582.6]]},"properties":{"objectType":"annotation","color":[153, 204, 153]}},{"type":"Feature","id":"233857cd-6c8c-4b8b-aebe-784cfce67ce6","geometry":{"type":"MultiPoint","coordinates":[[1538.38, 3071.77],[1548.34, 3206.76],[1581.54, 3362.78],[1658.99, 2992.11],[1682.22, 3120.46],[1709.89, 3432.49],[1771.85, 3038.58],[1821.64, 3339.54],[1922.33, 3184.64],[1923.44, 3098.33]]},"properties":{"objectType":"annotation","color":[153, 204, 153]}}]}