{"type":"FeatureCollection","features":[{"type":"Feature","id":"601491dc-fe62-4f64-8031-a4e2d62b4686","geometry":{"type":"Polygon","coordinates":[[[2613.28, 491.68],[2613.28, 1003.33],[3124.93, 1003.33],[3124.93, 491.68],[2613.28, 491.68]]]},"properties":{"objectType":"annotation","classification":{"name":"Organic","color":[132, 99, 212]}}},{"type":"Feature","id":"0487fdad-4499-490f-9aca-ff283623b691","geometry":{"type":"Polygon","coordinates":[[[3291.61, 919.99],[3291.61, 1425.83],[3805.19, 1425.83],[3805.19, 919.99],[3291.61, 919.99]]]},"properties":{"objectType":"annotation","classification":{"name":"Organic-early","color":[124, 230, 223]}}},{"type":"Feature","id":"29079989-c9bf-4ecd-bf2d-46308f812180","geometry":{"type":"Polygon","coordinates":[[[3390.77, 1360.58],[3390.77, 1872.23],[3900.48, 1872.23],[3900.48, 1360.58],[3390.77, 1360.58]]]},"properties":{"objectType":"annotation","classification":{"name":"Organic-early","color":[124, 230, 223]}}},{"type":"Feature","id":"21ec10be-2a91-4f5d-aa21-e60eb79d2e7c","geometry":{"type":"Polygon","coordinates":[[[4006.75, 2036.32],[4006.75, 2542.16],[4528.09, 2542.16],[4528.09, 2036.32],[4006.75, 2036.32]]]},"properties":{"objectType":"annotation","classification":{"name":"Organic","color":[132, 99, 212]}}},{"type":"Feature","id":"caf887bc-ad12-4b0f-ba2f-2cafb4ace955","geometry":{"type":"Polygon","coordinates":[[[4297.46, 1790.19],[4297.46, 2303.77],[4803.3, 2303.77],[4803.3, 1790.19],[4297.46, 1790.19]]]},"properties":{"objectType":"annotation","classification":{"name":"Organic","color":[132, 99, 212]}}},{"type":"Feature","id":"510302d2-c941-4993-b9ed-27505f79c5d9","geometry":{"type":"Polygon","coordinates":[[[2919.5, 2166.17],[2919.5, 2673.95],[3429.21, 2673.95],[3429.21, 2166.17],[2919.5, 2166.17]]]},"properties":{"objectType":"annotation","classification":{"name":"Organic-early","color":[124, 230, 223]}}},{"type":"Feature","id":"ec97c212-0e10-4fa9-aedd-7d9c019ab7d2","geometry":{"type":"Polygon","coordinates":[[[5187, 1480],[5187, 1990],[5697, 1990],[5697, 1480],[5187, 1480]]]},"properties":{"objectType":"annotation","classification":{"name":"Organic","color":[132, 99, 212]}}},{"type":"Feature","id":"85686bd0-dca9-4c6e-8149-95a0d0664225","geometry":{"type":"Polygon","coordinates":[[[5347, 440],[5347, 950],[5857, 950],[5857, 440],[5347, 440]]]},"properties":{"objectType":"annotation","classification":{"name":"Organic","color":[132, 99, 212]}}},{"type":"Feature","id":"20ace051-b7b8-49ba-a2af-d68e43daac56","geometry":{"type":"Polygon","coordinates":[[[2627, 190],[2627, 700],[3137, 700],[3137, 190],[2627, 190]]]},"properties":{"objectType":"annotation","classification":{"name":"Organic","color":[132, 99, 212]}}},{"type":"Feature","id":"f13fbac2-aad6-45a5-baab-55bdc8e4c8b9","geometry":{"type":"Polygon","coordinates":[[[5327, 1590],[5327, 2100],[5837, 2100],[5837, 1590],[5327, 1590]]]},"properties":{"objectType":"annotation","classification":{"name":"Organic","color":[132, 99, 212]}}},{"type":"Feature","id":"bd5d987b-225b-461d-a375-204f7882831f","geometry":{"type":"Polygon","coordinates":[[[2657, 40],[2657, 550],[3177, 550],[3177, 40],[2657, 40]]]},"properties":{"objectType":"annotation","classification":{"name":"Organic","color":[132, 99, 212]}}},{"type":"Feature","id":"d7810bba-6061-4940-baf7-e239121f77a1","geometry":{"type":"Polygon","coordinates":[[[4787, 40],[4787, 550],[5297, 550],[5297, 40],[4787, 40]]]},"properties":{"objectType":"annotation","classification":{"name":"Organic","color":[132, 99, 212]}}},{"type":"Feature","id":"810ae00f-a8a3-40ad-8c76-d1a68bf74f51","geometry":{"type":"Polygon","coordinates":[[[4627, 2190],[4627, 2700],[5137, 2700],[5137, 2190],[4627, 2190]]]},"properties":{"objectType":"annotation","classification":{"name":"Organic","color":[132, 99, 212]}}},{"type":"Feature","id":"731c5e20-5171-4d67-9ca4-f6d812536c71","geometry":{"type":"Polygon","coordinates":[[[5325.8, 30.23],[5325.8, 541.88],[5837.45, 541.88],[5837.45, 30.23],[5325.8, 30.23]]]},"properties":{"objectType":"annotation","classification":{"name":"Organic","color":[132, 99, 212]}}},{"type":"Feature","id":"ddec219f-bf44-44be-b282-924db8e76e5a","geometry":{"type":"Polygon","coordinates":[[[3981.56, 2418.7],[3981.56, 2930.35],[4495.53, 2930.35],[4495.53, 2418.7],[3981.56, 2418.7]]]},"properties":{"objectType":"annotation","classification":{"name":"Organic","color":[132, 99, 212]}}},{"type":"Feature","id":"afe19c85-2c00-4512-8e20-ec8abc96849c","geometry":{"type":"Polygon","coordinates":[[[4276.92, 2451.26],[4276.92, 2965.24],[4788.57, 2965.24],[4788.57, 2451.26],[4276.92, 2451.26]]]},"properties":{"objectType":"annotation","classification":{"name":"Organic","color":[132, 99, 212]}}},{"type":"Feature","id":"2e21a802-a703-493d-8fe6-ff4610c945fc","geometry":{"type":"Polygon","coordinates":[[[5514.18, 2158.23],[5514.18, 2669.87],[6021.18, 2669.87],[6021.18, 2158.23],[5514.18, 2158.23]]]},"properties":{"objectType":"annotation","classification":{"name":"Organic","color":[132, 99, 212]}}},{"type":"Feature","id":"1c391cb0-a6df-471b-ad46-9918435c8acc","geometry":{"type":"Polygon","coordinates":[[[4439.72, 2130.32],[4439.72, 2637.32],[4951.37, 2637.32],[4951.37, 2130.32],[4439.72, 2130.32]]]},"properties":{"objectType":"annotation","classification":{"name":"Organic","color":[132, 99, 212]}}},{"type":"Feature","id":"e29a3f7a-211f-4b11-8e55-99b1cb2a4744","geometry":{"type":"Polygon","coordinates":[[[4321.71, 1187.07],[4321.71, 1703.37],[4840.8, 1703.37],[4840.8, 1187.07],[4321.71, 1187.07]]]},"properties":{"objectType":"annotation","classification":{"name":"Organic","color":[132, 99, 212]}}},{"type":"Feature","id":"bb4dfe5d-0864-4ce7-a4dd-8739c08d4326","geometry":{"type":"Polygon","coordinates":[[[3548.99, 1891.65],[3548.99, 2402.03],[4067.41, 2402.03],[4067.41, 1891.65],[3548.99, 1891.65]]]},"properties":{"objectType":"annotation","classification":{"name":"Organic","color":[132, 99, 212]}}},{"type":"Feature","id":"623bf3ce-473a-442b-b6a4-df9d36df7303","geometry":{"type":"Polygon","coordinates":[[[2829.63, 1216.49],[2829.63, 1726.88],[3348.05, 1726.88],[3348.05, 1216.49],[2829.63, 1216.49]]]},"properties":{"objectType":"annotation","classification":{"name":"Organic-early","color":[124, 230, 223]}}},{"type":"Feature","id":"9aca259e-b1bc-42a4-805c-c312721effc4","geometry":{"type":"Polygon","coordinates":[[[2664.25, 615.32],[2664.25, 1126.97],[3175.9, 1126.97],[3175.9, 615.32],[2664.25, 615.32]]]},"properties":{"objectType":"annotation","classification":{"name":"Organic","color":[132, 99, 212]}}},{"type":"Feature","id":"de9292be-b8a1-4bf9-b5d2-d15029fbaec0","geometry":{"type":"Polygon","coordinates":[[[2963.4, 2521.17],[2963.4, 3032.36],[3474.58, 3032.36],[3474.58, 2521.17],[2963.4, 2521.17]]]},"properties":{"objectType":"annotation","classification":{"name":"Organic-early","color":[124, 230, 223]}}},{"type":"Feature","id":"d8f4e4ed-7438-4084-91d5-183087dd7d02","geometry":{"type":"Polygon","coordinates":[[[3267.05, 2940.65],[3267.05, 3451.84],[3778.24, 3451.84],[3778.24, 2940.65],[3267.05, 2940.65]]]},"properties":{"objectType":"annotation","classification":{"name":"Organic-early","color":[124, 230, 223]}}},{"type":"Feature","id":"c3f1b09f-29e4-445c-924c-2cdf6e69547f","geometry":{"type":"Polygon","coordinates":[[[3464.78, 2545.2],[3464.78, 3056.39],[3975.97, 3056.39],[3975.97, 2545.2],[3464.78, 2545.2]]]},"properties":{"objectType":"annotation","classification":{"name":"Organic-early","color":[124, 230, 223]}}},{"type":"Feature","id":"15835681-1bfa-40ba-b086-58a3daf3a953","geometry":{"type":"Polygon","coordinates":[[[3188.26, 3168.9],[3188.26, 3680.09],[3699.45, 3680.09],[3699.45, 3168.9],[3188.26, 3168.9]]]},"properties":{"objectType":"annotation","classification":{"name":"Organic-early","color":[124, 230, 223]}}},{"type":"Feature","id":"95ab18a2-0908-467d-9546-98858f6bfacc","geometry":{"type":"Polygon","coordinates":[[[3503.04, 3073.11],[3503.04, 3584.3],[4014.23, 3584.3],[4014.23, 3073.11],[3503.04, 3073.11]]]},"properties":{"objectType":"annotation","classification":{"name":"Organic-early","color":[124, 230, 223]}}},{"type":"Feature","id":"4bcaf32b-34f9-44e7-b4e2-f1502182e8e7","geometry":{"type":"Polygon","coordinates":[[[3988.92, 2170.6],[3988.92, 2680.99],[4507.34, 2680.99],[4507.34, 2170.6],[3988.92, 2170.6]]]},"properties":{"objectType":"annotation","classification":{"name":"Organic","color":[132, 99, 212]}}},{"type":"Feature","id":"bb895d12-ea2b-4cdd-8d42-a15c6fc6438e","geometry":{"type":"Polygon","coordinates":[[[5391.58, 2007.55],[5391.58, 2517.93],[5910, 2517.93],[5910, 2007.55],[5391.58, 2007.55]]]},"properties":{"objectType":"annotation","classification":{"name":"Organic","color":[132, 99, 212]}}},{"type":"Feature","id":"97b49079-446d-47c0-9ce6-53e0f4f09f75","geometry":{"type":"Polygon","coordinates":[[[4656.28, 8.46],[4656.28, 518.85],[5174.7, 518.85],[5174.7, 8.46],[4656.28, 8.46]]]},"properties":{"objectType":"annotation","classification":{"name":"Organic","color":[132, 99, 212]}}},{"type":"Feature","id":"2f1a5d69-5dd5-4731-b86d-419a2d5e0d2d","geometry":{"type":"Polygon","coordinates":[[[389.46, 1175.28],[389.46, 1681.12],[903.05, 1681.12],[903.05, 1175.28],[389.46, 1175.28]]]},"properties":{"objectType":"annotation","classification":{"name":"Organic-v early","color":[87, 84, 237]}}},{"type":"Feature","id":"b8ed507b-75c6-4949-bba9-c2aeafa204d5","geometry":{"type":"Polygon","coordinates":[[[610.5, 1010.51],[610.5, 1516.35],[1124.08, 1516.35],[1124.08, 1010.51],[610.5, 1010.51]]]},"properties":{"objectType":"annotation","classification":{"name":"Organic-v early","color":[87, 84, 237]}}},{"type":"Feature","id":"529e67b5-5b30-4a27-acb5-96675914d26b","geometry":{"type":"Polygon","coordinates":[[[204.6, 1203.41],[204.6, 1709.25],[718.19, 1709.25],[718.19, 1203.41],[204.6, 1203.41]]]},"properties":{"objectType":"annotation","classification":{"name":"Organic-v early","color":[87, 84, 237]}}},{"type":"Feature","id":"3e3c2d2c-8957-4c77-8224-5fc6d3b87de4","geometry":{"type":"Polygon","coordinates":[[[1297.71, 33.95],[1297.71, 539.78],[1811.29, 539.78],[1811.29, 33.95],[1297.71, 33.95]]]},"properties":{"objectType":"annotation","classification":{"name":"Organic-v early","color":[87, 84, 237]}}},{"type":"Feature","id":"612ec035-c533-4e0b-81c9-2993805469a0","geometry":{"type":"Polygon","coordinates":[[[1747.81, 9.84],[1747.81, 515.67],[2261.4, 515.67],[2261.4, 9.84],[1747.81, 9.84]]]},"properties":{"objectType":"annotation","classification":{"name":"Organic-v early","color":[87, 84, 237]}}},{"type":"Feature","id":"7e5345d7-bf41-400f-8d14-1cf29e61d012","geometry":{"type":"Polygon","coordinates":[[[1410.23, 21.89],[1410.23, 527.73],[1923.82, 527.73],[1923.82, 21.89],[1410.23, 21.89]]]},"properties":{"objectType":"annotation","classification":{"name":"Organic-v early","color":[87, 84, 237]}}},{"type":"Feature","id":"91f47eb9-4e0c-4982-b471-47611dbb47ce","geometry":{"type":"Polygon","coordinates":[[[1225.37, 90.21],[1225.37, 596.05],[1738.96, 596.05],[1738.96, 90.21],[1225.37, 90.21]]]},"properties":{"objectType":"annotation","classification":{"name":"Organic-v early","color":[87, 84, 237]}}},{"type":"Feature","id":"80a57d9b-f082-49ae-9a1b-21fa9a254796","geometry":{"type":"Polygon","coordinates":[[[424.31, 1335.47],[424.31, 1841.31],[937.9, 1841.31],[937.9, 1335.47],[424.31, 1335.47]]]},"properties":{"objectType":"annotation","classification":{"name":"Organic-v early","color":[87, 84, 237]}}},{"type":"Feature","id":"a71accbf-949d-49cc-b6e7-34a089ad0a6a","geometry":{"type":"Polygon","coordinates":[[[522.07, 1588.35],[522.07, 2094.19],[1035.66, 2094.19],[1035.66, 1588.35],[522.07, 1588.35]]]},"properties":{"objectType":"annotation","classification":{"name":"Organic-v early","color":[87, 84, 237]}}},{"type":"Feature","id":"7bc9633b-0a1a-45d1-843b-2a70201f89e4","geometry":{"type":"Polygon","coordinates":[[[687.46, 1302.09],[687.46, 1807.93],[1201.04, 1807.93],[1201.04, 1302.09],[687.46, 1302.09]]]},"properties":{"objectType":"annotation","classification":{"name":"Organic-v early","color":[87, 84, 237]}}},{"type":"Feature","id":"7416b1dd-a483-416b-ad2a-cdbbd666ce3a","geometry":{"type":"Polygon","coordinates":[[[2673.24, 1152.17],[2673.24, 1664.56],[3185.64, 1664.56],[3185.64, 1152.17],[2673.24, 1152.17]]]},"properties":{"objectType":"annotation","classification":{"name":"Organic-early","color":[124, 230, 223]}}},{"type":"Feature","id":"969a08f4-9a37-455e-9172-bdc29a413542","geometry":{"type":"Polygon","coordinates":[[[2934.46, 1791.04],[2934.46, 2297.4],[3440.83, 2297.4],[3440.83, 1791.04],[2934.46, 1791.04]]]},"properties":{"objectType":"annotation","classification":{"name":"Organic-early","color":[124, 230, 223]}}},{"type":"Feature","id":"b0dc6604-21be-4a62-8798-0e8238484f7f","geometry":{"type":"Polygon","coordinates":[[[2756.03, 1656.01],[2756.03, 2167.2],[3267.21, 2167.2],[3267.21, 1656.01],[2756.03, 1656.01]]]},"properties":{"objectType":"annotation","classification":{"name":"Organic-early","color":[124, 230, 223]}}},{"type":"Feature","id":"0ebf0ad0-c05f-43e0-a2df-68961d223496","geometry":{"type":"Polygon","coordinates":[[[3360.13, 131.71],[3360.13, 642.43],[3870.85, 642.43],[3870.85, 131.71],[3360.13, 131.71]]]},"properties":{"objectType":"annotation","classification":{"name":"Organic-early","color":[124, 230, 223]}}},{"type":"Feature","id":"e9a11bb1-4c91-414b-9018-9bae502fc22b","geometry":{"type":"Polygon","coordinates":[[[3438.27, 45.2],[3438.27, 555.92],[3948.99, 555.92],[3948.99, 45.2],[3438.27, 45.2]]]},"properties":{"objectType":"annotation","classification":{"name":"Organic-early","color":[124, 230, 223]}}},{"type":"Feature","id":"af0e7ed3-d5e5-4406-99e7-9e2339186ff3","geometry":{"type":"Polygon","coordinates":[[[3360.07, 572.72],[3360.07, 1085.11],[3872.47, 1085.11],[3872.47, 572.72],[3360.07, 572.72]]]},"properties":{"objectType":"annotation","classification":{"name":"Organic-early","color":[124, 230, 223]}}},{"type":"Feature","id":"b057b219-07d5-4622-91bc-51812661d21c","geometry":{"type":"Polygon","coordinates":[[[3303.38, 617.72],[3303.38, 1128.9],[3814.57, 1128.9],[3814.57, 617.72],[3303.38, 617.72]]]},"properties":{"objectType":"annotation","classification":{"name":"Organic-early","color":[124, 230, 223]}}},{"type":"Feature","id":"8d92ecb9-8f89-4e0d-99bd-b4b7c9180469","geometry":{"type":"Polygon","coordinates":[[[3040.3, 109.67],[3040.3, 620.39],[3551.02, 620.39],[3551.02, 109.67],[3040.3, 109.67]]]},"properties":{"objectType":"annotation","classification":{"name":"Organic-early","color":[124, 230, 223]}}},{"type":"Feature","id":"61e0e88d-078d-49c6-b5de-7c2185b50a06","geometry":{"type":"MultiPoint","coordinates":[[1778.27, 313.99],[1867.9, 78.31],[1894.45, 233.22],[1922.11, 374.85],[2001.78, 140.27],[2025.01, 291.86],[2147.83, 200.02]]},"properties":{"objectType":"annotation","color":[0, 0, 128]}},{"type":"Feature","id":"d6351b09-887b-44ad-990b-6970f6214d9f","geometry":{"type":"MultiPoint","coordinates":[[1488.38, 68.35],[1504.97, 205.56],[1548.13, 515.37],[1627.79, 114.82],[1651.03, 278.58],[1675.37, 412.47],[1762.78, 163.51],[1771.63, 313.99],[1880.07, 82.74],[1897.77, 242.07],[1907.73, 382.59]]},"properties":{"objectType":"annotation","color":[0, 0, 128]}},{"type":"Feature","id":"439d2f4a-3b10-46aa-ba03-326eb63fd25f","geometry":{"type":"MultiPoint","coordinates":[[1356.71, 497.66],[1360.02, 157.98],[1397.64, 298.5],[1423.09, 107.08],[1477.31, 60.61],[1513.82, 209.98],[1538.17, 507.62],[1617.83, 123.68],[1642.18, 273.05],[1669.84, 398.08],[1753.93, 159.08],[1781.59, 312.88]]},"properties":{"objectType":"annotation","color":[0, 0, 128]}},{"type":"Feature","id":"854d4ffd-2800-4f2f-b55f-e9eb55235205","geometry":{"type":"MultiPoint","coordinates":[[1346.75, 504.3],[1362.24, 143.59],[1394.33, 296.29],[1499.44, 206.66],[1558.08, 500.98],[1612.3, 125.89],[1645.49, 277.48],[1680.9, 400.29]]},"properties":{"objectType":"annotation","color":[0, 0, 128]}},{"type":"Feature","id":"378e67c4-2bad-4b13-9e4a-aacca85d308f","geometry":{"type":"MultiPoint","coordinates":[[634.35, 1050.14],[652.47, 1466.7],[667.56, 1199.56],[676.61, 1285.59],[711.33, 1084.85],[823.01, 1404.82],[960.36, 1386.71],[1108.27, 1099.94]]},"properties":{"objectType":"annotation","color":[0, 0, 128]}},{"type":"Feature","id":"b217971e-3c5e-4b43-8f80-b603960fa6c1","geometry":{"type":"MultiPoint","coordinates":[[353.43, 1345.48],[384.3, 1510.94],[401.59, 1236.81],[458.39, 1529.46],[491.73, 1424.5],[522.6, 1560.33],[581.86, 1591.2],[638.66, 1473.89],[639.9, 1623.3],[679.41, 1283.74],[701.64, 1425.74]]},"properties":{"objectType":"annotation","color":[0, 0, 128]}},{"type":"Feature","id":"6d1594b3-ddf9-424d-a0a2-1d8fb50e5267","geometry":{"type":"MultiPoint","coordinates":[[402.82, 1240.52],[465.8, 1533.16],[499.13, 1419.56],[522.6, 1565.27],[585.57, 1589.96],[636.2, 1465.25],[647.31, 1625.77],[670.77, 1284.97],[678.18, 1193.6],[696.7, 1418.33],[799.19, 1257.81],[818.94, 1339.3],[821.41, 1399.81],[847.34, 1556.62],[862.16, 1634.42]]},"properties":{"objectType":"annotation","color":[0, 0, 128]}},{"type":"Feature","id":"cb2d837b-9a40-4571-a2ae-05f75dc1c66f","geometry":{"type":"MultiPoint","coordinates":[[698.03, 1425.84],[801.76, 1680.2],[815.34, 1408.55],[816.57, 1331.99],[852.38, 1550.55],[859.79, 1624.64],[947.46, 1376.44],[973.39, 1541.91],[1011.67, 1764.17],[1166.02, 1545.61]]},"properties":{"objectType":"annotation","color":[0, 0, 128]}},{"type":"Feature","id":"77f66a18-a408-4a45-8f2f-7d0685843f56","geometry":{"type":"MultiPoint","coordinates":[[571.4, 2036.05],[643.02, 2049.63],[644.26, 1629.8],[692.41, 1922.45],[760.33, 1871.82],[808.48, 1674.25],[864.05, 1633.51],[885.04, 1859.47],[904.8, 1932.32],[1013.46, 1770.57],[1027.04, 1907.63]]},"properties":{"objectType":"annotation","color":[0, 0, 128]}},{"type":"Feature","id":"1621b53f-f1c9-4438-a59d-79ef470be001","geometry":{"type":"MultiPoint","coordinates":[[3061.48, 476.93],[3093.37, 202.04],[3111.59, 346.32],[3122.23, 502.74],[3152.6, 159.52],[3196.64, 528.56],[3272.58, 123.07],[3281.69, 543.75],[3286.25, 192.93],[3295.36, 356.95],[3334.85, 563.49],[3342.44, 299.24],[3381.93, 458.7],[3406.22, 262.79],[3410.78, 601.46],[3424.45, 173.18],[3430.52, 331.13],[3438.12, 405.55],[3468.35, 133.21],[3474.57, 483],[3523.17, 492.11]]},"properties":{"objectType":"annotation","color":[0, 255, 0]}},{"type":"Feature","id":"e70bd5e0-7ded-4f82-9e36-fa73f1737c78","geometry":{"type":"MultiPoint","coordinates":[[3386.66, 456.9],[3407.93, 605.74],[3414, 250.36],[3418.56, 175.94],[3432.23, 336.92],[3435.26, 408.3],[3455.01, 484.24],[3471.71, 630.04],[3538.54, 517.65],[3550.69, 157.72],[3606.88, 198.72],[3673.7, 561.69],[3676.74, 224.54],[3691.93, 298.96],[3702.56, 373.37],[3726.86, 429.57],[3742.04, 183.53],[3811.9, 213.91],[3827.09, 292.88],[3839.24, 429.57]]},"properties":{"objectType":"annotation","color":[0, 255, 0]}},{"type":"Feature","id":"7a17a582-3a67-4e87-98d1-b370f81a4316","geometry":{"type":"MultiPoint","coordinates":[[2632.07, 736.05],[2644.34, 807.23],[2661.52, 875.94],[2675.02, 607.21],[2682.38, 554.44],[2732.69, 898.03],[2759.69, 626.84],[2773.19, 770.41],[2803.86, 925.03],[2813.68, 574.07],[2823.5, 661.2],[2856.63, 877.17],[2886.08, 533.58],[2886.08, 669.79],[2921.67, 829.31],[2932.71, 974.11],[2942.53, 571.62],[2964.62, 707.83],[2971.98, 785.14],[2979.34, 867.35],[3010.02, 582.66],[3028.43, 731.14],[3054.19, 890.67],[3087.33, 691.88],[3095.92, 842.81],[3111.87, 754.46]]},"properties":{"objectType":"annotation","color":[128, 0, 128]}},{"type":"Feature","id":"5d92eac0-a408-43ef-8b3d-50f341cac251","geometry":{"type":"MultiPoint","coordinates":[[3571.91, 2228.29],[3598.9, 2383.02],[3604.3, 1957.51],[3615.99, 2095.15],[3639.38, 2267.87],[3675.37, 1979.1],[3678.97, 2060.96],[3688.86, 2131.13],[3696.06, 2280.47],[3707.76, 2206.7],[3726.65, 2011.48],[3729.35, 2358.73],[3760.83, 2168.92],[3775.23, 2309.26],[3802.22, 1967.4],[3812.11, 2039.37],[3824.71, 2130.23],[3829.2, 2202.2],[3831.9, 2275.07],[3855.29, 2337.14],[3860.69, 1917.92],[3874.18, 2066.36],[3887.68, 2146.43],[3899.37, 2225.59],[3940.76, 2096.95],[3966.84, 2261.58],[3998.33, 1963.8],[4009.13, 2129.33]]},"properties":{"objectType":"annotation","color":[128, 0, 128]}},{"type":"Feature","id":"e277a82b-d682-4e38-91d7-144f3877faef","geometry":{"type":"MultiPoint","coordinates":[[3464.93, 1395.07],[3471.98, 1474.59],[3471.98, 1544.04],[3481.04, 1626.59],[3501.17, 1711.14],[3516.27, 1771.54],[3561.57, 1652.76],[3570.63, 1805.76],[3607.87, 1525.93],[3644.11, 1759.46],[3662.23, 1413.19],[3662.23, 1831.93],[3728.07, 1439.99],[3769.93, 1664.84],[3770.94, 1744.36],[3777.99, 1818.85]]},"properties":{"objectType":"annotation","color":[0, 255, 0]}},{"type":"Feature","id":"8a609f45-ee28-4b71-ba08-b6c00c8d8dbe","geometry":{"type":"MultiPoint","coordinates":[[3311.43, 1347.2],[3325.94, 1414.18],[3338.22, 992.2],[3447.63, 1245.61],[3457.67, 1324.87],[3467.72, 1394.09],[3469.95, 1044.67],[3487.81, 1197.61],[3511.26, 1351.67],[3532.47, 1088.21],[3550.33, 1157.42],[3593.87, 962.06],[3618.43, 1113.88],[3641.87, 1259.01],[3644.1, 1336.04],[3649.68, 1408.6],[3677.59, 983.27],[3699.92, 1288.03],[3734.53, 1023.46],[3759.09, 1237.8]]},"properties":{"objectType":"annotation","color":[0, 255, 0]}},{"type":"Feature","id":"a08ef9ec-5b04-43fa-8d8a-7e9171f62b19","geometry":{"type":"MultiPoint","coordinates":[[2718.41, 1396.06],[2765.6, 1617.53],[2770.14, 1200.92],[2777.4, 1276.26],[2796.46, 1426.02],[2801.91, 1352.5],[2807.35, 1563.98],[2834.58, 1642.94],[2855.46, 1366.11],[2895.4, 1187.31],[2906.29, 1252.66],[2918.09, 1328.9],[2947.13, 1475.03],[2958.02, 1563.98],[2959.84, 1196.38],[2984.34, 1273.53],[3023.37, 1161.89],[3056.96, 1299.85],[3096.89, 1604.82],[3124.12, 1334.34],[3145, 1475.94],[3159.52, 1637.5],[3181.3, 1288.96]]},"properties":{"objectType":"annotation","color":[0, 255, 0]}},{"type":"Feature","id":"41029084-ed7a-48bd-bbb5-161690a5fd15","geometry":{"type":"MultiPoint","coordinates":[[3455.81, 482.02],[3530.66, 511.47],[3542.94, 85.67],[3550.3, 161.75],[3573.61, 470.98],[3599.76, 115.55],[3600.61, 201.01],[3639.88, 337.22],[3675.46, 226.78],[3695.1, 300.41],[3702.46, 374.04],[3714.73, 436.62],[3739.27, 187.52],[3786.09, 64.82],[3800.63, 203.47],[3801.86, 115.12],[3812.9, 294.27],[3857.08, 430.48],[3858.3, 79.53]]},"properties":{"objectType":"annotation","color":[0, 255, 0]}},{"type":"Feature","id":"84b9aafa-ebff-4e17-93a0-0fa6a465bc51","geometry":{"type":"MultiPoint","coordinates":[[3386.06, 858.19],[3391.7, 599.67],[3434.94, 756.66],[3468.79, 1037.74],[3481.01, 632.57],[3496.05, 703.08],[3500.75, 780.16],[3544.93, 1069.7],[3590.99, 966.3],[3615.44, 758.54],[3616.38, 698.38],[3646.46, 921.17],[3679.36, 726.58],[3680.3, 988.86],[3712.26, 865.71],[3727.3, 1016.12],[3755.5, 751.96],[3765.84, 828.11],[3830.71, 776.4],[3851.39, 925.87]]},"properties":{"objectType":"annotation","color":[0, 255, 0]}},{"type":"Feature","id":"96440e0f-ed54-462e-ba7c-6cf28ac17a51","geometry":{"type":"MultiPoint","coordinates":[[3329.09, 914.9],[3345.27, 993.52],[3384.59, 869.81],[3434.3, 754.18],[3455.12, 1024.74],[3474.77, 639.72],[3484.02, 697.53],[3492.11, 770.37],[3527.96, 1061.74],[3584.61, 954.21],[3611.21, 697.53],[3619.3, 1101.05],[3623.92, 753.03],[3635.49, 909.12],[3660.92, 975.02],[3680.58, 713.72],[3704.86, 861.71],[3717.58, 1009.71],[3748.8, 746.09],[3763.83, 818.93]]},"properties":{"objectType":"annotation","color":[0, 255, 0]}},{"type":"Feature","id":"61188237-3195-4d8c-9d67-de14b9fe8723","geometry":{"type":"MultiPoint","coordinates":[[2869.96, 1365.03],[2903.9, 1684.51],[2914.43, 1260.88],[2927.31, 1484.4],[2928.48, 1321.73],[2934.33, 1555.78],[2974.12, 1278.43],[3040.82, 1313.54],[3057.2, 1386.09],[3100.5, 1681],[3105.19, 1329.92],[3107.53, 1596.74],[3134.44, 1486.74],[3163.7, 1621.32],[3168.38, 1286.62],[3207, 1594.4],[3209.34, 1451.63],[3219.87, 1512.48],[3256.15, 1400.14],[3281.9, 1542.91],[3329.88, 1342.79],[3329.88, 1424.71],[3333.39, 1567.49]]},"properties":{"objectType":"annotation","color":[0, 255, 0]}},{"type":"Feature","id":"0218e257-b1f2-418b-b0e1-944b3eb6ce70","geometry":{"type":"MultiPoint","coordinates":[[2781.78, 1762.53],[2813.44, 1895.48],[2845.09, 1719.26],[2862.58, 1866.08],[2869.36, 1799.46],[2885.19, 2015.78],[2902.08, 1683.38],[2936.9, 1829.01],[2947.45, 1978.85],[2993.88, 1770.97],[3023.43, 2078.04],[3035.03, 2158.23],[3068.8, 1891.26],[3104.68, 1680.22],[3108.9, 1824.78],[3145.83, 1987.29],[3150.05, 2150.85],[3180.65, 1791.02],[3203.87, 1935.58],[3214.42, 2098.09],[3248.19, 1822.67]]},"properties":{"objectType":"annotation","color":[0, 255, 0]}},{"type":"Feature","id":"fef85726-10d2-4189-bd7b-c295fac45c60","geometry":{"type":"MultiPoint","coordinates":[[2949.23, 1965.8],[2984.09, 2273.37],[3028.41, 2081.32],[3048.46, 2149.91],[3048.46, 2226.94],[3062.18, 1885.05],[3103.33, 2193.17],[3112.83, 1824.9],[3134.41, 1996.55],[3151.87, 2134.08],[3170.87, 2221.66],[3182.59, 2286.67],[3187.7, 1944.22],[3223.03, 2086.1],[3241.57, 1821.74],[3290.11, 2042.28],[3301.71, 2126.69],[3302.77, 2212.17],[3313.32, 2277.59],[3319.65, 1852.34],[3356.58, 1838.62],[3361.86, 2143.58],[3406.18, 1944.14],[3411.46, 2108.76],[3415.68, 2018.01]]},"properties":{"objectType":"annotation","color":[0, 255, 0]}},{"type":"Feature","id":"262c0b58-8315-440d-9f43-35fbfc1edc55","geometry":{"type":"MultiPoint","coordinates":[[2941.11, 2480.75],[2953.48, 2557.82],[2968.7, 2280.94],[2998.2, 2427.47],[3021.04, 2576.85],[3041.02, 2232.42],[3056.24, 2313.29],[3070.51, 2379.9],[3078.13, 2456.96],[3079.08, 2595.88],[3087.64, 2524.52],[3099.06, 2192.45],[3122.84, 2344.69],[3149.49, 2647.26],[3162.81, 2217.19],[3184.69, 2368.48],[3199.91, 2449.35],[3216.09, 2517.86],[3267.47, 2381.8],[3284.6, 2546.4],[3291.26, 2195.31],[3328.36, 2279.04],[3361.67, 2649.16],[3392.11, 2304.73],[3414.95, 2604.44]]},"properties":{"objectType":"annotation","color":[0, 255, 0]}},{"type":"Feature","id":"3cad1319-60b8-4c37-bec0-f4da7e76f0c2","geometry":{"type":"MultiPoint","coordinates":[[3002.9, 2921.91],[3024.59, 2580.03],[3092.2, 2614.48],[3092.2, 3016.31],[3113.89, 2679.54],[3129.19, 2904.05],[3139.4, 2840.27],[3158.53, 2636.16],[3159.81, 2983.14],[3178.94, 2784.14],[3208.28, 2939.77],[3244, 2739.49],[3256.76, 2831.34],[3272.07, 2544.32],[3272.07, 2904.05],[3370.29, 2719.08],[3374.12, 2646.37],[3398.36, 2804.55],[3398.36, 2863.23],[3417.49, 3013.76],[3422.6, 2596.62],[3449.39, 2745.87]]},"properties":{"objectType":"annotation","color":[0, 255, 0]}},{"type":"Feature","id":"843f9cac-1631-4e15-ba04-a83c171dd52c","geometry":{"type":"MultiPoint","coordinates":[[3500.41, 2639.5],[3511.82, 2712.1],[3519.08, 2797.15],[3547.08, 2927.84],[3551.23, 2673.73],[3552.27, 3000.44],[3615.54, 2962.06],[3624.87, 2676.84],[3639.39, 2604.24],[3640.43, 2757.74],[3671.54, 2896.72],[3756.59, 3014.96],[3766.96, 2654.02],[3806.38, 2889.46],[3817.79, 3021.18],[3820.9, 2967.25],[3830.23, 2612.54],[3859.27, 2907.09],[3899.72, 2644.69],[3903.87, 2723.51],[3941.21, 2860.42]]},"properties":{"objectType":"annotation","color":[0, 255, 0]}},{"type":"Feature","id":"f0410e56-be64-4433-9844-769e55a8331b","geometry":{"type":"MultiPoint","coordinates":[[3275.19, 3045.76],[3316.6, 3191.84],[3338.46, 3251.66],[3338.46, 3324.12],[3340.76, 3402.34],[3391.37, 3291.91],[3416.67, 3436.85],[3427.03, 2998.6],[3450.03, 3145.83],[3514.45, 3183.79],[3538.6, 2987.1],[3571.96, 3155.03],[3586.91, 3226.35],[3600.72, 2962.94],[3611.07, 3362.08],[3692.74, 3122.83],[3727.24, 3205.65],[3736.45, 3335.62],[3761.75, 3002.05]]},"properties":{"objectType":"annotation","color":[0, 255, 0]}},{"type":"Feature","id":"2f8c2dfd-f71a-4414-87ae-78b6ba2682ef","geometry":{"type":"MultiPoint","coordinates":[[3517.19, 3174.25],[3559.75, 3147.79],[3581.61, 3213.35],[3617.27, 3374.39],[3643.72, 3520.47],[3697.78, 3542.33],[3705.83, 3120.18],[3723.09, 3194.95],[3753, 3345.63],[3835.81, 3094.88],[3848.47, 3238.66],[3873.77, 3319.18],[3885.27, 3396.25],[3916.33, 3550.38],[3923.23, 3204.15],[3963.49, 3505.52],[4008.35, 3231.76]]},"properties":{"objectType":"annotation","color":[0, 255, 0]}},{"type":"Feature","id":"c76454b4-e819-4ba6-a843-4f119d1554d7","geometry":{"type":"MultiPoint","coordinates":[[3241.98, 3491.23],[3244.79, 3412.67],[3247.59, 3569.79],[3255.08, 3651.15],[3277.52, 3370.59],[3290.61, 3520.22],[3303.71, 3186.35],[3334.57, 3265.85],[3342.05, 3388.36],[3345.79, 3321.96],[3360.76, 3488.43],[3367.3, 3546.41],[3372.91, 3635.25],[3408.45, 3290.16],[3438.38, 3436.05],[3487.01, 3451.95],[3528.16, 3179.81],[3595.49, 3212.54],[3602.04, 3372.46],[3631.03, 3501.52],[3645.99, 3583.82],[3656.28, 3662.38]]},"properties":{"objectType":"annotation","color":[0, 255, 0]}},{"type":"Feature","id":"da80a6fb-e141-46a9-b8e1-0e7ab43fa07f","geometry":{"type":"MultiPoint","coordinates":[[4011.18, 2471.79],[4014.5, 2553.67],[4041.05, 2780.5],[4045.48, 2693.09],[4047.69, 2833.61],[4054.33, 2907.74],[4079.78, 2560.31],[4110.76, 2462.94],[4115.19, 2717.43],[4127.36, 2524.9],[4137.32, 2877.87],[4141.74, 2604.57],[4153.91, 2696.41],[4184.89, 2836.93],[4188.21, 2911.06],[4190.43, 2489.5],[4274.52, 2593.5],[4280.05, 2516.05],[4291.12, 2663.21],[4299.97, 2736.24],[4316.56, 2461.83],[4367.46, 2700.83],[4387.38, 2835.82],[4417.25, 2636.66],[4452.66, 2795.99],[4457.09, 2863.48],[4465.94, 2514.94],[4494.71, 2590.18]]},"properties":{"objectType":"annotation","color":[128, 0, 128]}},{"type":"Feature","id":"eda3965d-0688-4399-9bd9-c4be5877a22e","geometry":{"type":"MultiPoint","coordinates":[[4291.15, 2755.76],[4326.56, 2478.04],[4347.58, 2693.8],[4382.99, 2821.05],[4430.57, 2648.44],[4437.21, 2786.74],[4447.16, 2845.39],[4454.91, 2525.62],[4465.97, 2933.91],[4480.36, 2570.98],[4499.17, 2735.85],[4532.36, 2463.65],[4562.24, 2781.21],[4575.51, 2834.32],[4577.73, 2678.31],[4587.69, 2904.03],[4594.32, 2506.81],[4606.5, 2719.25],[4621.99, 2655.07],[4650.75, 2802.24],[4665.14, 2944.97],[4680.63, 2607.5],[4703.86, 2750.23],[4725.99, 2912.88],[4734.85, 2565.45]]},"properties":{"objectType":"annotation","color":[128, 0, 128]}},{"type":"Feature","id":"c1fb6c2f-0836-4595-8625-71fb6be644d9","geometry":{"type":"MultiPoint","coordinates":[[4057.76, 2420.65],[4070, 2083.14],[4075.45, 2160.72],[4091.78, 2241.01],[4106.75, 2315.86],[4108.11, 2368.93],[4114.91, 2457.39],[4132.6, 2505.02],[4156.25, 2201.16],[4167.29, 2330],[4184.32, 2477.8],[4186.93, 2415.9],[4200.73, 2055.59],[4212.38, 2144.48],[4227.42, 2282.15],[4227.42, 2353.32],[4263.25, 2525.44],[4276.5, 2091.95],[4337.68, 2052.36],[4338.1, 2460.11],[4389.81, 2416.56],[4406.05, 2149.52],[4456.5, 2515.91],[4480.72, 2187.3],[4485.21, 2255.68],[4504.75, 2317.73],[4517.74, 2456.03]]},"properties":{"objectType":"annotation","color":[128, 0, 128]}},{"type":"Feature","id":"f94f5415-1013-4bf3-b24a-e8cb95376dc9","geometry":{"type":"MultiPoint","coordinates":[[4450.63, 2541.93],[4478.29, 2603.89],[4486.03, 2164.62],[4495.99, 2244.29],[4495.99, 2332.8],[4520.33, 2468.9],[4548, 2276.37],[4559.06, 2188.96],[4576.77, 2346.08],[4586.72, 2520.91],[4630.98, 2308.46],[4646.47, 2391.45],[4647.58, 2455.62],[4673.03, 2597.25],[4718.39, 2559.63],[4719.5, 2412.47],[4738.31, 2146.92],[4738.31, 2209.99],[4764.87, 2268.63],[4779.25, 2437.92],[4808.02, 2580.65],[4810.23, 2522.01],[4823.51, 2327.27],[4851.17, 2470.01],[4886.58, 2283.01],[4888.79, 2211.09],[4897.64, 2348.3],[4919.77, 2441.24],[4926.41, 2510.95],[4935.26, 2578.44],[4936.37, 2236.54]]},"properties":{"objectType":"annotation","color":[128, 0, 128]}},{"type":"Feature","id":"4b268bf1-5d72-4ade-a3e9-fcfd6dfffeeb","geometry":{"type":"MultiPoint","coordinates":[[4643.15, 2377.06],[4658.64, 2440.13],[4669.71, 2617.17],[4725.03, 2576.23],[4727.25, 2398.09],[4749.38, 2226.58],[4773.72, 2296.29],[4788.1, 2416.9],[4788.1, 2533.08],[4803.59, 2606.1],[4809.12, 2665.85],[4833.47, 2308.46],[4834.57, 2486.6],[4865.55, 2217.73],[4878.83, 2259.78],[4879.94, 2342.76],[4905.39, 2430.17],[4914.24, 2498.78],[4914.24, 2574.02],[4934.16, 2663.64],[4946.33, 2394.77],[4950.75, 2226.58],[5013.82, 2268.63],[5027.1, 2423.54],[5035.95, 2341.66],[5045.91, 2491.03],[5059.19, 2566.27],[5070.25, 2639.3],[5087.96, 2285.23],[5111.19, 2351.61]]},"properties":{"objectType":"annotation","color":[128, 0, 128]}},{"type":"Feature","id":"334dbf48-8666-4655-b8ca-6791e2b3c702","geometry":{"type":"MultiPoint","coordinates":[[5533.23, 2601.28],[5558.99, 2319.05],[5572.49, 2408.63],[5578.63, 2483.48],[5590.9, 2548.52],[5600.72, 2202.47],[5601.94, 2628.28],[5668.21, 2566.92],[5668.21, 2651.59],[5679.25, 2316.59],[5682.93, 2385.31],[5740.61, 2269.96],[5754.1, 2349.73],[5762.69, 2427.03],[5772.51, 2503.11],[5777.42, 2570.6],[5792.15, 2649.14],[5795.83, 2228.24],[5806.87, 2301.87],[5815.46, 2366.9],[5821.6, 2449.12],[5855.96, 2598.83],[5863.32, 2263.83],[5868.23, 2337.45],[5885.41, 2404.95],[5897.68, 2575.51],[5928.35, 2215.97],[5939.4, 2283.46],[5945.53, 2364.45],[5979.89, 2580.42],[5992.16, 2234.38]]},"properties":{"objectType":"annotation","color":[128, 0, 128]}},{"type":"Feature","id":"87be6602-66fe-4255-b696-2400ecb9f67c","geometry":{"type":"Polygon","coordinates":[[[5087, 2143],[5087, 2653],[5597, 2653],[5597, 2143],[5087, 2143]]]},"properties":{"objectType":"annotation","classification":{"name":"Organic","color":[132, 99, 212]}}},{"type":"Feature","id":"23f95a16-563f-409b-99b4-ee3698864d0e","geometry":{"type":"MultiPoint","coordinates":[[5111.65, 2340.2],[5136.19, 2162.27],[5142.33, 2580.72],[5165.64, 2320.57],[5187.73, 2458.01],[5213.5, 2615.08],[5225.77, 2342.66],[5273.63, 2482.55],[5276.08, 2623.67],[5280.99, 2298.48],[5317.8, 2453.1],[5326.39, 2177],[5333.76, 2591.76],[5379.16, 2401.56],[5393.88, 2540.22],[5422.11, 2200.31],[5429.47, 2352.47],[5446.65, 2423.65],[5455.24, 2573.35],[5457.69, 2476.41],[5465.06, 2156.14],[5493.28, 2303.39],[5512.91, 2462.91],[5533.77, 2584.4],[5541.14, 2345.11],[5563.23, 2476.41],[5569.36, 2394.2]]},"properties":{"objectType":"annotation","color":[128, 0, 128]}},{"type":"Feature","id":"48b14baa-b3d7-4338-8910-c20e259f0723","geometry":{"type":"Polygon","coordinates":[[[4764, 1505],[4764, 2015],[5274, 2015],[5274, 1505],[4764, 1505]]]},"properties":{"objectType":"annotation","classification":{"name":"Organic","color":[132, 99, 212]}}},{"type":"Feature","id":"1839c80c-8e6f-4b34-b96b-4b54ea0cbf48","geometry":{"type":"Polygon","coordinates":[[[5127, 970],[5127, 1480],[5637, 1480],[5637, 970],[5127, 970]]]},"properties":{"objectType":"annotation","classification":{"name":"Organic","color":[132, 99, 212]}}},{"type":"Feature","id":"5dd8e1a0-9d21-4827-9dbf-40edeb57ad28","geometry":{"type":"Polygon","coordinates":[[[4886, 598],[4886, 1108],[5396, 1108],[5396, 598],[4886, 598]]]},"properties":{"objectType":"annotation","classification":{"name":"Organic","color":[132, 99, 212]}}},{"type":"Feature","id":"36ff9cab-6327-4a51-bf6b-c07efc84080c","geometry":{"type":"MultiPoint","coordinates":[[4785.28, 1588.78],[4786.51, 1531.11],[4788.96, 1667.32],[4839.27, 1966.73],[4844.18, 1899.24],[4868.73, 1629.28],[4877.31, 1786.35],[4923.94, 1655.05],[4925.17, 1586.33],[4939.9, 1727.44],[4954.62, 1801.07],[4965.67, 1883.29],[4981.62, 1974.09],[4986.53, 1533.56],[5009.84, 1684.5],[5017.21, 1847.7],[5042.97, 1988.82],[5055.25, 1565.47],[5062.61, 1644],[5068.74, 1722.54],[5074.88, 1786.35],[5121.51, 1590.01],[5160.78, 1805.98],[5181.64, 1533.56],[5203.73, 1690.63],[5209.86, 1778.98],[5227.04, 1847.7],[5240.54, 1569.15],[5245.45, 1910.28],[5249.13, 1982.68],[5260.17, 1639.09]]},"properties":{"objectType":"annotation","color":[128, 0, 128]}},{"type":"Feature","id":"ac565017-f415-4a7a-8a52-6d61cc1b777a","geometry":{"type":"MultiPoint","coordinates":[[5340.38, 1679.82],[5352.55, 1746.21],[5354.76, 1829.2],[5365.83, 1903.33],[5382.43, 2054.92],[5390.17, 1701.95],[5432.22, 2007.34],[5433.32, 1855.75],[5455.45, 1665.44],[5460.98, 1813.71],[5508.56, 1970.83],[5516.31, 1607.9],[5547.29, 1738.47],[5550.61, 1843.58],[5559.46, 1916.61],[5566.1, 1984.1],[5584.91, 2056.02],[5601.51, 1707.49],[5621.42, 1869.03],[5654.62, 2085.9],[5715.47, 1697.53],[5733.18, 1776.09],[5737.6, 1848.01],[5747.56, 1930.99],[5790.71, 1738.47],[5811.74, 1973.04],[5817.27, 1813.71],[5818.38, 1873.46]]},"properties":{"objectType":"annotation","color":[128, 0, 128]}},{"type":"Feature","id":"6d45a570-5956-433b-8f58-fa57b75e9016","geometry":{"type":"MultiPoint","coordinates":[[5195, 1686.91],[5213.41, 1751.95],[5228.14, 1901.66],[5230.59, 1834.17],[5242.86, 1486.89],[5256.36, 1655.01],[5282.13, 1796.12],[5307.9, 1597.33],[5315.26, 1945.83],[5328.76, 1673.41],[5343.48, 1825.58],[5344.71, 1912.7],[5364.34, 1550.7],[5390.11, 1623.1],[5402.38, 1688.14],[5419.56, 1869.75],[5447.79, 1583.83],[5452.7, 1655.01],[5478.47, 1812.08],[5495.65, 1599.79],[5509.14, 1951.97],[5543.5, 1760.54],[5568.04, 1832.94],[5571.73, 1906.56],[5598.72, 1695.5],[5617.13, 1853.8],[5646.58, 1586.29]]},"properties":{"objectType":"annotation","color":[128, 0, 128]}},{"type":"Feature","id":"33dc0982-391d-42d5-8217-e2850e5dc773","geometry":{"type":"MultiPoint","coordinates":[[5146.56, 1314.13],[5189.47, 1199.39],[5195.45, 1273.22],[5222.39, 1344.06],[5223.39, 999.85],[5233.36, 1419.88],[5244.34, 1080.67],[5249.33, 1149.51],[5258.31, 1234.31],[5263.3, 1312.13],[5291.23, 1376.98],[5299.21, 1113.59],[5300.21, 1448.82],[5320.16, 1265.24],[5327.15, 1007.83],[5343.11, 1398.93],[5368.05, 1070.69],[5371.05, 1216.35],[5398.98, 1291.18],[5401.98, 1361.02],[5415.94, 1014.82],[5427.92, 1428.86],[5434.9, 1163.47],[5464.83, 1318.12],[5486.78, 1454.8],[5500.75, 1121.57],[5510.72, 1198.39],[5521.7, 1275.22],[5537.66, 1353.04],[5555.62, 1409.91],[5580.56, 1230.32],[5603.51, 1297.17],[5605.51, 1373.99],[5621.47, 1034.77],[5633.44, 1107.6]]},"properties":{"objectType":"annotation","color":[128, 0, 128]}},{"type":"Feature","id":"2f674bad-b59e-4703-827f-db001ac3efe2","geometry":{"type":"MultiPoint","coordinates":[[4571.46, 860.78],[4580.99, 1018.64],[4606.85, 735.58],[4610.93, 656.64],[4620.46, 802.26],[4639.51, 618.54],[4642.23, 972.37],[4658.56, 707],[4673.53, 770.96],[4708.91, 999.59],[4718.44, 648.48],[4782.4, 1033.61],[4785.12, 591.32],[4790.57, 687.94],[4804.18, 751.91],[4813.7, 830.84],[4825.95, 916.58],[4839.56, 1062.19],[4843.64, 636.23],[4879.03, 936.99],[4915.77, 659.37],[4930.74, 749.18],[4930.74, 822.67],[4951.15, 904.33],[4959.32, 1049.94],[4971.57, 977.82],[4981.09, 694.75],[5034.17, 1003.67]]},"properties":{"objectType":"annotation","color":[128, 0, 128]}},{"type":"Feature","id":"702bc67a-6a23-47de-802f-d3cf21fcf40d","geometry":{"type":"MultiPoint","coordinates":[[4917.21, 814.39],[4923.85, 668.33],[4934.92, 729.19],[4950.41, 890.73],[4951.51, 975.93],[4957.05, 1027.94],[4989.13, 683.82],[5017.9, 994.74],[5048.88, 646.2],[5061.05, 725.87],[5073.23, 815.49],[5076.54, 885.2],[5080.97, 952.7],[5104.21, 1024.62],[5105.31, 1079.94],[5111.95, 763.49],[5139.61, 829.88],[5148.47, 907.33],[5183.87, 632.93],[5196.04, 713.7],[5210.43, 785.62],[5211.53, 981.47],[5212.64, 849.8],[5221.49, 918.4],[5225.92, 1067.77],[5231.45, 646.2],[5253.58, 724.76],[5270.18, 951.59],[5301.16, 620.76],[5323.29, 762.38],[5325.5, 689.36],[5335.46, 834.3],[5336.57, 927.25],[5354.27, 994.74],[5365.33, 1051.17],[5380.82, 710.38]]},"properties":{"objectType":"annotation","color":[128, 0, 128]}},{"type":"Feature","id":"8a4d44e0-efc8-4e52-9f76-5218b80ef0af","geometry":{"type":"MultiPoint","coordinates":[[5371.02, 563.68],[5375.93, 698.66],[5380.83, 639.76],[5428.69, 504.78],[5442.19, 588.22],[5447.1, 667.98],[5461.82, 730.56],[5475.32, 883.95],[5480.23, 814.01],[5492.5, 464.28],[5514.59, 611.53],[5525.63, 751.43],[5539.13, 931.81],[5545.27, 492.51],[5557.54, 574.72],[5575.95, 645.89],[5579.63, 720.75],[5644.66, 675.34],[5645.89, 739.15],[5653.25, 831.19],[5683.93, 548.95],[5694.98, 626.26],[5721.97, 698.66],[5724.43, 782.1],[5739.15, 928.13],[5757.56, 517.05],[5757.56, 593.13],[5771.06, 740.38],[5789.46, 890.09],[5810.32, 472.87],[5822.59, 547.73],[5827.5, 609.08],[5844.68, 691.3]]},"properties":{"objectType":"annotation","color":[128, 0, 128]}},{"type":"Feature","id":"37b2bbcc-5736-4577-af4d-392f13298d68","geometry":{"type":"MultiPoint","coordinates":[[5337.03, 421.42],[5362.48, 73.99],[5372.43, 213.4],[5373.54, 142.59],[5393.46, 278.68],[5412.27, 504.41],[5417.8, 439.12],[5424.44, 100.54],[5434.4, 185.74],[5462.06, 259.87],[5466.48, 328.48],[5474.23, 474.53],[5481.98, 390.44],[5498.57, 56.28],[5508.53, 124.89],[5512.96, 199.02],[5522.92, 269.83],[5530.66, 335.12],[5558.32, 480.06],[5560.54, 413.67],[5561.64, 77.31],[5573.81, 237.75],[5607.01, 360.56],[5635.78, 95.01],[5653.48, 331.8],[5672.29, 407.04],[5711.02, 132.63],[5733.15, 274.26],[5743.1, 507.72],[5757.49, 438.02],[5759.7, 160.29],[5795.11, 238.85],[5796.21, 325.16],[5798.43, 389.33],[5807.28, 456.83]]},"properties":{"objectType":"annotation","color":[128, 0, 128]}},{"type":"Feature","id":"f4bf9ff1-fb70-4405-bb7e-d7a98b44462c","geometry":{"type":"MultiPoint","coordinates":[[4813.51, 490.85],[4847.81, 72.6],[4850.02, 195.42],[4862.19, 129.03],[4872.15, 278.4],[4875.47, 444.37],[4889.85, 515.19],[4890.96, 374.67],[4931.9, 404.54],[4933.01, 250.74],[4952.92, 59.32],[4967.31, 126.82],[4981.69, 193.21],[4985.01, 251.85],[4993.86, 417.82],[5010.46, 93.62],[5010.46, 498.59],[5035.91, 150.05],[5062.46, 329.3],[5066.89, 455.44],[5096.76, 195.42],[5098.98, 124.6],[5115.57, 280.62],[5120, 322.66],[5147.66, 72.6],[5157.62, 407.86],[5184.17, 225.29],[5209.62, 361.39],[5210.73, 425.56],[5227.33, 516.3],[5239.5, 90.3],[5243.92, 169.97],[5254.99, 321.56],[5257.2, 239.68],[5277.12, 393.48],[5282.65, 468.72]]},"properties":{"objectType":"annotation","color":[128, 0, 128]}},{"type":"Feature","id":"8d75c868-4bc5-47fc-9d49-b42ea77c30a6","geometry":{"type":"MultiPoint","coordinates":[[4683.81, 255.25],[4685.03, 419.68],[4688.72, 342.37],[4716.94, 83.45],[4739.03, 220.89],[4769.71, 463.86],[4773.39, 191.44],[4829.83, 71.18],[4834.74, 496.99],[4850.69, 143.58],[4861.74, 299.42],[4871.56, 374.28],[4872.78, 206.16],[4882.6, 461.4],[4946.41, 258.93],[4951.42, 392.71],[4966.04, 45.41],[4982, 123.95],[4993.04, 208.62],[4994.27, 266.29],[5017.81, 418.16],[5025.55, 495.61],[5026.17, 87.13],[5039.67, 168.12],[5055.62, 309.24],[5091.94, 459.1],[5093.66, 30.69],[5103.48, 104.31],[5113.3, 180.39],[5132.93, 252.79],[5135.38, 333.78],[5142.13, 407.86],[5158.7, 81]]},"properties":{"objectType":"annotation","color":[128, 0, 128]}},{"type":"Feature","id":"6602aa34-54a2-4485-b7a7-a921f63b928b","geometry":{"type":"MultiPoint","coordinates":[[2681.8, 543.75],[2704.58, 322.02],[2725.84, 62.32],[2737.99, 135.22],[2738.09, 480.42],[2777.48, 366.06],[2779, 284.05],[2789.63, 104.84],[2800.26, 422.25],[2833.67, 238.49],[2847.34, 387.32],[2868.6, 458.7],[2871.85, 118.42],[2882.27, 533.12],[2921.75, 487.56],[2929.35, 413.14],[2949.09, 144.33],[2984.02, 442],[2994.65, 106.36],[3011.36, 179.26],[3028.06, 256.71],[3053.88, 473.89],[3069.41, 128.24],[3084.26, 211.15],[3104, 359.99],[3112.36, 435.02],[3128.3, 86.62],[3140.45, 504.26],[3146.52, 156.48]]},"properties":{"objectType":"annotation","color":[128, 0, 128]}},{"type":"Feature","id":"4cf0bc25-b010-4705-94c7-e86d56ccb2cd","geometry":{"type":"MultiPoint","coordinates":[[2682.49, 547.6],[2688.63, 602.82],[2692.31, 682.58],[2724.21, 329.17],[2727.96, 477.2],[2758.57, 627.36],[2774.52, 275.18],[2789.25, 365.99],[2789.25, 423.66],[2816.25, 245.73],[2816.25, 577.05],[2823.61, 651.9],[2854.29, 394.21],[2865.33, 459.25],[2876.37, 527.97],[2887.42, 671.54],[2925.46, 418.75],[2930.37, 573.37],[2935.98, 487.16],[2991.72, 439.61],[3007.68, 586.87],[3011.36, 255.55],[3053.08, 475.2],[3069.86, 211.65],[3102.16, 359.85],[3119.34, 505.88],[3119.66, 427.41]]},"properties":{"objectType":"annotation","color":[128, 0, 128]}},{"type":"Feature","id":"b5eca361-ec11-415d-a22b-4c32ff70fd0a","geometry":{"type":"MultiPoint","coordinates":[[2679.38, 1029.46],[2680.38, 680.26],[2703.5, 753.47],[2733.26, 894.77],[2739.42, 976.96],[2753.21, 636.37],[2778.15, 782.03],[2797.11, 924.7],[2814.07, 661.31],[2840.19, 882.18],[2872.93, 1035.44],[2874.93, 679.27],[2892.89, 1101.29],[2917.83, 832.91],[2930.8, 975.58],[2972.7, 713.19],[2991.66, 870.82],[3047.53, 742.12],[3057.51, 896.76],[3078.46, 1034.45],[3082.45, 1115.26],[3100.41, 694.23],[3103.4, 843.89],[3104.4, 766.07],[3113.38, 928.69],[3159.45, 637.74],[3164.26, 780.03]]},"properties":{"objectType":"annotation","color":[128, 0, 128]}},{"type":"Feature","id":"c0d761c5-3f23-4b0f-a9b1-758a00b08bc3","geometry":{"type":"MultiPoint","coordinates":[[4011.14, 2454.94],[4013.59, 2533.48],[4047.95, 2435.31],[4072.49, 2586.24],[4105.62, 2396.04],[4106.85, 2241.42],[4108.08, 2295.42],[4114.21, 2437.76],[4133.85, 2193.57],[4142.44, 2593.6],[4143.66, 2519.98],[4166.98, 2410.77],[4180.48, 2501.57],[4182.93, 2328.55],[4212.38, 2274.56],[4241.83, 2372.73],[4263.92, 2505.25],[4276.19, 2583.79],[4277.42, 2664.78],[4292.13, 2257.97],[4316.69, 2474.58],[4407.49, 2414.45],[4433.26, 2624.28],[4443.82, 2293.66],[4466.39, 2529.8],[4470.07, 2591.15],[4488.48, 2235.29],[4489.71, 2316.28]]},"properties":{"objectType":"annotation","color":[128, 0, 128]}},{"type":"Feature","id":"9efe2886-5203-4486-a00a-896e4eaafe7d","geometry":{"type":"MultiPoint","coordinates":[[4308.27, 1903.06],[4314.91, 1971.66],[4323.92, 2039.42],[4373.55, 1918.55],[4389.04, 1997.11],[4423.34, 2152.02],[4434.41, 1817.86],[4441.05, 1941.79],[4443.57, 2282.31],[4464.28, 2164.19],[4472.03, 2239.43],[4538.42, 2205.13],[4539.52, 2265.98],[4569.4, 1852.16],[4569.4, 1929.62],[4609.23, 2152.02],[4643.28, 1885.58],[4672.3, 2105.54],[4708.81, 1908.59],[4727.62, 2074.56],[4746.43, 2278.15],[4759.71, 2138.74],[4760.82, 2198.49],[4763.03, 1875.4]]},"properties":{"objectType":"annotation","color":[128, 0, 128]}},{"type":"Feature","id":"202051ac-ed58-4fd2-a400-394cfc2844af","geometry":{"type":"MultiPoint","coordinates":[[4331.53, 1207.83],[4351.44, 1283.07],[4375.78, 1369.37],[4379.1, 1440.19],[4391.27, 1578.5],[4395.7, 1653.74],[4437.75, 1222.21],[4437.75, 1387.08],[4498.6, 1236.6],[4516.31, 1398.14],[4520.73, 1455.68],[4628.06, 1310.73],[4651.3, 1532.03],[4705.94, 1419.3],[4716.58, 1568.54],[4744.24, 1223.32],[4758.62, 1304.09],[4770.12, 1371.72],[4777.43, 1440.19],[4792.92, 1519.85],[4799.56, 1589.56],[4807.31, 1664.8],[4809.52, 1319.58]]},"properties":{"objectType":"annotation","color":[128, 0, 128]}},{"type":"Feature","id":"2dba06e4-1645-4f1b-a57c-07e05a7ff9ac","geometry":{"type":"Polygon","coordinates":[[[4537, 570],[4537, 1080],[5047, 1080],[5047, 570],[4537, 570]]]},"properties":{"objectType":"annotation","classification":{"name":"Organic","color":[132, 99, 212]}}},{"type":"Feature","id":"abbc1bf8-a2f8-44c8-941e-a71664ceee1c","geometry":{"type":"Polygon","coordinates":[[[4755, 995],[4755, 1505],[5265, 1505],[5265, 995],[4755, 995]]]},"properties":{"objectType":"annotation","classification":{"name":"Organic","color":[132, 99, 212]}}},{"type":"Feature","id":"c8a8bc8f-f0b8-4b75-b3e7-0b9820fd26bd","geometry":{"type":"MultiPoint","coordinates":[[4763.98, 1446.85],[4765.08, 1385.99],[4778.36, 1024.18],[4799.38, 1164.7],[4817.09, 1335.1],[4842.54, 1481.15],[4848.07, 1051.84],[4853.6, 1129.29],[4864.67, 1206.75],[4871.3, 1284.2],[4898.97, 1363.86],[4950.97, 1398.17],[4983.06, 1041.88],[4984.16, 1104.95],[4995.23, 1196.79],[4995.23, 1257.64],[5008.51, 1346.16],[5038.38, 1490],[5050.55, 1000.94],[5076, 1298.58],[5089.28, 1435.79],[5092.6, 1019.75],[5108.09, 1102.74],[5119.15, 1170.23],[5134.65, 1239.94],[5135.75, 1328.46],[5201.03, 1260.96],[5205.46, 1193.47],[5207.67, 1347.27],[5232.01, 1485.58],[5235.33, 1151.42],[5246.4, 1412.55],[5247.51, 1068.44]]},"properties":{"objectType":"annotation","color":[128, 0, 128]}}]}