{"type":"FeatureCollection","features":[{"type":"Feature","id":"eb431835-0944-42e2-a370-909afa5eef4e","geometry":{"type":"Polygon","coordinates":[[[3527.56, 894.03],[3527.56, 1405.14],[4038.68, 1405.14],[4038.68, 894.03],[3527.56, 894.03]]]},"properties":{"objectType":"annotation","classification":{"name":"dense_grown","color":[1, 92, 196]}}},{"type":"Feature","id":"1385706f-cbe0-4831-86b4-c14f928ea899","geometry":{"type":"Polygon","coordinates":[[[7678.42, 1704.82],[7678.42, 2215.94],[8189.55, 2215.94],[8189.55, 1704.82],[7678.42, 1704.82]]]},"properties":{"objectType":"annotation","classification":{"name":"dense_grown","color":[1, 92, 196]}}},{"type":"Feature","id":"cb0e7ac9-9220-4a5c-8389-148b252b1b72","geometry":{"type":"Polygon","coordinates":[[[7678.42, 1184.87],[7678.42, 1695.98],[8189.55, 1695.98],[8189.55, 1184.87],[7678.42, 1184.87]]]},"properties":{"objectType":"annotation","classification":{"name":"dense_grown","color":[1, 92, 196]}}},{"type":"Feature","id":"18c8ab8f-89f5-4198-82d8-f339ba053547","geometry":{"type":"Polygon","coordinates":[[[7158.47, 1352.31],[7158.47, 1863.43],[7669.59, 1863.43],[7669.59, 1352.31],[7158.47, 1352.31]]]},"properties":{"objectType":"annotation","classification":{"name":"dense_grown","color":[1, 92, 196]}}},{"type":"Feature","id":"40ba25d6-444e-488b-9123-1f1ad13dddc2","geometry":{"type":"Polygon","coordinates":[[[3659.75, 1889.87],[3659.75, 2400.98],[4170.87, 2400.98],[4170.87, 1889.87],[3659.75, 1889.87]]]},"properties":{"objectType":"annotation","classification":{"name":"dense_small","color":[201, 203, 183]}}},{"type":"Feature","id":"532449a0-eb38-497e-88bc-288d6ff74f29","geometry":{"type":"Polygon","coordinates":[[[3257.74, 1000.22],[3257.74, 1511.34],[3768.86, 1511.34],[3768.86, 1000.22],[3257.74, 1000.22]]]},"properties":{"objectType":"annotation","classification":{"name":"dense_grown","color":[1, 92, 196]}}},{"type":"Feature","id":"28a60637-e24d-4c55-9572-0750582a2dc5","geometry":{"type":"Polygon","coordinates":[[[7341.96, 519.14],[7341.96, 1030.25],[7853.08, 1030.25],[7853.08, 519.14],[7341.96, 519.14]]]},"properties":{"objectType":"annotation","classification":{"name":"dense_grown","color":[1, 92, 196]}}},{"type":"Feature","id":"0eb0eed7-ad90-4ee0-a76a-7f8eed0d4943","geometry":{"type":"Polygon","coordinates":[[[3708.7, 260.61],[3708.7, 771.73],[4219.82, 771.73],[4219.82, 260.61],[3708.7, 260.61]]]},"properties":{"objectType":"annotation","classification":{"name":"dense_grown","color":[1, 92, 196]}}},{"type":"Feature","id":"87695344-a25a-417a-bd66-bb7e7ad66104","geometry":{"type":"Polygon","coordinates":[[[3798.19, 2050.93],[3798.19, 2562.04],[4309.31, 2562.04],[4309.31, 2050.93],[3798.19, 2050.93]]]},"properties":{"objectType":"annotation","classification":{"name":"dense_small","color":[201, 203, 183]}}},{"type":"Feature","id":"d3faf576-db90-4a87-8640-f31643ecb2c6","geometry":{"type":"Polygon","coordinates":[[[3962.82, 1690.11],[3962.82, 2201.23],[4473.94, 2201.23],[4473.94, 1690.11],[3962.82, 1690.11]]]},"properties":{"objectType":"annotation","classification":{"name":"dense_small","color":[201, 203, 183]}}},{"type":"Feature","id":"2a3bc54c-26b1-48b3-9551-46fe111dc607","geometry":{"type":"Polygon","coordinates":[[[3258.86, 724.71],[3258.86, 1235.82],[3769.98, 1235.82],[3769.98, 724.71],[3258.86, 724.71]]]},"properties":{"objectType":"annotation","classification":{"name":"dense_grown","color":[1, 92, 196]}}},{"type":"Feature","id":"047d4fa6-4535-43a5-9768-544f91df96b5","geometry":{"type":"Polygon","coordinates":[[[3771.19, 721.4],[3771.19, 1232.51],[4282.31, 1232.51],[4282.31, 721.4],[3771.19, 721.4]]]},"properties":{"objectType":"annotation","classification":{"name":"dense_grown","color":[1, 92, 196]}}},{"type":"Feature","id":"3414f62a-dd54-4564-8b61-59a47edd0c93","geometry":{"type":"MultiPoint","coordinates":[[3278.95, 696.6],[3288.35, 387.85],[3288.35, 533.52],[3317.29, 609.34],[3317.71, 769.75],[3330.26, 466.67],[3333.25, 304.05],[3365.25, 707.57],[3377.15, 550.48],[3397.1, 389.85],[3408.08, 611.34],[3418.06, 474.65],[3424.04, 316.02],[3455.22, 715.62],[3473.93, 390.85],[3473.93, 546.49],[3504.85, 625.3],[3507.85, 318.01],[3508.85, 475.65],[3540.8, 704.65],[3560.73, 551.48],[3568.71, 397.83],[3587.66, 629.3],[3589.66, 471.66],[3605.62, 322.01],[3613.6, 574.42],[3630.76, 711.96],[3644.53, 399.83],[3682.44, 627.3],[3683.44, 475.65],[3697.41, 328.99],[3728.34, 408.8],[3731.33, 579.41],[3737.55, 709.77]]},"properties":{"objectType":"annotation","color":[230, 179, 77]}},{"type":"Feature","id":"7622246c-2ad0-4054-b386-0f28679b868c","geometry":{"type":"Polygon","coordinates":[[[3240.55, 267.31],[3240.55, 778.43],[3751.67, 778.43],[3751.67, 267.31],[3240.55, 267.31]]]},"properties":{"objectType":"annotation","classification":{"name":"dense_grown","color":[1, 92, 196]}}},{"type":"Feature","id":"f1443ed5-558b-4698-abaa-4025afefda78","geometry":{"type":"MultiPoint","coordinates":[[3725.75, 411.44],[3732.74, 571.07],[3764.66, 648.89],[3774.64, 329.62],[3780.63, 494.24],[3803.57, 727.71],[3812.55, 568.07],[3813.55, 425.4],[3858.45, 493.25],[3867.43, 657.87],[3871.42, 353.57],[3901.35, 719.72],[3909.33, 420.41],[3912.32, 565.08],[3941.26, 653.88],[3951.23, 337.61],[3956.22, 496.24],[3988.15, 724.71],[3997.13, 577.05],[4003.11, 418.42],[4023.07, 653.88],[4045.02, 356.56],[4046.02, 502.23],[4066.97, 730.7],[4072.95, 576.06],[4086.92, 423.41],[4109.87, 662.85],[4128.82, 503.22],[4158.75, 739.68],[4164.74, 581.04],[4173.72, 435.38],[4174.72, 296.7]]},"properties":{"objectType":"annotation","color":[230, 179, 77]}},{"type":"Feature","id":"7a902e5a-c282-4e6e-993d-981beea03f1a","geometry":{"type":"Polygon","coordinates":[[[4195.66, 268.86],[4195.66, 779.98],[4706.78, 779.98],[4706.78, 268.86],[4195.66, 268.86]]]},"properties":{"objectType":"annotation","classification":{"name":"dense_grown","color":[1, 92, 196]}}},{"type":"Feature","id":"45e142fa-f7c4-4a8b-b7c7-fc9f6f255e38","geometry":{"type":"MultiPoint","coordinates":[[4219.19, 503.91],[4222.61, 358.56],[4247.55, 756.64],[4262.52, 580.05],[4263.51, 444.36],[4267.5, 294.7],[4289.45, 668.84],[4316.39, 365.54],[4319.38, 503.22],[4326.37, 587.03],[4337.34, 747.66],[4351.31, 294.7],[4351.31, 440.37],[4374.26, 669.84],[4385.23, 516.19],[4400.2, 367.54],[4433.12, 291.71],[4437.11, 747.66],[4441.1, 602],[4458.06, 432.39],[4470.04, 521.18],[4475.02, 675.82],[4488.99, 366.54],[4513.93, 594.01],[4518.92, 750.65],[4529.9, 288.72],[4530.9, 447.35],[4550.85, 681.81],[4567.81, 525.17],[4605.13, 758.5],[4605.72, 604.99],[4611.71, 449.35],[4628.67, 298.7],[4642.64, 678.82],[4656.61, 524.18],[4661.59, 382.5],[4683.54, 761.63],[4693.52, 614.97]]},"properties":{"objectType":"annotation","color":[230, 179, 77]}},{"type":"Feature","id":"0ca06578-48fa-4ddf-8784-55bbf70809c9","geometry":{"type":"MultiPoint","coordinates":[[3287.68, 1382.71],[3305.32, 1070.65],[3305.32, 1236.05],[3335.09, 1312.14],[3337.29, 1461],[3347.22, 1157.76],[3374.79, 1381.6],[3394.63, 1228.33],[3401.25, 1096.02],[3418.89, 1472.02],[3429.92, 1306.62],[3439.84, 1163.28],[3448.66, 1015.52],[3467.41, 1099.32],[3478.44, 1232.75],[3480.64, 1399.25],[3506, 1478.64],[3518.13, 1317.65],[3532.47, 1022.14],[3533.57, 1167.69],[3555.62, 1409.17],[3571.06, 1243.77],[3572.16, 1094.91],[3595.32, 1492.97],[3601.93, 1317.65],[3610.76, 1180.92],[3622.88, 1023.24],[3643.84, 1261.41],[3647.14, 1409.17],[3655.96, 1099.32],[3679.12, 1486.36],[3690.15, 1328.68],[3706.69, 1186.43],[3707.79, 1025.44],[3735.36, 1419.1],[3739.77, 1266.93],[3741.97, 1101.53]]},"properties":{"objectType":"annotation","color":[230, 179, 77]}},{"type":"Feature","id":"d8d66652-2eaa-4125-a987-32dbfb2967cd","geometry":{"type":"MultiPoint","coordinates":[[3268.17, 1005.93],[3275.15, 842.31],[3303.09, 1086.75],[3316.06, 937.09],[3329.03, 775.47],[3343.99, 1008.93],[3351.97, 1162.57],[3353.97, 854.29],[3398.86, 928.11],[3403.85, 1087.75],[3409.84, 777.46],[3442.76, 1010.92],[3445.76, 855.28],[3449.75, 1166.56],[3481.67, 1091.74],[3491.65, 780.46],[3491.65, 929.11],[3526.57, 1011.92],[3532.56, 1170.55],[3540.54, 855.28],[3565.48, 947.07],[3574.46, 1105.7],[3583.44, 781.45],[3617.36, 1017.91],[3626.34, 862.27],[3632.33, 1174.55],[3650.28, 1105.7],[3670.24, 943.08],[3677.22, 796.42],[3699.17, 1176.54],[3703.16, 1015.91],[3729.1, 1102.71],[3734.09, 871.25],[3752.05, 952.06]]},"properties":{"objectType":"annotation","color":[230, 179, 77]}},{"type":"Feature","id":"404e4b3b-73a4-456d-b89d-918f17a51b0b","geometry":{"type":"Polygon","coordinates":[[[4142.32, 390.7],[4142.32, 901.82],[4653.45, 901.82],[4653.45, 390.7],[4142.32, 390.7]]]},"properties":{"objectType":"annotation","classification":{"name":"dense_grown","color":[1, 92, 196]}}},{"type":"Feature","id":"c6bb626d-be7d-42bd-8977-a0d642437743","geometry":{"type":"MultiPoint","coordinates":[[4168.09, 570.18],[4169.09, 742.78],[4181.06, 429.5],[4206, 831.57],[4212.99, 662.96],[4229.95, 503.33],[4240.92, 569.18],[4256.88, 742.78],[4265.86, 431.5],[4296.79, 504.33],[4300.78, 827.58],[4322.73, 668.95],[4344.68, 574.17],[4345.68, 738.79],[4351.67, 431.5],[4385.59, 518.3],[4387.58, 673.94],[4399.55, 826.58],[4432.48, 577.16],[4435.47, 430.5],[4436.47, 733.8],[4469.39, 524.28],[4472.39, 821.6],[4474.38, 668.95],[4506.31, 745.77],[4519.28, 438.48],[4531.25, 589.13],[4547.21, 830.57],[4552.2, 676.93],[4563.18, 524.28],[4599.09, 601.1],[4600.09, 745.77],[4621.04, 451.45],[4642.99, 840.55]]},"properties":{"objectType":"annotation","color":[230, 179, 77]}},{"type":"Feature","id":"4b5d8d4d-0648-4c7a-b034-e01bf3b95758","geometry":{"type":"Polygon","coordinates":[[[3987.63, 599.21],[3987.63, 1110.32],[4498.75, 1110.32],[4498.75, 599.21],[3987.63, 599.21]]]},"properties":{"objectType":"annotation","classification":{"name":"dense_grown","color":[1, 92, 196]}}},{"type":"Feature","id":"1f1141ae-7ff0-4954-8882-d2fb49dbcb2d","geometry":{"type":"MultiPoint","coordinates":[[3561.21, 1255.09],[3583.15, 1103.44],[3585.15, 941.81],[3609.09, 1345.88],[3621.07, 1188.24],[3634.04, 1016.64],[3650, 1269.06],[3668.96, 1103.44],[3673.95, 950.79],[3683.92, 1192.23],[3691.9, 1342.89],[3706.87, 1023.62],[3736.8, 1264.07],[3748.77, 1110.42],[3755.76, 954.78],[3778.7, 1352.86],[3780.7, 1199.22],[3803.65, 1022.63],[3830.58, 1271.05],[3835.57, 1118.41],[3841.56, 956.78],[3865.5, 1360.85],[3883.46, 1190.24],[3891.44, 1039.59],[3906.41, 1277.04],[3916.39, 1118.41],[3942.33, 956.78],[3960.28, 1367.83],[3966.27, 1035.6],[3967.27, 1195.23],[4000.19, 1283.03],[4012.16, 1130.38],[4022.14, 960.77]]},"properties":{"objectType":"annotation","color":[230, 179, 77]}},{"type":"Feature","id":"1debb17c-a9d3-456d-a0b6-2b143f6bfaa1","geometry":{"type":"MultiPoint","coordinates":[[3798.95, 1192.94],[3801.94, 1035.3],[3806.93, 880.66],[3830.88, 956.48],[3839.86, 1117.11],[3854.82, 798.85],[3883.76, 1202.92],[3884.75, 1041.29],[3889.74, 892.63],[3912.69, 955.49],[3930.65, 1113.12],[3936.63, 819.8],[3964.57, 1045.28],[3970.56, 885.65],[3982.53, 1208.9],[4005.47, 1118.11],[4016.45, 965.46],[4025.43, 819.8],[4063.34, 1056.25],[4069.33, 1209.9],[4077.31, 886.65],[4093.27, 1130.08],[4105.24, 970.45],[4112.23, 815.81],[4145.15, 1212.89],[4148.15, 1062.24],[4168.1, 895.62],[4172.09, 737.99],[4178.08, 1148.04],[4192.04, 981.43],[4213.99, 812.82],[4228.96, 1208.9],[4230.95, 1053.26],[4246.92, 899.62],[4263.88, 756.95]]},"properties":{"objectType":"annotation","color":[230, 179, 77]}},{"type":"Feature","id":"12ac1329-b2bb-43aa-aaaf-958687e9fd49","geometry":{"type":"MultiPoint","coordinates":[[4028.35, 964.91],[4043.64, 814.67],[4049.04, 1053.07],[4050.84, 661.74],[4062.53, 886.64],[4082.32, 734.61],[4112.01, 970.31],[4114.71, 815.57],[4134.5, 662.64],[4139, 1037.78],[4158.79, 888.44],[4166.89, 740.01],[4194.78, 945.12],[4196.57, 822.77],[4212.77, 659.04],[4233.46, 1066.57],[4241.56, 747.2],[4241.56, 873.15],[4281.14, 821.87],[4294.63, 975.7],[4302.73, 667.14],[4322.52, 898.34],[4326.12, 740.9],[4333.32, 1062.07],[4360.3, 991],[4376.5, 827.27],[4389.09, 659.94],[4411.58, 1073.76],[4416.98, 915.43],[4423.28, 757.1],[4458.36, 1000.89],[4463.76, 840.76],[4466.46, 682.43]]},"properties":{"objectType":"annotation","color":[230, 179, 77]}},{"type":"Feature","id":"9845af76-365b-40df-b8e0-ba10ffb3eaea","geometry":{"type":"MultiPoint","coordinates":[[7360.96, 928.04],[7373.56, 783.2],[7378.05, 623.07],[7400.54, 1016.2],[7409.54, 864.17],[7415.84, 715.73],[7428.43, 552],[7429.33, 946.03],[7454.52, 796.69],[7467.12, 633.86],[7494.1, 716.63],[7506.7, 864.17],[7520.19, 558.3],[7541.78, 802.99],[7545.38, 937.93],[7556.18, 651.86],[7578.67, 877.66],[7599.36, 722.03],[7601.16, 563.69],[7626.35, 812.89],[7631.75, 658.15],[7665.93, 884.86],[7672.23, 737.32],[7692.92, 566.39],[7710.01, 951.43],[7738.8, 664.45],[7762.19, 885.76],[7776.58, 736.42],[7790.98, 580.79],[7795.47, 966.72],[7811.67, 818.28],[7819.76, 661.75]]},"properties":{"objectType":"annotation","color":[230, 179, 77]}},{"type":"Feature","id":"f592aadf-1d9d-4910-9d10-9dcdf1e88afd","geometry":{"type":"MultiPoint","coordinates":[[7199.47, 1613.14],[7200.69, 1710.08],[7203.15, 1768.98],[7217.87, 1519.88],[7219.1, 1435.21],[7270.64, 1827.88],[7280.46, 1751.8],[7286.59, 1654.86],[7291.5, 1398.39],[7298.86, 1562.83],[7306.23, 1473.25],[7350.4, 1787.39],[7360.22, 1527.24],[7367.58, 1690.44],[7373.72, 1614.36],[7377.4, 1429.07],[7412.98, 1835.24],[7436.3, 1745.66],[7444.89, 1646.27],[7447.34, 1565.28],[7449.8, 1394.71],[7454.71, 1481.84],[7509.93, 1781.25],[7513.61, 1616.82],[7523.42, 1523.56],[7525.88, 1443.8],[7528.33, 1692.9],[7583.55, 1835.24],[7584.78, 1653.63],[7588.46, 1566.51],[7589.69, 1743.21],[7590.92, 1480.61],[7615.46, 1386.12]]},"properties":{"objectType":"annotation","color":[230, 179, 77]}},{"type":"Feature","id":"da141bef-1c42-4c4d-8750-ba6406f7fbe9","geometry":{"type":"MultiPoint","coordinates":[[7718.53, 2096.62],[7722.22, 2171.47],[7728.35, 2005.81],[7730.81, 1841.38],[7738.17, 1916.23],[7757.8, 1746.89],[7810.57, 1782.48],[7814.25, 2051.21],[7815.48, 2132.2],[7824.07, 1870.83],[7824.07, 1971.45],[7884.19, 2092.94],[7887.88, 1741.98],[7892.78, 1927.28],[7897.69, 1834.02],[7963.96, 1811.93],[7967.46, 2159.7],[7967.64, 2064.71],[7975, 1884.33],[7979.91, 1966.54],[8025.13, 2120.43],[8044.95, 2020.54],[8049.85, 1934.64],[8052.31, 1851.2],[8063.35, 1750.57],[8114.71, 2168.29],[8121.03, 1970.23],[8127.16, 1902.73],[8128.21, 2067.67],[8130.84, 1729.71],[8140.66, 1808.25]]},"properties":{"objectType":"annotation","color":[230, 179, 77]}},{"type":"Feature","id":"f293ab87-2e20-48ce-8687-4ae8b205bbc2","geometry":{"type":"MultiPoint","coordinates":[[7748.17, 1658.22],[7749.97, 1576.35],[7758.07, 1485.49],[7759.87, 1401.83],[7762.57, 1232.7],[7766.17, 1318.16],[7828.24, 1539.47],[7839.93, 1440.51],[7840.83, 1617.73],[7841.73, 1270.48],[7843.53, 1348.75],[7901.11, 1492.69],[7901.11, 1582.65],[7906.5, 1671.71],[7916.4, 1229.1],[7916.4, 1301.07],[7923.6, 1399.13],[7977.57, 1271.38],[7982.97, 1453.1],[7990.17, 1370.34],[7990.17, 1624.93],[7999.17, 1537.67],[8052.24, 1588.95],[8067.54, 1400.93],[8068.44, 1490.89],[8076.53, 1307.37],[8077.43, 1231.8],[8133.21, 1626.73],[8139.5, 1452.2],[8144, 1551.16],[8145.8, 1363.14],[8158.4, 1203.91],[8159.3, 1269.58]]},"properties":{"objectType":"annotation","color":[230, 179, 77]}},{"type":"Feature","id":"536f386b-51a7-4f68-8466-115632dc9f6d","geometry":{"type":"Polygon","coordinates":[[[7052.96, 473.14],[7052.96, 984.25],[7564.08, 984.25],[7564.08, 473.14],[7052.96, 473.14]]]},"properties":{"objectType":"annotation","classification":{"name":"dense_grown","color":[1, 92, 196]}}},{"type":"Feature","id":"8f921d2c-baea-4abc-8602-c0549c68280d","geometry":{"type":"MultiPoint","coordinates":[[7072.88, 682.28],[7084.85, 525.64],[7090.83, 909.75],[7103.8, 774.06],[7118.77, 595.48],[7125.75, 972.61],[7141.72, 837.92],[7155.68, 681.28],[7168.65, 532.62],[7173.64, 909.75],[7192.6, 757.1],[7205.57, 610.44],[7229.51, 845.9],[7245.48, 698.24],[7255.45, 543.6],[7280.4, 624.41],[7283.39, 904.76],[7315.32, 850.89],[7328.29, 693.25],[7343.25, 544.59],[7373.18, 779.05],[7374.18, 921.72],[7389.15, 619.42],[7402.12, 849.89],[7414.09, 715.2],[7435.04, 558.56],[7444.02, 788.03],[7448.01, 942.68],[7467.96, 640.37],[7496.9, 716.2],[7507.87, 865.85],[7512.86, 560.56],[7531.82, 949.66],[7547.78, 789.03]]},"properties":{"objectType":"annotation","color":[230, 179, 77]}}]}