{"type":"FeatureCollection","features":[{"type":"Feature","id":"b9a017fd-061d-429e-acc8-efb10710fb82","geometry":{"type":"Polygon","coordinates":[[[0, 1845.84],[0, 2356.93],[504.78, 2356.93],[504.78, 1845.84],[0, 1845.84]]]},"properties":{"objectType":"annotation","classification":{"name":"dense_grown","color":[1, 92, 196]}}},{"type":"Feature","id":"3194cbee-996f-44f3-b651-7dc60c4cc3f6","geometry":{"type":"Polygon","coordinates":[[[-0.48, 1198.34],[-0.48, 1709.43],[510.68, 1709.43],[510.68, 1198.34],[-0.48, 1198.34]]]},"properties":{"objectType":"annotation","classification":{"name":"dense_grown","color":[1, 92, 196]}}},{"type":"Feature","id":"88de5172-aec6-4cec-aa29-4414833c7a0a","geometry":{"type":"MultiPoint","coordinates":[[29.36, 1685.92],[33.79, 1501.14],[33.79, 1589.65],[39.32, 1405.98],[45.96, 1240.01],[47.06, 1307.5],[96.85, 1474.58],[104.6, 1550.93],[106.81, 1652.72],[117.88, 1380.53],[122.3, 1290.91],[178.73, 1684.81],[187.59, 1605.14],[188.69, 1403.77],[196.44, 1325.21],[197.54, 1505.56],[200.86, 1241.12],[247.33, 1649.4],[253.97, 1467.94],[257.29, 1549.82],[258.4, 1371.68],[324.79, 1604.04],[335.85, 1511.09],[344.7, 1327.42],[344.7, 1408.19],[359.09, 1235.58],[416.63, 1564.21],[418.84, 1470.16],[421.05, 1390.49],[421.05, 1657.15],[425.48, 1289.8],[483.01, 1612.89]]},"properties":{"objectType":"annotation","color":[230, 179, 77]}},{"type":"Feature","id":"220b2cf8-8bdf-4aaf-8ae8-7f6c61dfc547","geometry":{"type":"Polygon","coordinates":[[[167.45, 1311.22],[167.45, 1822.31],[678.62, 1822.31],[678.62, 1311.22],[167.45, 1311.22]]]},"properties":{"objectType":"annotation","classification":{"name":"dense_grown","color":[1, 92, 196]}}},{"type":"Feature","id":"c8dfea9b-62cc-4426-8cae-c55a44abf5bd","geometry":{"type":"MultiPoint","coordinates":[[77.19, 2174.03],[82.18, 2083.24],[100.14, 1812.87],[100.14, 1912.64],[101.14, 1996.44],[103.13, 1736.04],[161, 2139.11],[162.99, 1965.51],[166.98, 2049.32],[167.98, 1786.93],[168.98, 1876.72],[233.83, 1919.62],[244.8, 1835.81],[246.8, 1742.03],[246.8, 1996.44],[254.78, 2084.24],[314.64, 2034.35],[315.64, 1959.53],[315.64, 2142.11],[318.63, 1874.72],[333.6, 1796.9],[393.46, 1919.62],[394.46, 2083.24],[396.45, 1987.46],[396.45, 2169.04],[397.45, 1733.05],[409.42, 1833.82],[465.29, 1971.5],[467.29, 1891.68],[473.28, 2042.34],[480.26, 1788.92],[480.26, 2139.11]]},"properties":{"objectType":"annotation","color":[230, 179, 77]}},{"type":"Feature","id":"b65b0d9d-bbd5-47d1-8aa9-56b52dd95594","geometry":{"type":"Polygon","coordinates":[[[2.51, 1677.35],[2.51, 2188.45],[513.67, 2188.45],[513.67, 1677.35],[2.51, 1677.35]]]},"properties":{"objectType":"annotation","classification":{"name":"dense_grown","color":[1, 92, 196]}}},{"type":"Feature","id":"8625054e-8c32-476a-9a46-cd9458ab550e","geometry":{"type":"MultiPoint","coordinates":[[187.54, 1514.5],[200.51, 1400.76],[242.42, 1737.98],[243.42, 1660.16],[259.38, 1559.4],[264.37, 1474.59],[266.36, 1362.85],[328.22, 1780.89],[329.22, 1603.3],[333.21, 1698.08],[341.19, 1504.52],[343.18, 1405.75],[344.18, 1338.91],[398.06, 1742.97],[413.02, 1663.16],[415.02, 1580.35],[420.01, 1364.85],[424, 1472.6],[467.9, 1788.87],[488.85, 1508.51],[490.84, 1696.08],[494.83, 1603.3],[498.83, 1426.7],[507.8, 1332.92],[555.69, 1563.39],[555.69, 1754.95],[561.68, 1648.19],[577.64, 1476.59],[580.64, 1376.82],[629.52, 1593.32],[640.5, 1785.87],[642.49, 1512.51],[643.88, 1695.14],[646.48, 1425.71]]},"properties":{"objectType":"annotation","color":[230, 179, 77]}},{"type":"Feature","id":"7c1fa3e9-0d49-4d33-9a4b-f58e9b638893","geometry":{"type":"Polygon","coordinates":[[[188.64, 1753.86],[188.64, 2264.95],[699.81, 2264.95],[699.81, 1753.86],[188.64, 1753.86]]]},"properties":{"objectType":"annotation","classification":{"name":"dense_grown","color":[1, 92, 196]}}},{"type":"Feature","id":"ffc7a476-e84c-4593-b32d-8a109241afd6","geometry":{"type":"MultiPoint","coordinates":[[235.25, 2090.72],[240.24, 1983.96],[244.23, 1832.31],[246.22, 2181.51],[261.19, 1905.15],[310.08, 1876.21],[313.07, 1782.43],[315.07, 2210.44],[322.05, 2134.62],[330.03, 2049.81],[336.02, 1952.04],[372.93, 2181.51],[389.89, 2078.74],[391.89, 1913.13],[393.88, 1988.95],[397.87, 1823.33],[447.76, 2150.58],[458.73, 2233.39],[474.7, 2072.76],[480.68, 1781.43],[481.68, 1873.22],[481.68, 1975.98],[545.53, 2090.72],[551.52, 1920.11],[553.51, 2175.52],[555.51, 2011.9],[559.5, 1834.31],[612.38, 2246.36],[621.36, 2140.6],[622.36, 2037.84],[625.35, 1970.99],[634.33, 1869.23],[657.28, 1776.44]]},"properties":{"objectType":"annotation","color":[230, 179, 77]}},{"type":"Feature","id":"cf1f06ca-4ed1-4f67-ae51-d489f2cf63d0","geometry":{"type":"MultiPoint","coordinates":[[18.42, 2295.26],[83.18, 2170.85],[88.17, 1978.29],[89.16, 2071.08],[92.16, 1898.48],[94.15, 2255.65],[157.01, 2232.71],[161, 2132.94],[163.99, 2044.14],[168.98, 1954.35],[173.97, 1881.52],[230.84, 2276.6],[232.83, 1917.43],[235.82, 2091.03],[242.81, 2016.21],[246.8, 2175.84],[299.68, 2132.94],[313.64, 1954.35],[314.64, 2236.7],[315.64, 2038.16],[316.64, 2308.53],[317.64, 1878.52],[391.47, 2239.69],[392.46, 2009.22],[393.46, 2077.07],[401.44, 1909.45],[404.44, 2171.85],[451.33, 2232.71],[463.3, 2055.12],[465.29, 1976.3],[465.29, 2148.9],[467.29, 1885.51]]},"properties":{"objectType":"annotation","color":[230, 179, 77]}}]}