{"type":"FeatureCollection","features":[{"type":"Feature","id":"4f797083-ba2d-48a4-867e-c18e7d6d8887","geometry":{"type":"Polygon","coordinates":[[[7359.07, 227.43],[7359.07, 739.07],[7870.68, 739.07],[7870.68, 227.43],[7359.07, 227.43]]]},"properties":{"objectType":"annotation","classification":{"name":"dense_grown","color":[1, 92, 196]}}},{"type":"Feature","id":"4d79ae4c-0eb4-40c8-ba86-b2274d83a8e8","geometry":{"type":"Polygon","coordinates":[[[7076.64, 152.26],[7076.64, 663.89],[7588.25, 663.89],[7588.25, 152.26],[7076.64, 152.26]]]},"properties":{"objectType":"annotation","classification":{"name":"dense_grown","color":[1, 92, 196]}}},{"type":"Feature","id":"b08d7bd7-b031-4088-970e-7740b1306cbf","geometry":{"type":"MultiPoint","coordinates":[[7089.59, 489.94],[7095.58, 395.16],[7102.56, 310.36],[7107.55, 231.54],[7150.45, 613.65],[7157.43, 537.83],[7168.41, 440.06],[7173.4, 274.44],[7189.36, 351.26],[7196.34, 178.66],[7218.29, 588.71],[7237.25, 489.94],[7259.2, 326.32],[7261.19, 232.53],[7271.17, 401.15],[7290.13, 628.62],[7307.09, 463],[7316.07, 544.81],[7325.05, 374.21],[7347.99, 281.42],[7359.97, 178.66],[7375.93, 594.7],[7386.9, 424.09],[7390.89, 506.9],[7403.86, 249.5],[7403.86, 333.3],[7447.76, 641.59],[7464.72, 467.99],[7474.7, 298.38],[7479.69, 385.18],[7481.69, 211.58],[7540.55, 606.67],[7546.54, 516.88],[7555.51, 451.03],[7556.51, 353.26],[7561.5, 263.46],[7570.48, 177.66]]},"properties":{"objectType":"annotation","color":[230, 179, 77]}},{"type":"Feature","id":"cbe6f56a-bc47-4e8c-b6e0-9f082e606c1f","geometry":{"type":"MultiPoint","coordinates":[[7380.92, 692.47],[7382.91, 507.9],[7384.91, 591.71],[7396.88, 437.06],[7397.88, 358.24],[7399.87, 255.48],[7451.75, 639.59],[7466.72, 388.18],[7474.7, 473.98],[7486.67, 296.39],[7525.58, 697.46],[7526.58, 610.66],[7541.55, 449.03],[7552.52, 355.25],[7555.51, 528.85],[7568.48, 263.46],[7608.39, 570.75],[7615.38, 649.57],[7621.36, 313.35],[7624.36, 391.17],[7630.34, 465],[7676.24, 700.45],[7685.21, 538.83],[7687.21, 616.65],[7695.19, 365.23],[7696.19, 437.06],[7704.17, 265.46],[7748.07, 670.52],[7755.05, 490.94],[7761.04, 580.73],[7779, 416.11],[7781.99, 317.34],[7787.98, 245.5],[7829.88, 531.84],[7830.88, 699.46],[7836.86, 631.61],[7842.85, 457.02],[7843.85, 379.2],[7855.82, 282.42]]},"properties":{"objectType":"annotation","color":[230, 179, 77]}}]}