{"type":"FeatureCollection","features":[{"type":"Feature","id":"0a2352c7-2676-4806-a35e-76e64de9c0ea","geometry":{"type":"Polygon","coordinates":[[[4641.18, 260.27],[4641.18, 771.22],[5152.14, 771.22],[5152.14, 260.27],[4641.18, 260.27]]]},"properties":{"objectType":"annotation","classification":{"name":"2","color":[186, 153, 157]}}},{"type":"Feature","id":"7ccbc02a-e06f-4341-9d07-bdcd88b5d603","geometry":{"type":"Polygon","coordinates":[[[5283.22, 313.51],[5283.22, 824.47],[5794.17, 824.47],[5794.17, 313.51],[5283.22, 313.51]]]},"properties":{"objectType":"annotation","classification":{"name":"2","color":[186, 153, 157]}}},{"type":"Feature","id":"410ad620-c47b-4bce-a4ae-3e239f59a177","geometry":{"type":"Polygon","coordinates":[[[5936.94, 180.33],[5936.94, 691.29],[6447.9, 691.29],[6447.9, 180.33],[5936.94, 180.33]]]},"properties":{"objectType":"annotation","classification":{"name":"2","color":[186, 153, 157]}}},{"type":"Feature","id":"abeaec38-955b-48d5-973c-58df99ab4e03","geometry":{"type":"Polygon","coordinates":[[[5223.11, 2088.9],[5223.11, 2599.85],[5734.06, 2599.85],[5734.06, 2088.9],[5223.11, 2088.9]]]},"properties":{"objectType":"annotation","classification":{"name":"2","color":[186, 153, 157]}}},{"type":"Feature","id":"d5badd9c-1239-444f-ba54-9337db5b1b89","geometry":{"type":"Polygon","coordinates":[[[30.91, 3433.91],[30.91, 3944.87],[541.86, 3944.87],[541.86, 3433.91],[30.91, 3433.91]]]},"properties":{"objectType":"annotation","classification":{"name":"2","color":[186, 153, 157]}}},{"type":"Feature","id":"3ce65884-181b-4854-946b-f67a2015b554","geometry":{"type":"Polygon","coordinates":[[[459.21, 3711.93],[459.21, 4222.89],[970.17, 4222.89],[970.17, 3711.93],[459.21, 3711.93]]]},"properties":{"objectType":"annotation","classification":{"name":"2","color":[186, 153, 157]}}},{"type":"Feature","id":"d5492142-20d8-4060-9b00-57ca5840afff","geometry":{"type":"Polygon","coordinates":[[[1105.42, 3802.1],[1105.42, 4283],[1616.37, 4283],[1616.37, 3802.1],[1105.42, 3802.1]]]},"properties":{"objectType":"annotation","classification":{"name":"2","color":[186, 153, 157]}}},{"type":"Feature","id":"bd51dae6-1aac-4012-85a3-f08924552af2","geometry":{"type":"Polygon","coordinates":[[[1684, 841.57],[1684, 1352.52],[2194.95, 1352.52],[2194.95, 841.57],[1684, 841.57]]]},"properties":{"objectType":"annotation","classification":{"name":"2","color":[186, 153, 157]}}},{"type":"Feature","id":"a977a934-ee3e-4a2d-9744-472b90d8977e","geometry":{"type":"Polygon","coordinates":[[[2360.26, 766.43],[2360.26, 1277.38],[2871.22, 1277.38],[2871.22, 766.43],[2360.26, 766.43]]]},"properties":{"objectType":"annotation","classification":{"name":"2","color":[186, 153, 157]}}},{"type":"Feature","id":"4f500d24-c23c-4053-8eac-fbe86da79844","geometry":{"type":"Polygon","coordinates":[[[2536.84, 135.26],[2536.84, 646.21],[3047.8, 646.21],[3047.8, 135.26],[2536.84, 135.26]]]},"properties":{"objectType":"annotation","classification":{"name":"2","color":[186, 153, 157]}}},{"type":"Feature","id":"26ecfc46-ac4a-411b-a038-f1aebaec331a","geometry":{"type":"Polygon","coordinates":[[[1988.32, 3396.35],[1988.32, 3907.3],[2499.27, 3907.3],[2499.27, 3396.35],[1988.32, 3396.35]]]},"properties":{"objectType":"annotation","classification":{"name":"2","color":[186, 153, 157]}}},{"type":"Feature","id":"ad25f74d-8ec3-4c47-b1cf-21afb8467a97","geometry":{"type":"Polygon","coordinates":[[[2581.93, 3336.23],[2581.93, 3847.19],[3092.88, 3847.19],[3092.88, 3336.23],[2581.93, 3336.23]]]},"properties":{"objectType":"annotation","classification":{"name":"2","color":[186, 153, 157]}}},{"type":"Feature","id":"258dcfe4-85f4-408e-b45c-e01a427cd985","geometry":{"type":"Polygon","coordinates":[[[42.18, 2547.26],[42.18, 3058.22],[553.14, 3058.22],[553.14, 2547.26],[42.18, 2547.26]]]},"properties":{"objectType":"annotation","classification":{"name":"2","color":[186, 153, 157]}}},{"type":"Feature","id":"0b67298d-5684-46c0-927a-6097a6ed2d81","geometry":{"type":"Polygon","coordinates":[[[79.75, 1412.64],[79.75, 1923.6],[590.71, 1923.6],[590.71, 1412.64],[79.75, 1412.64]]]},"properties":{"objectType":"annotation","classification":{"name":"2","color":[186, 153, 157]}}},{"type":"Feature","id":"086b14af-94f8-462e-a237-8d9b425a58ea","geometry":{"type":"Polygon","coordinates":[[[169.92, 1540.38],[169.92, 2051.33],[680.87, 2051.33],[680.87, 1540.38],[169.92, 1540.38]]]},"properties":{"objectType":"annotation","classification":{"name":"2","color":[186, 153, 157]}}},{"type":"Feature","id":"5081304e-27b0-4d67-8011-ec06f83b4b25","geometry":{"type":"Polygon","coordinates":[[[1041.55, 1592.98],[1041.55, 2103.93],[1552.5, 2103.93],[1552.5, 1592.98],[1041.55, 1592.98]]]},"properties":{"objectType":"annotation","classification":{"name":"2","color":[186, 153, 157]}}},{"type":"Feature","id":"8f612679-5dfa-421c-97b3-ced5e3e93077","geometry":{"type":"Polygon","coordinates":[[[3981.63, 1251.59],[3981.63, 1762.54],[4492.59, 1762.54],[4492.59, 1251.59],[3981.63, 1251.59]]]},"properties":{"objectType":"annotation","classification":{"name":"2","color":[186, 153, 157]}}},{"type":"Feature","id":"d911fa62-1d3c-45a0-aaf8-496ebd08c5f8","geometry":{"type":"Polygon","coordinates":[[[3284.58, 1977.07],[3284.58, 2488.03],[3795.53, 2488.03],[3795.53, 1977.07],[3284.58, 1977.07]]]},"properties":{"objectType":"annotation","classification":{"name":"2","color":[186, 153, 157]}}},{"type":"Feature","id":"46092bad-1f91-4053-9f93-733273ee4c30","geometry":{"type":"Polygon","coordinates":[[[6231.61, 852.38],[6231.61, 1363.34],[6742.57, 1363.34],[6742.57, 852.38],[6231.61, 852.38]]]},"properties":{"objectType":"annotation","classification":{"name":"2","color":[186, 153, 157]}}},{"type":"Feature","id":"91c91e0e-e99f-4bd6-84bf-8994d166a57c","geometry":{"type":"Polygon","coordinates":[[[6687.27, 919.61],[6687.27, 1430.57],[7198.22, 1430.57],[7198.22, 919.61],[6687.27, 919.61]]]},"properties":{"objectType":"annotation","classification":{"name":"2","color":[186, 153, 157]}}},{"type":"Feature","id":"f78d49d7-fe78-46bb-b3d3-76a3ef6947af","geometry":{"type":"Polygon","coordinates":[[[5534.93, 3732.97],[5534.93, 4243.93],[6045.89, 4243.93],[6045.89, 3732.97],[5534.93, 3732.97]]]},"properties":{"objectType":"annotation","classification":{"name":"1","color":[186, 103, 31]}}},{"type":"Feature","id":"1b32cf05-085a-48a6-8cb5-d04516ee1b96","geometry":{"type":"Polygon","coordinates":[[[4363.28, 3501.16],[4363.28, 4012.12],[4874.24, 4012.12],[4874.24, 3501.16],[4363.28, 3501.16]]]},"properties":{"objectType":"annotation","classification":{"name":"1","color":[186, 103, 31]}}},{"type":"Feature","id":"ca48000a-bf4e-4422-ac7b-31e9ed3ec00a","geometry":{"type":"Polygon","coordinates":[[[4956.65, 1412.29],[4956.65, 1923.24],[5467.61, 1923.24],[5467.61, 1412.29],[4956.65, 1412.29]]]},"properties":{"objectType":"annotation","classification":{"name":"1","color":[186, 103, 31]}}},{"type":"Feature","id":"a1e7e86c-f6cd-4ffc-a0ae-f5355210b2a1","geometry":{"type":"Polygon","coordinates":[[[5512.39, 1478.76],[5512.39, 1989.72],[6023.35, 1989.72],[6023.35, 1478.76],[5512.39, 1478.76]]]},"properties":{"objectType":"annotation","classification":{"name":"1","color":[186, 103, 31]}}},{"type":"Feature","id":"737931a5-094e-44bf-8981-478934492afe","geometry":{"type":"Polygon","coordinates":[[[6075.94, 1583.96],[6075.94, 2094.91],[6586.9, 2094.91],[6586.9, 1583.96],[6075.94, 1583.96]]]},"properties":{"objectType":"annotation","classification":{"name":"1","color":[186, 103, 31]}}},{"type":"Feature","id":"9a72dd35-6425-44d1-aa32-ce38049fbe68","geometry":{"type":"Polygon","coordinates":[[[6609.44, 1659.1],[6609.44, 2170.05],[7120.4, 2170.05],[7120.4, 1659.1],[6609.44, 1659.1]]]},"properties":{"objectType":"annotation","classification":{"name":"1","color":[186, 103, 31]}}},{"type":"Feature","id":"f7592f9d-fcca-4c4c-abfa-92cfa0959d24","geometry":{"type":"Polygon","coordinates":[[[7210.56, 1816.89],[7210.56, 2327.85],[7721.52, 2327.85],[7721.52, 1816.89],[7210.56, 1816.89]]]},"properties":{"objectType":"annotation","classification":{"name":"1","color":[186, 103, 31]}}},{"type":"Feature","id":"84cfb1ea-9d05-411e-a48d-56a6c7af78f1","geometry":{"type":"Polygon","coordinates":[[[7593.78, 1861.98],[7593.78, 2372.93],[8104.73, 2372.93],[8104.73, 1861.98],[7593.78, 1861.98]]]},"properties":{"objectType":"annotation","classification":{"name":"1","color":[186, 103, 31]}}},{"type":"Feature","id":"30862ad3-dbef-493c-9db7-a6547f96d858","geometry":{"type":"Polygon","coordinates":[[[4929.31, 3641.29],[4929.31, 4152.25],[5440.26, 4152.25],[5440.26, 3641.29],[4929.31, 3641.29]]]},"properties":{"objectType":"annotation","classification":{"name":"1","color":[186, 103, 31]}}},{"type":"Feature","id":"0a6c86d8-537d-4103-aebd-c5216d8c9b9f","geometry":{"type":"Polygon","coordinates":[[[2561.31, 2384.8],[2561.31, 2895.76],[3072.27, 2895.76],[3072.27, 2384.8],[2561.31, 2384.8]]]},"properties":{"objectType":"annotation","classification":{"name":"1","color":[186, 103, 31]}}},{"type":"Feature","id":"a1323f60-9709-4cf2-b950-a0cac3e9f88f","geometry":{"type":"Polygon","coordinates":[[[3949.39, 2144.02],[3949.39, 2654.97],[4460.34, 2654.97],[4460.34, 2144.02],[3949.39, 2144.02]]]},"properties":{"objectType":"annotation","classification":{"name":"2","color":[186, 153, 157]}}},{"type":"Feature","id":"b5fc4500-63af-41c7-a22c-ca15f8f7ff67","geometry":{"type":"Polygon","coordinates":[[[5460.65, 14.64],[5460.65, 525.59],[5971.61, 525.59],[5971.61, 14.64],[5460.65, 14.64]]]},"properties":{"objectType":"annotation","classification":{"name":"2","color":[186, 153, 157]}}},{"type":"Feature","id":"c68bc6f0-8300-4da7-b5d2-31a171470d1e","geometry":{"type":"Polygon","coordinates":[[[4909.46, 14.64],[4909.46, 525.59],[5420.41, 525.59],[5420.41, 14.64],[4909.46, 14.64]]]},"properties":{"objectType":"annotation","classification":{"name":"2","color":[186, 153, 157]}}},{"type":"Feature","id":"31f3805d-c6b1-4aee-88aa-94849cbd7103","geometry":{"type":"Polygon","coordinates":[[[6414.17, 191.66],[6414.17, 702.62],[6925.13, 702.62],[6925.13, 191.66],[6414.17, 191.66]]]},"properties":{"objectType":"annotation","classification":{"name":"2","color":[186, 153, 157]}}},{"type":"Feature","id":"0220c660-b0fb-40fc-96d4-b57b5acf941f","geometry":{"type":"Polygon","coordinates":[[[7620.44, 345.28],[7620.44, 856.23],[8131.4, 856.23],[8131.4, 345.28],[7620.44, 345.28]]]},"properties":{"objectType":"annotation","classification":{"name":"2","color":[186, 153, 157]}}},{"type":"Feature","id":"107ab5bf-07c6-4bee-a838-8e3937ff38f4","geometry":{"type":"MultiPoint","coordinates":[[7637.4, 421.78],[7648.2, 614.3],[7656.3, 370.5],[7656.3, 578.31],[7667.99, 778.93],[7675.19, 525.24],[7676.99, 712.35],[7682.38, 465.86],[7685.08, 433.47],[7690.48, 669.17],[7696.78, 371.4],[7701.28, 625.99],[7705.77, 827.51],[7712.97, 564.82],[7717.47, 777.13],[7724.67, 722.25],[7728.26, 515.34],[7732.76, 472.16],[7739.06, 429.88],[7740.86, 670.97],[7748.96, 374.1],[7751.65, 616.1],[7757.05, 837.4],[7770.55, 581.01],[7770.55, 770.83],[7773.25, 526.13],[7780.44, 487.45],[7780.44, 724.95],[7786.74, 679.07],[7802.03, 429.88],[7806.53, 624.19],[7808.33, 370.5],[7811.93, 841.9],[7816.43, 563.02],[7829.92, 778.93],[7830.82, 516.24],[7831.72, 731.25],[7842.52, 467.66],[7847.01, 685.37],[7857.81, 416.38],[7860.51, 623.29],[7866.81, 371.4],[7866.81, 581.91],[7876.7, 796.92],[7881.2, 753.74],[7882.1, 522.54],[7896.49, 477.56],[7900.09, 692.56],[7904.59, 419.08],[7909.09, 640.39],[7916.28, 803.22],[7922.58, 370.5],[7930.68, 587.31],[7936.08, 748.34],[7938.77, 529.73],[7949.57, 465.86],[7960.36, 695.26],[7962.16, 421.78],[7963.96, 622.39],[7972.96, 800.52],[7974.76, 370.5],[7980.16, 563.02],[7990.05, 517.14],[7993.65, 745.64],[8002.65, 698.86],[8005.35, 467.66],[8015.24, 643.98],[8020.64, 424.48],[8024.24, 591.81],[8027.84, 360.61],[8030.53, 814.91],[8046.73, 520.74],[8048.53, 769.93],[8062.02, 481.15],[8062.02, 703.36],[8072.82, 416.38],[8074.62, 646.68],[8087.21, 597.2],[8088.11, 367.8],[8092.61, 828.41],[8094.41, 545.93],[8099.81, 761.83],[8106.1, 726.75],[8107.9, 498.25],[8117.8, 441.57]]},"properties":{"objectType":"annotation"}},{"type":"Feature","id":"b9332463-89e7-4402-9c81-ac0cb6871abf","geometry":{"type":"MultiPoint","coordinates":[[7612.98, 2104.19],[7613.98, 2302.73],[7620.96, 1915.63],[7639.92, 2236.88],[7644.91, 2052.31],[7647.9, 2171.04],[7650.89, 2355.61],[7657.88, 2001.43],[7663.86, 2105.19],[7664.86, 2304.73],[7685.81, 1936.58],[7692.8, 2253.84],[7695.19, 1884.63],[7696.79, 2052.31],[7706.77, 2186],[7707.76, 1999.43],[7719.73, 2317.7],[7729.71, 1953.54],[7729.71, 2136.12],[7744.68, 1883.7],[7745.68, 2209.95],[7746.67, 2072.26],[7750.43, 2288.73],[7761.64, 2024.37],[7773.95, 2336.59],[7777.6, 1953.54],[7783.59, 2092.22],[7784.59, 2133.12],[7801.55, 1901.66],[7813.52, 2213.94],[7816.51, 2017.39],[7830.48, 2109.18],[7831.48, 2328.67],[7837.46, 2160.06],[7844.86, 2283.86],[7858.42, 1902.66],[7864.4, 1936.58],[7866.4, 2216.93],[7867.39, 2310.71],[7880.36, 2040.34],[7890.34, 1978.48],[7900.32, 2360.6],[7902.31, 2190.99],[7903.31, 2101.2],[7912.29, 2296.75],[7916.28, 1916.62],[7926.26, 2038.34],[7926.26, 2244.86],[7937.23, 1992.45],[7949.21, 2365.59],[7951.2, 2183.01],[7959.18, 2284.77],[7959.57, 2134.45],[7971.15, 1965.51],[7974.66, 2321.6],[7982.13, 1918.62],[7995.1, 2237.88],[7996.1, 1888.69],[7997.09, 2056.3],[8003.08, 2180.01],[8014.06, 2129.13],[8018.05, 2011.4],[8021.04, 2325.68],[8025.03, 1951.54],[8040.99, 1896.67],[8043.99, 2059.29],[8045.98, 2251.85],[8054.65, 2154.07],[8058.95, 2014.4],[8078.91, 2268.81],[8082.9, 1936.58],[8083.33, 2129.92],[8090.31, 2360.93]]},"properties":{"objectType":"annotation","color":[0, 255, 255]}},{"type":"Feature","id":"e1d18acf-5714-4810-b20a-d795fcf6a56c","geometry":{"type":"MultiPoint","coordinates":[[6704.14, 1306.47],[6713.87, 1249.69],[6721.17, 1178.31],[6721.98, 1120.71],[6739.02, 1008.77],[6739.83, 1356.77],[6742.26, 1418.42],[6747.13, 1064.74],[6752.81, 1295.12],[6759.3, 969.84],[6767.41, 1233.47],[6775.52, 1173.44],[6786.06, 1135.32],[6793.37, 1385.16],[6796.61, 1097.19],[6797.42, 1329.19],[6815.27, 967.4],[6816.08, 1025.81],[6820.13, 1258.61],[6828.25, 1192.1],[6833.92, 1136.13],[6848.53, 1394.08],[6849.34, 1026.62],[6849.34, 1080.97],[6857.45, 1325.94],[6868.8, 933.33],[6872.05, 990.12],[6876.1, 1265.91],[6881.78, 1203.45],[6896.38, 1161.27],[6896.66, 1414.29],[6898.01, 1055.01],[6898.82, 1098],[6901.57, 1348.03],[6908.55, 999.85],[6908.93, 1298.94],[6917.52, 1251.08],[6922.34, 953.61],[6939.61, 1172.55],[6948.2, 1129.6],[6950.65, 1086.65],[6953.11, 1411.83],[6955.56, 1028.98],[6976.42, 1324.71],[6980.1, 971.3],[6982.56, 1269.49],[6989.92, 1235.13],[6997.28, 1064.56],[7005.87, 1129.6],[7014.46, 1016.71],[7024.28, 1367.66],[7025.51, 1248.63],[7026.73, 960.26],[7030.41, 1308.76],[7039, 1200.77],[7053.73, 1143.1],[7062.32, 1082.97],[7073.36, 1372.57],[7075.82, 1318.57],[7078.27, 965.17],[7078.27, 1011.8],[7089.32, 1257.22],[7095.45, 1204.45],[7107.72, 1146.78],[7116.31, 1087.88],[7122.45, 1040.02],[7122.45, 1351.71],[7131.04, 1300.17],[7140.85, 984.8],[7146.99, 1204.45],[7148.22, 1268.26],[7166.62, 1100.15],[7167.23, 1045.13],[7169.08, 1160.28],[7194.85, 1360.3]]},"properties":{"objectType":"annotation"}},{"type":"Feature","id":"481b4863-1c9b-4936-95eb-739386b4ca93","geometry":{"type":"MultiPoint","coordinates":[[6243.28, 994.79],[6254.63, 1298.98],[6273.29, 943.69],[6283.03, 876.36],[6283.03, 1094.56],[6290.33, 1324.94],[6297.63, 1174.87],[6302.49, 1270.59],[6308.17, 988.3],[6309.79, 1025.61],[6316.28, 934.76],[6327.64, 1087.26],[6328.45, 880.41],[6344.68, 1265.72],[6347.92, 1165.95],[6359.28, 1027.24],[6365.77, 1106.73],[6367.39, 1331.43],[6369.01, 1070.23],[6377.12, 1273.83],[6377.93, 925.03],[6379.56, 965.59],[6386.04, 1172.44],[6389.29, 865.81],[6389.29, 1230.03],[6410.38, 1111.6],[6415.25, 1007.77],[6428.23, 959.1],[6442.02, 1324.94],[6450.13, 923.41],[6450.13, 1262.48],[6453.37, 1166.76],[6454.99, 1218.67],[6457.43, 869.06],[6467.16, 1120.52],[6472.03, 1053.19],[6483.39, 1343.59],[6491.5, 1294.92],[6492.31, 971.27],[6493.12, 1250.31],[6500.42, 1201.64],[6501.23, 872.3],[6506.1, 1140.8],[6527.19, 1085.64],[6536.11, 1036.16],[6540.98, 1327.37],[6543.41, 990.73],[6543.41, 1265.72],[6545.85, 941.25],[6549.9, 883.66],[6553.96, 1178.93],[6553.96, 1226.79],[6568.56, 1112.41],[6574.24, 1077.53],[6586.4, 1036.16],[6592.08, 1307.09],[6592.89, 985.06],[6596.95, 1251.93],[6599.38, 933.95],[6609.12, 876.36],[6615.61, 1115.66],[6618.04, 1174.06],[6635.89, 1066.17],[6638.32, 1008.58],[6639.13, 1348.46],[6653.73, 926.65],[6656.17, 969.64],[6657.79, 1223.54],[6658.6, 1294.11],[6660.22, 877.98],[6682.12, 1111.6],[6687.8, 1162.7],[6688.61, 1005.34],[6695.91, 1058.87],[6704.02, 1301.41],[6705.65, 1251.12],[6712.14, 904.75],[6720.25, 1118.09],[6724.3, 1184.6]]},"properties":{"objectType":"annotation"}},{"type":"Feature","id":"7ab1d3bb-b489-4fbe-a1b6-0856de1d621c","geometry":{"type":"MultiPoint","coordinates":[[2549.46, 283.65],[2550.36, 213.48],[2556.65, 249.47],[2570.15, 155.01],[2576.75, 567],[2580, 615.67],[2584.87, 535.37],[2589.73, 429.1],[2591.35, 399.09],[2595.41, 371.51],[2597.03, 292.01],[2601.9, 326.08],[2603.52, 247.4],[2608.39, 180.88],[2618.93, 620.54],[2621.37, 565.38],[2635.16, 529.69],[2636.78, 493.18],[2640.02, 415.31],[2644.89, 466.42],[2646.51, 348.8],[2646.51, 384.49],[2648.14, 317.97],[2653.81, 268.49],[2661.12, 180.07],[2670.04, 223.06],[2670.04, 587.28],[2675.72, 614.05],[2683.83, 533.74],[2684.21, 499.85],[2691.13, 438.03],[2694.37, 369.08],[2696.81, 394.22],[2701.67, 323.65],[2708.16, 250.64],[2708.97, 189.81],[2723.58, 613.24],[2733.31, 569.44],[2735.74, 360.96],[2739.8, 470.47],[2743.04, 220.63],[2743.04, 532.93],[2743.86, 318.78],[2743.86, 506.97],[2749.53, 391.79],[2750.34, 292.82],[2758.46, 265.25],[2762.51, 154.11],[2762.51, 184.13],[2781.98, 499.67],[2782.79, 618.11],[2783.6, 532.12],[2784.41, 578.36],[2790.9, 468.04],[2792.53, 360.96],[2796.58, 395.84],[2800.64, 289.58],[2802.26, 325.27],[2807.13, 249.02],[2810.37, 221.44],[2811.18, 157.36],[2811.18, 188.99],[2827.41, 609.18],[2828.22, 476.15],[2832.27, 575.11],[2833.08, 439.65],[2833.9, 499.67],[2835.52, 356.91],[2835.52, 540.23],[2852.55, 394.22],[2855.8, 329.33],[2857.42, 254.7],[2858.23, 283.09],[2862.29, 188.18],[2863.91, 154.93],[2863.91, 227.12],[2878.72, 617.41],[2881.42, 557.14],[2885.91, 513.95],[2890.41, 365.52],[2894.91, 468.07],[2900.31, 404.2],[2901.21, 262.96],[2901.21, 296.25],[2903.01, 325.03],[2904.8, 196.39],[2907.5, 225.18],[2919.2, 146.91],[2933.59, 565.23],[2933.59, 592.22],[2936.29, 473.47],[2938.09, 519.35],[2938.99, 351.12],[2940.79, 440.19],[2947.09, 406.9],[2953.38, 211.68],[2954.28, 300.75],[2959.68, 261.16],[2965.08, 147.81],[2979.47, 577.83],[2982.17, 634.5],[2988.47, 433.89],[2993.87, 340.33],[3000.16, 294.45],[3000.16, 377.21],[3010.06, 228.78],[3010.96, 154.11],[3010.96, 263.86],[3011.86, 190.99],[3031.65, 607.51],[3035.25, 538.24]]},"properties":{"objectType":"annotation"}},{"type":"Feature","id":"169102e5-6bf3-4fba-a679-362431f86c98","geometry":{"type":"MultiPoint","coordinates":[[1702.49, 895.34],[1707.89, 966.41],[1711.49, 1062.67],[1712.39, 1017.68],[1720.48, 1123.84],[1741.17, 1285.77],[1742.97, 1170.62],[1752.87, 1241.69],[1758.27, 890.84],[1762.77, 1014.99],[1763.67, 1337.05],[1766.36, 965.51],[1778.06, 1112.14],[1780.76, 1047.37],[1788.85, 1170.62],[1807.75, 1229.99],[1810.45, 1279.47],[1814.04, 1337.95],[1814.94, 940.32],[1818.54, 884.54],[1818.54, 997.89],[1823.94, 1059.07],[1836.53, 1170.62],[1839.23, 1102.25],[1847.33, 1233.59],[1864.42, 863.85],[1864.42, 913.33],[1864.42, 1329.85],[1870.72, 970.01],[1875.22, 1023.98],[1891.41, 1065.36],[1895.01, 1110.35],[1899.51, 1241.69],[1900.41, 1176.02],[1904, 1298.36],[1919.3, 871.05],[1922, 928.62],[1939.09, 992.5],[1941.79, 1144.53],[1944.49, 1043.77],[1945.39, 1090.55],[1957.08, 1196.71],[1957.98, 1243.49],[1967.88, 1301.96],[1980.47, 908.83],[1980.47, 955.61],[1987.67, 1033.88],[1988.57, 988.9],[1996.67, 1140.03],[1999.36, 1091.45],[2005.66, 1197.61],[2008.36, 1272.28],[2014.66, 1323.55],[2026.35, 958.31],[2031.75, 915.13],[2047.94, 1010.49],[2047.94, 1087.85],[2058.74, 1126.54],[2058.74, 1231.79],[2062.34, 1178.72],[2074.03, 1332.55],[2084.83, 947.52],[2087.53, 893.54],[2095.62, 1016.79],[2099.22, 1082.46],[2113.61, 1172.42],[2114.51, 1292.97],[2124.41, 1237.19],[2131.61, 901.63],[2139.7, 954.71],[2150.5, 1008.69],[2156.8, 1053.67],[2161.29, 1222.8],[2165.79, 1119.34],[2178.39, 1291.17]]},"properties":{"objectType":"annotation"}},{"type":"Feature","id":"976ccd53-702e-4c13-bde2-c3385947127b","geometry":{"type":"MultiPoint","coordinates":[[2369.47, 961.21],[2376.05, 1018.99],[2378.98, 1073.11],[2384.83, 1120.66],[2384.83, 1174.78],[2391.74, 793.37],[2412.6, 862.09],[2412.6, 925.9],[2412.62, 972.91],[2421.4, 1048.98],[2427.98, 1100.18],[2433.83, 1144.79],[2438.22, 1194.53],[2449.19, 1257.43],[2457.97, 855.88],[2460.17, 811.26],[2468.87, 1006.73],[2471.51, 936.82],[2476.99, 1051.17],[2480.65, 1091.4],[2488.69, 1206.23],[2490.89, 1145.53],[2501.86, 1255.97],[2507.71, 782.74],[2520.14, 876.36],[2523.07, 1062.87],[2527.46, 1020.45],[2528.92, 956.82],[2536.23, 1125.05],[2547.21, 1177.71],[2549.4, 1243.54],[2569.88, 809.8],[2575.73, 915.86],[2577.19, 866.85],[2581.58, 959.74],[2581.58, 1074.58],[2586.7, 1137.48],[2587.43, 1004.36],[2597.67, 1192.34],[2600.6, 1260.36],[2620.35, 823.7],[2624.74, 931.22],[2625.47, 876.36],[2637.17, 1040.2],[2640.1, 991.93],[2646.68, 1163.81],[2649.61, 1100.91],[2654.73, 1206.23],[2662.04, 1253.78],[2668.62, 821.5],[2678.13, 923.17],[2681.06, 869.78],[2683.25, 991.93],[2689.1, 1028.5],[2696.42, 1103.83],[2700.07, 1155.77],[2708.12, 1209.89],[2708.85, 1267.67],[2736.65, 878.55],[2738.84, 934.14],[2743.23, 1070.19],[2744.69, 998.51],[2754.79, 1119.97],[2760.78, 1166.01],[2761.51, 1220.86],[2768.1, 1253.78],[2772.49, 787.86],[2778.34, 854.42],[2787.85, 915.13],[2792.97, 971.45],[2796.62, 1028.5],[2802.47, 1130.9],[2811.98, 1212.82],[2813.45, 1161.62],[2838.31, 873.43],[2838.31, 1049.71],[2847.09, 934.14],[2850.02, 990.46],[2851.48, 1155.03]]},"properties":{"objectType":"annotation"}},{"type":"Feature","id":"1712afee-896f-4064-8dba-e47da4cb06e7","geometry":{"type":"MultiPoint","coordinates":[[1051.39, 1823.73],[1070.05, 1959.2],[1074.91, 1766.95],[1081.4, 2031.39],[1087.89, 1648.52],[1108.98, 1821.3],[1122.77, 1707.74],[1123.58, 1772.63],[1124.39, 1921.08],[1136.56, 2058.16],[1143.05, 1637.16],[1166.58, 1878.08],[1169.82, 1770.2],[1169.82, 1969.75],[1177.93, 2005.44],[1178.74, 1706.11],[1185.23, 1630.68],[1188.48, 2083.31],[1219.3, 1963.26],[1221.73, 1784.8],[1225.79, 1691.51],[1226.6, 2096.29],[1231.47, 1744.24],[1233.09, 1874.03],[1234.71, 1821.3],[1241.2, 1635.54],[1256.62, 2051.67],[1268.78, 1916.21],[1269.59, 1698.81],[1276.08, 1750.73],[1276.08, 1956.77],[1279.33, 1792.1],[1279.33, 2008.68],[1280.14, 1831.04],[1285.01, 1655.82],[1291.5, 2093.04],[1318.26, 2015.98],[1327.19, 1965.69],[1328, 1702.87],[1328, 1913.77],[1329.62, 1788.04],[1330.43, 1878.08],[1332.87, 1839.15],[1335.3, 1740.99],[1345.03, 1661.5],[1353.15, 2080.07],[1366.94, 1749.11],[1382.35, 1793.72],[1385.59, 1839.96],[1386.4, 1885.38],[1394.52, 1965.69],[1395.33, 1921.08],[1399.38, 2011.12],[1400.19, 2064.65],[1412.36, 1659.88],[1431.02, 1814],[1431.83, 1723.15],[1432.64, 1766.95],[1435.88, 1844.01],[1436.7, 1880.52],[1445.62, 1934.05],[1449.67, 1998.14],[1461.03, 1655.82],[1482.93, 1766.95],[1488.61, 1909.72],[1490.23, 1806.7],[1491.04, 1713.41],[1491.91, 2003.9],[1495.1, 1852.13],[1497.91, 2064.88],[1504.83, 1636.35],[1529.17, 1778.31],[1539.72, 1720.72],[1540.09, 2042.98]]},"properties":{"objectType":"annotation"}},{"type":"Feature","id":"55941960-4902-4cc2-9705-c1a55324b937","geometry":{"type":"MultiPoint","coordinates":[[4000.16, 1469.2],[4010.13, 1696.68],[4016.12, 1416.32],[4017.12, 1269.66],[4018.11, 1618.86],[4028.09, 1361.45],[4035.08, 1308.57],[4042.06, 1739.58],[4045.05, 1533.05],[4062.01, 1684.7],[4063.01, 1476.19],[4064.01, 1431.29],[4073.99, 1627.84],[4081.97, 1370.43],[4090.95, 1586.93],[4091.94, 1304.58],[4103.92, 1527.07],[4111.9, 1711.64],[4122.87, 1461.22],[4122.87, 1654.77],[4127.86, 1422.31],[4140.83, 1371.43],[4148.81, 1317.55],[4158.79, 1544.03],[4158.79, 1727.6],[4166.77, 1497.14],[4182.73, 1285.63],[4183.73, 1433.28],[4185.73, 1587.93],[4191.71, 1633.82],[4196.7, 1326.53],[4199.7, 1541.04],[4210.67, 1497.14],[4213.66, 1734.59],[4218.65, 1455.23],[4232.62, 1653.78],[4236.61, 1409.34],[4241.6, 1291.61],[4250.58, 1601.9],[4255.57, 1352.47],[4275.52, 1712.64],[4277.52, 1456.23],[4291.48, 1413.33],[4292.48, 1311.57],[4300.46, 1635.82],[4309.44, 1358.46],[4319.42, 1533.05],[4325.41, 1735.59],[4330.39, 1278.64],[4332.39, 1695.68],[4342.37, 1646.79],[4343.36, 1418.32],[4344.36, 1586.93],[4348.35, 1449.25],[4358.33, 1314.56],[4365.31, 1350.48],[4367.31, 1275.65],[4379.28, 1572.96],[4385.27, 1727.6],[4390.26, 1510.11],[4403.23, 1465.21],[4408.21, 1313.56],[4408.21, 1680.71],[4410.21, 1428.3],[4419.19, 1618.86],[4424.18, 1364.44],[4428.17, 1280.64],[4430.16, 1555],[4441.14, 1487.16],[4448.12, 1704.66],[4459.1, 1400.36],[4460.09, 1451.24],[4470.07, 1612.87],[4470.07, 1652.78],[4477.06, 1555],[4480.05, 1275.65]]},"properties":{"objectType":"annotation"}},{"type":"Feature","id":"3be24e68-5a99-4624-8752-4bc00009af14","geometry":{"type":"MultiPoint","coordinates":[[3302.14, 2253.59],[3304.13, 2003.17],[3304.13, 2426.19],[3305.13, 2211.69],[3318.1, 2172.78],[3327.08, 2474.08],[3337.06, 2307.47],[3350.03, 2349.37],[3355.01, 2263.57],[3356.01, 2056.05],[3365.99, 2207.7],[3370.98, 2003.17],[3371.98, 2392.27],[3377.96, 2164.8],[3389.93, 2106.93],[3403.9, 2291.5],[3404.9, 2447.14],[3408.89, 2336.4],[3412.88, 2040.08],[3413.88, 2226.65],[3431.84, 2186.74],[3431.84, 2420.21],[3432.83, 2000.18],[3439.82, 2135.86],[3446.8, 2311.46],[3453.79, 2363.34],[3455.78, 2097.95],[3465.76, 2266.56],[3468.75, 2044.07],[3474.74, 2218.67],[3474.74, 2459.12],[3490.7, 2171.78],[3493.69, 2385.29],[3508.66, 2335.4],[3513.65, 2106.93],[3515.64, 2278.53],[3522.63, 2249.6],[3529.61, 2036.09],[3531.61, 2209.69],[3541.58, 2410.23],[3555.55, 2174.77],[3565.53, 2113.91],[3567.52, 2305.47],[3582.49, 2061.03],[3583.49, 2258.58],[3583.49, 2464.1],[3589.47, 2016.14],[3596.46, 2214.68],[3602.44, 2376.31],[3602.44, 2417.21],[3607.43, 2170.78],[3610.43, 2342.39],[3618.41, 2125.89],[3629.38, 2295.49],[3635.37, 2066.02],[3648.34, 2209.69],[3648.34, 2477.07],[3650.33, 2418.21],[3653.33, 1991.2],[3664.3, 2164.8],[3667.29, 2381.3],[3674.28, 2340.39],[3680.26, 2123.89],[3685.25, 2084.98],[3690.24, 2293.5],[3696.23, 2232.64],[3700.22, 2471.09],[3704.21, 2038.09],[3714.19, 2420.21],[3723.16, 2379.3],[3725.16, 2160.8],[3735.14, 2120.9],[3741.12, 2328.42],[3742.12, 2291.5],[3748.11, 2078],[3758.08, 2249.6],[3764.07, 2009.15],[3768.06, 2213.68],[3774.05, 2431.18],[3778.04, 2159.81],[3781.03, 2381.3]]},"properties":{"objectType":"annotation"}},{"type":"Feature","id":"0eaf9e9d-da63-43f6-8b65-b087911b3044","geometry":{"type":"MultiPoint","coordinates":[[3959.51, 2362],[3975, 2311.1],[3975, 2581.08],[3990.49, 2259.1],[3993.81, 2504.73],[3996.02, 2231.44],[4001.55, 2182.75],[4003.77, 2456.05],[4011.78, 2421.98],[4019.26, 2603.21],[4022.58, 2331.02],[4028.11, 2378.6],[4033.64, 2553.42],[4038.07, 2284.55],[4040.28, 2508.05],[4052.45, 2252.46],[4053.56, 2208.2],[4060.2, 2646.36],[4061.3, 2437.24],[4070.16, 2381.92],[4072.37, 2167.26],[4082.33, 2595.46],[4083.43, 2555.63],[4095.6, 2334.34],[4100.03, 2509.16],[4108.88, 2474.86],[4111.1, 2284.55],[4114.41, 2251.35],[4117.73, 2212.63],[4122.16, 2422.85],[4129.91, 2623.13],[4137.65, 2379.7],[4144.29, 2342.08],[4149.82, 2564.48],[4157.57, 2297.82],[4163.1, 2488.14],[4170.84, 2255.78],[4171.95, 2441.67],[4187.44, 2396.3],[4188.55, 2196.03],[4196.29, 2633.08],[4201.83, 2327.7],[4201.83, 2597.68],[4210.68, 2279.01],[4214, 2544.57],[4220.64, 2504.73],[4230.59, 2197.13],[4230.59, 2453.84],[4233.91, 2241.39],[4241.66, 2412.9],[4253.83, 2608.74],[4254.94, 2365.32],[4260.47, 2324.38],[4269.32, 2557.84],[4279.28, 2512.48],[4282.6, 2274.59],[4283.71, 2235.86],[4290.34, 2468.22],[4306.94, 2402.94],[4310.26, 2639.72],[4318.01, 2342.08],[4319.11, 2588.83],[4331.28, 2544.57],[4334.6, 2290.08],[4341.24, 2510.27],[4346.77, 2215.94],[4355.63, 2467.11],[4362.26, 2425.07],[4366.69, 2604.32],[4371.12, 2643.04],[4378.86, 2377.49],[4386.61, 2325.49],[4386.61, 2554.53],[4398.78, 2509.16],[4400.99, 2280.12],[4415.38, 2423.96],[4416.48, 2460.48],[4418.69, 2230.33],[4420.91, 2646.36],[4425.33, 2171.69],[4428.65, 2603.21],[4429.76, 2381.92],[4435.29, 2345.4],[4438.61, 2568.91],[4443.04, 2297.82]]},"properties":{"objectType":"annotation"}},{"type":"Feature","id":"21c95e3f-2a83-4080-8c85-9f1da823872a","geometry":{"type":"MultiPoint","coordinates":[[47.46, 3512.85],[51.45, 3722.36],[52.44, 3779.23],[65.41, 3659.51],[73.4, 3617.61],[87.36, 3590.67],[89.36, 3906.94],[92.35, 3844.08],[94.35, 3534.8],[96.34, 3500.88],[115.3, 3705.4],[115.3, 3765.27],[129.27, 3647.54],[143.23, 3570.71],[145.23, 3526.82],[155.21, 3902.95],[157.2, 3788.21],[158.2, 3491.9],[158.2, 3850.07],[176.16, 3705.4],[191.12, 3632.57],[192.12, 3868.03],[202.1, 3539.79],[204.09, 3819.14],[209.08, 3917.91],[210.08, 3483.92],[213.07, 3774.24],[231.03, 3720.37],[236.02, 3650.53],[238.02, 3889.98],[242.01, 3605.63],[251.98, 3823.13],[259.97, 3553.75],[267.95, 3493.89],[273.93, 3687.45],[282.91, 3736.33],[287.9, 3632.57],[289.9, 3911.93],[301.87, 3854.06],[315.84, 3525.82],[319.83, 3751.3],[319.83, 3794.2],[327.81, 3461.97],[338.78, 3685.45],[341.78, 3634.57],[341.78, 3916.92],[360.73, 3531.8],[360.73, 3584.68],[366.72, 3800.19],[370.71, 3487.91],[375.7, 3757.28],[387.67, 3700.42],[390.66, 3646.54],[394.65, 3903.95],[411.62, 3854.06],[412.61, 3605.63],[417.6, 3790.21],[422.59, 3745.31],[424.59, 3541.78],[431.57, 3482.92],[441.55, 3685.45],[456.51, 3877.01],[458.51, 3925.89],[459.5, 3626.59],[467.49, 3582.69],[475.47, 3822.13],[476.47, 3518.83],[481.45, 3763.27],[489.44, 3474.94],[499.41, 3716.38],[505.4, 3657.51],[513.38, 3899.95],[517.37, 3576.7],[525.35, 3613.62],[531.34, 3842.09],[532.34, 3785.22]]},"properties":{"objectType":"annotation"}},{"type":"Feature","id":"b4c87214-320d-43fd-a26a-356f2d0bbc9e","geometry":{"type":"MultiPoint","coordinates":[[473.47, 3836.07],[474.8, 4067.2],[475.5, 4122.95],[487.05, 3763.62],[495.75, 4184.93],[496.75, 4005.34],[499.74, 3956.45],[511.2, 3884.36],[524.78, 3801.35],[527.67, 4133.05],[527.8, 3849.65],[530.67, 4086.15],[536.65, 4201.89],[539.65, 4044.25],[548.93, 3736.46],[549.62, 3961.44],[555.61, 3914.55],[571.57, 3873.64],[573.57, 4135.04],[579.55, 3807.8],[580.55, 3842.72],[587.54, 3762.9],[595.52, 4071.19],[597.51, 4024.3],[605.49, 3926.52],[611.48, 3974.41],[625.45, 4157.99],[626.45, 3867.66],[631.43, 4101.12],[643.41, 3810.79],[644.4, 3759.91],[656.38, 3948.47],[657.37, 4041.26],[659.37, 4006.34],[670.34, 3895.59],[678.33, 4165.97],[686.31, 4098.13],[693.29, 3793.83],[695.29, 3732.97],[715.24, 3941.49],[715.24, 4027.29],[729.21, 3829.75],[732.2, 3886.61],[733.2, 4176.94],[745.17, 4125.06],[747.17, 3788.84],[747.17, 4065.2],[749.16, 3742.95],[773.11, 3952.46],[783.08, 4188.92],[797.05, 3855.69],[802.04, 4119.08],[806.03, 3799.81],[814.01, 4009.33],[824.99, 3740.95],[829.98, 3950.47],[831.97, 3890.61],[837.96, 4180.94],[851.93, 4129.05],[853.92, 3846.71],[856.91, 3786.84],[858.91, 4024.3],[863.9, 4073.18],[881.86, 3974.41],[884.85, 3912.55],[885.85, 4181.93],[900.81, 4113.09],[902.81, 3878.63],[904.8, 3824.76],[909.79, 4064.2],[916.78, 3769.88],[926.14, 4001.67],[937.73, 3956.45],[947.7, 4201.89],[948.7, 3889.61],[955.69, 4140.03]]},"properties":{"objectType":"annotation"}},{"type":"Feature","id":"c538ad71-d1c0-41bd-9e59-b74713c043c9","geometry":{"type":"MultiPoint","coordinates":[[2006.07, 3550.37],[2020.45, 3476.23],[2024.88, 3838.05],[2027.09, 3413.16],[2030.41, 3788.26],[2032.62, 3727.4],[2053.64, 3670.97],[2054.75, 3646.63],[2063.6, 3532.66],[2064.71, 3568.07],[2080.2, 3855.75],[2081.31, 3420.91],[2085.73, 3466.27],[2086.84, 3773.87],[2089.05, 3808.17],[2100.12, 3729.61],[2106.76, 3642.2],[2115.61, 3587.99],[2115.61, 3679.82],[2123.35, 3894.48],[2126.67, 3539.3],[2133.31, 3448.57],[2135.52, 3493.94],[2137.74, 3820.35],[2153.23, 3772.77],[2156.55, 3720.76],[2164.29, 3628.93],[2165.4, 3673.18],[2177.57, 3865.71],[2182, 3495.04],[2183.1, 3535.98],[2196.38, 3794.9],[2198.59, 3431.97],[2210.76, 3707.49],[2211.87, 3653.27],[2217.4, 3609.01],[2226.25, 3570.28],[2241.75, 3467.38],[2248.38, 3512.75],[2256.13, 3420.91],[2258.34, 3860.18],[2264.98, 3812.6],[2272.73, 3770.55],[2280.47, 3715.23],[2287.11, 3625.61],[2287.11, 3659.91],[2292.64, 3580.24],[2295.96, 3880.09],[2303.71, 3500.57],[2303.71, 3842.47],[2305.92, 3459.64],[2322.52, 3739.57],[2338.01, 3616.75],[2340.22, 3708.59],[2354.61, 3655.48],[2355.71, 3562.54],[2362.35, 3885.63],[2364.56, 3435.29],[2370.1, 3516.07],[2374.52, 3784.94],[2381.16, 3747.32],[2381.16, 3832.52],[2393.33, 3621.18],[2403.29, 3580.24],[2403.29, 3690.89],[2414.35, 3530.45],[2420.99, 3828.09],[2425.42, 3433.08],[2425.42, 3780.51],[2426.53, 3882.31],[2434.27, 3485.08],[2447.55, 3743.31],[2448.66, 3707.49],[2450.87, 3605.69],[2465.25, 3648.84],[2469.68, 3564.75],[2477.77, 3515.53],[2487.38, 3890.05],[2488.44, 3832.35]]},"properties":{"objectType":"annotation"}},{"type":"Feature","id":"1d15cfe1-9884-4c08-9164-be07f985c3f1","geometry":{"type":"MultiPoint","coordinates":[[1120.63, 3840.91],[1124.23, 4136.88],[1135.92, 4093.7],[1144.92, 4036.12],[1145.82, 3982.15],[1147.62, 4224.14],[1152.12, 4262.83],[1156.61, 3875.99],[1159.31, 4181.86],[1162.91, 3931.77],[1175.51, 4117.99],[1180.9, 4082.9],[1199.79, 3959.66],[1199.79, 4004.64],[1199.79, 4269.12],[1206.99, 4226.84],[1218.69, 3856.2],[1218.69, 4180.06],[1235.78, 4054.12],[1236.68, 4113.49],[1256.47, 4001.04],[1270.86, 3852.6],[1270.86, 4168.37],[1273.56, 3906.58],[1279.86, 4226.84],[1283.46, 4116.19],[1287.06, 4062.21],[1305.05, 4010.04],[1314.95, 4257.43],[1318.54, 3909.28],[1324.84, 3962.36],[1329.34, 3858.9],[1337.44, 4086.5],[1337.44, 4136.88],[1352.73, 4028.93],[1359.93, 3993.84],[1364.42, 4234.94],[1365.32, 3874.19],[1383.32, 3948.86],[1384.22, 3817.52],[1389.61, 4190.86],[1392.31, 4077.51],[1399.51, 4129.68],[1404.01, 4029.83],[1424.7, 4237.64],[1431.9, 4193.56],[1439.99, 4154.87],[1451.69, 3822.02],[1451.69, 3878.69],[1451.69, 4103.6],[1463.38, 4041.52],[1464.28, 3998.34],[1472.38, 3939.87],[1476.88, 4237.64],[1484.97, 4177.36],[1489.47, 3840.01],[1501.17, 4150.38],[1509.26, 4084.7],[1515.56, 4033.43],[1522.76, 3985.75],[1531.75, 3934.47],[1531.75, 4230.44],[1552.44, 3878.69],[1556.04, 4171.07],[1562.34, 3825.61],[1569.54, 4074.81],[1574.93, 4272.72],[1576.73, 3969.55],[1581.23, 4020.83],[1594.73, 4205.25],[1601.02, 3855.3],[1601.02, 4150.38]]},"properties":{"objectType":"annotation"}},{"type":"Feature","id":"bde784ba-1eb6-4bb1-98b9-36dff6121996","geometry":{"type":"MultiPoint","coordinates":[[5234.83, 2366.01],[5239.82, 2539.61],[5249.8, 2491.72],[5255.79, 2288.19],[5260.77, 2452.81],[5271.75, 2240.3],[5278.73, 2407.91],[5284.72, 2372],[5288.71, 2188.42],[5293.7, 2318.12],[5294.7, 2127.56],[5311.66, 2272.23],[5312.66, 2566.55],[5314.65, 2512.67],[5326.62, 2227.33],[5333.61, 2463.78],[5341.59, 2421.88],[5344.58, 2381.97],[5350.57, 2142.53],[5360.54, 2302.16],[5369.52, 2529.63],[5380.5, 2248.28],[5388.48, 2428.87],[5388.48, 2472.76],[5409.43, 2175.45],[5409.43, 2383.97],[5410.43, 2341.07],[5414.42, 2305.15],[5416.42, 2122.57],[5416.42, 2539.61],[5435.37, 2261.25],[5439.36, 2218.35],[5449.34, 2123.57],[5451.33, 2452.81],[5457.32, 2407.91],[5462.31, 2168.47],[5472.29, 2324.11],[5482.26, 2371],[5486.25, 2543.6],[5495.23, 2489.72],[5500.22, 2285.2],[5505.21, 2113.59],[5514.19, 2429.86],[5520.18, 2192.41],[5527.16, 2398.93],[5536.14, 2349.05],[5538.13, 2140.53],[5544.12, 2554.57],[5552.1, 2301.16],[5553.1, 2262.25],[5560.08, 2472.76],[5560.08, 2507.68],[5573.05, 2217.35],[5580.04, 2172.46],[5582.03, 2372.99],[5582.03, 2422.88],[5587.02, 2559.56],[5593.01, 2121.57],[5608.97, 2482.74],[5608.97, 2519.66],[5610.97, 2274.22],[5612.96, 2323.11],[5624.93, 2234.31],[5628.93, 2420.88],[5639.9, 2385.96],[5644.89, 2188.42],[5656.86, 2131.55],[5656.86, 2548.59],[5658.86, 2345.06],[5665.84, 2302.16],[5674.82, 2493.72],[5680.81, 2248.28],[5684.8, 2438.84],[5693.78, 2203.39],[5701.76, 2163.48],[5708.74, 2381.97],[5718.89, 2579.98],[5727.46, 2521.94]]},"properties":{"objectType":"annotation"}},{"type":"Feature","id":"d8f4ff35-a822-4f7d-838c-8bf7aa8a6215","geometry":{"type":"MultiPoint","coordinates":[[2598.56, 3493.69],[2606.31, 3453.85],[2609.62, 3812.35],[2614.05, 3723.83],[2625.12, 3762.56],[2626.22, 3677.36],[2628.43, 3362.02],[2643.93, 3530.2],[2647.24, 3493.69],[2649.46, 3591.06],[2657.2, 3822.31],[2663.84, 3454.96],[2678.23, 3776.94],[2679.33, 3402.96],[2689.29, 3716.09],[2691.5, 3625.36],[2693.72, 3675.15],[2699.25, 3583.31],[2700.36, 3542.37],[2704.78, 3836.69],[2708.1, 3490.37],[2710.31, 3450.53],[2721.38, 3363.12],[2723.59, 3400.74],[2735.76, 3653.02],[2736.87, 3791.33],[2744.61, 3703.92],[2757.89, 3520.24],[2757.89, 3563.39],[2764.53, 3469.34],[2767.85, 3426.19],[2776.7, 3782.48],[2777.81, 3386.36],[2777.81, 3830.05],[2787.77, 3716.09],[2803.26, 3626.46],[2811, 3584.42],[2818.75, 3502.54],[2828.71, 3452.75],[2839.77, 3824.52],[2840.88, 3359.8],[2845.3, 3768.09],[2846.41, 3720.51],[2859.69, 3672.94],[2863.01, 3588.84],[2870.75, 3488.15],[2870.75, 3530.2],[2887.35, 3441.68],[2890.67, 3835.59],[2896.2, 3788.01],[2902.84, 3346.53],[2906.16, 3676.25],[2909.48, 3599.91],[2909.48, 3731.58],[2912.8, 3637.53],[2916.12, 3558.97],[2922.76, 3505.86],[2938.25, 3416.23],[2941.57, 3459.39],[2947.1, 3719.41],[2947.1, 3809.03],[2968.12, 3658.55],[2978.08, 3623.14],[2979.19, 3576.67],[2981.4, 3764.77],[2998, 3370.87],[2998, 3453.85],[2998, 3491.47],[3003.53, 3672.94],[3003.53, 3721.62],[3017.91, 3828.95],[3027.87, 3638.63],[3028.98, 3601.01],[3042.26, 3550.12],[3050, 3836.69],[3054.43, 3439.47],[3062.17, 3785.8],[3073.24, 3745.96],[3076.56, 3493.69]]},"properties":{"objectType":"annotation"}},{"type":"Feature","id":"29ecd882-6780-4a2b-87d5-e4d5340522b5","geometry":{"type":"MultiPoint","coordinates":[[4656.08, 692.44],[4661.61, 398.11],[4668.25, 657.03],[4673.78, 357.18],[4673.78, 570.72],[4676, 609.45],[4684.85, 294.11],[4692.59, 526.47],[4703.66, 481.1],[4706.98, 440.16],[4711.4, 391.48],[4711.4, 741.12],[4718.04, 655.92],[4719.15, 710.14],[4724.68, 352.75],[4724.68, 608.34],[4729.11, 311.81],[4737.96, 565.19],[4745.7, 530.89],[4760.09, 441.27],[4761.19, 483.31],[4761.19, 748.87],[4767.83, 713.46],[4776.69, 395.9],[4778.9, 666.99],[4780, 306.28],[4782.22, 345],[4788.86, 609.45],[4797.71, 570.72],[4803.24, 515.4],[4808.77, 481.1],[4823.16, 385.94],[4823.16, 427.99],[4827.58, 696.86],[4835.33, 288.57],[4838.65, 335.05],[4840.86, 651.5],[4845.29, 605.03],[4849.71, 554.13],[4861.88, 505.44],[4865.2, 461.18],[4868.52, 737.8],[4876.27, 423.56],[4877.37, 684.69],[4886.23, 653.71],[4887.33, 373.77],[4889.55, 316.24],[4902.82, 595.07],[4910.57, 551.91],[4916.1, 513.19],[4921.63, 472.25],[4932.7, 415.82],[4934.91, 730.06],[4940.44, 363.81],[4940.44, 691.33],[4948.19, 319.56],[4948.19, 629.37],[4950.4, 276.4],[4955.93, 586.22],[4963.68, 544.17],[4969.21, 504.34],[4972.53, 456.76],[4988.02, 699.08],[4990.23, 413.61],[4996.87, 368.24],[4997.98, 744.44],[5001.3, 310.7],[5013.47, 644.86],[5015.68, 557.45],[5016.79, 601.71],[5021.22, 520.93],[5028.96, 471.14],[5037.81, 427.99],[5043.34, 711.25],[5046.66, 747.76],[5053.3, 390.37],[5056.62, 349.43],[5058.84, 664.77],[5062.15, 612.77],[5064.37, 308.49],[5072.11, 566.3],[5084.28, 499.91],[5084.28, 529.78],[5085.39, 452.33],[5095.35, 401.43],[5104.2, 749.97],[5105.31, 715.67],[5110.84, 352.75],[5110.84, 671.41],[5123.01, 305.17],[5124.12, 590.64],[5124.12, 637.11],[5131.86, 549.7]]},"properties":{"objectType":"annotation"}},{"type":"Feature","id":"f9f08209-4268-447a-8d9e-29a5dc1cf648","geometry":{"type":"MultiPoint","coordinates":[[186.57, 1568.58],[192.87, 1856.46],[194.66, 1814.18],[206.36, 1770.99],[223.45, 1999.5],[224.35, 1623.46],[224.35, 1666.64],[224.35, 1718.82],[235.15, 1936.52],[237.85, 1892.44],[244.14, 1586.57],[244.14, 1858.26],[262.14, 1756.6],[263.93, 1810.58],[268.43, 1708.02],[268.43, 1970.71],[278.33, 2027.38],[281.03, 1625.26],[282.83, 1671.14],[291.82, 1585.67],[291.82, 1920.33],[298.12, 1885.24],[302.62, 1783.59],[304.42, 1830.37],[329.61, 1719.72],[333.2, 2013.89],[341.3, 1688.23],[343.1, 1626.16],[344, 1977.01],[347.6, 1588.37],[351.2, 1931.13],[356.59, 1881.65],[362.89, 1836.67],[367.39, 1784.49],[382.68, 1722.41],[391.68, 1681.93],[393.48, 1995.9],[394.38, 2039.08],[399.78, 1626.16],[399.78, 1950.92],[402.48, 1569.48],[408.77, 1907.74],[415.97, 1853.76],[432.16, 1802.48],[438.46, 1698.13],[440.26, 1662.14],[447.46, 1618.06],[449.26, 1754.8],[453.75, 2021.99],[454.65, 1568.58],[460.95, 1930.23],[469.05, 1868.15],[469.05, 1969.81],[478.04, 1819.57],[486.14, 1771.89],[489.74, 1720.62],[503.23, 1662.14],[505.93, 1609.06],[510.43, 1995],[514.93, 1559.58],[520.32, 1944.62],[523.92, 1899.64],[531.12, 1849.26],[549.11, 1791.69],[550.01, 1696.33],[550.91, 1750.3],[558.11, 1652.24],[559.91, 2021.09],[560.81, 1604.57],[565.31, 1975.21],[575.2, 1555.99],[575.2, 1933.82],[589.59, 1878.05],[591.39, 1833.07],[594.09, 1785.39],[594.99, 1737.71],[609.39, 1599.17],[612.09, 1650.45],[615.68, 1707.12],[620.18, 2014.79],[623.78, 1968.01],[624.68, 1555.09],[633.68, 1921.23],[635.48, 1869.05],[654.37, 1828.57],[655.27, 1670.24],[655.27, 1775.49]]},"properties":{"objectType":"annotation"}},{"type":"Feature","id":"f4972ed7-2900-4da8-988a-56680078a623","geometry":{"type":"MultiPoint","coordinates":[[97.74, 1745.97],[108.29, 1457.19],[109.1, 1705.41],[120.46, 1605.64],[122.08, 1917.13],[123.7, 1569.94],[125.32, 1658.36],[134.25, 1526.14],[138.3, 1475.85],[138.3, 1866.02],[145.6, 1829.52],[147.22, 1741.91],[151.28, 1441.78],[155.34, 1693.24],[159.39, 1790.58],[169.94, 1655.12],[173.99, 1616.99],[177.24, 1575.62],[178.86, 1900.09],[182.1, 1531.82],[190.22, 1481.53],[197.52, 1840.07],[199.95, 1440.16],[204.82, 1808.43],[213.74, 1759.76],[221.04, 1716.77],[221.85, 1666.47],[234.02, 1897.66],[234.83, 1624.29],[242.94, 1548.85],[246.19, 1852.23],[248.62, 1590.22],[254.3, 1812.49],[259.98, 1508.3],[260.79, 1694.87],[266.47, 1761.38],[269.71, 1447.46],[274.58, 1672.96],[277.01, 1631.59],[294.05, 1590.22],[298.91, 1492.07],[301.35, 1542.36],[307.84, 1449.89],[308.65, 1876.57],[309.46, 1780.85],[313.51, 1825.46],[337.04, 1721.63],[337.85, 1589.41],[340.28, 1678.64],[349.21, 1543.18],[352.45, 1501.81],[353.26, 1447.46],[354.07, 1638.89],[358.13, 1879.81],[369.49, 1785.72],[369.49, 1828.71],[380.84, 1737.05],[390.58, 1686.75],[393.82, 1639.71],[403.55, 1899.28],[413.29, 1569.94],[414.1, 1526.14],[418.16, 1843.31],[419.78, 1473.41],[426.27, 1796.26],[431.95, 1741.91],[436.81, 1705.41],[444.11, 1626.73],[444.11, 1669.72],[456.28, 1561.02],[470.88, 1452.32],[471.69, 1866.02],[472.5, 1514.78],[474.13, 1825.46],[483.05, 1774.36],[488.73, 1714.33],[500.08, 1614.56],[505.76, 1659.98],[513.87, 1556.15],[524.42, 1516.41],[532.53, 1913.07],[534.15, 1449.89],[535.78, 1838.44],[548.75, 1793.02],[551.19, 1743.54],[554.43, 1690],[561.73, 1556.15],[566.6, 1647.01],[569.03, 1608.07]]},"properties":{"objectType":"annotation"}},{"type":"Feature","id":"dd830d73-a42f-4d6c-8702-aaf1fde8c6f8","geometry":{"type":"MultiPoint","coordinates":[[59.57, 2977.29],[61.56, 2824.64],[64.86, 2596.21],[77.53, 2766.77],[78.53, 2710.9],[78.53, 2886.5],[94.49, 3045.13],[101.47, 2577.21],[104.47, 2996.25],[107.46, 2654.04],[117.44, 2955.34],[120.43, 2622.11],[128.41, 2786.73],[145.37, 2731.86],[158.34, 2837.61],[162.33, 3051.12],[166.32, 2892.48],[168.32, 2596.17],[169.32, 2780.74],[185.28, 2844.6],[186.28, 2930.4],[187.27, 2647.05],[193.26, 2685.96],[207.23, 2801.69],[213.21, 2755.8],[223.19, 3047.13],[226.18, 3010.21],[228.18, 2676.98],[231.17, 2617.12],[231.17, 2958.33],[255.12, 2882.51],[259.11, 2778.75],[262.1, 2693.94],[268.09, 2561.25],[273.08, 2743.19],[286.69, 3042.58],[288.04, 3000.24],[290.04, 2637.07],[299.02, 2941.37],[306, 2806.68],[310.99, 2885.5],[319.97, 2588.19],[330.94, 2697.93],[330.94, 2760.79],[347.9, 3011.21],[352.89, 2966.31],[353.89, 2824.64],[360.87, 2913.44],[362.87, 2871.53],[369.85, 2657.03],[375.84, 2607.14],[378.83, 2574.22],[391.8, 2754.8],[394.8, 2710.9],[405.77, 3041.14],[406.77, 2993.25],[418.74, 2646.05],[418.74, 2856.57],[418.74, 2950.35],[423.73, 2812.67],[455.66, 2695.94],[456.65, 2622.11],[463.64, 2757.8],[465.63, 2938.38],[469.62, 3012.21],[470.62, 2896.48],[489.46, 2860.22],[491.57, 2663.01],[495.56, 2826.64],[501.55, 2579.21],[507.54, 2781.74],[508.53, 3022.19],[511.53, 2733.85],[515.52, 2623.11],[522.5, 2969.31],[526.49, 2916.43],[533.01, 2872.47]]},"properties":{"objectType":"annotation"}},{"type":"Feature","id":"dff90789-cf7b-489a-8df4-3f0d58abd173","geometry":{"type":"Polygon","coordinates":[[[618.54, 3034.62],[618.54, 3545.58],[1129.49, 3545.58],[1129.49, 3034.62],[618.54, 3034.62]]]},"properties":{"objectType":"annotation","classification":{"name":"2","color":[186, 153, 157]}}},{"type":"Feature","id":"a0f0136a-d2fa-4111-b6ce-1eab9ac1252a","geometry":{"type":"MultiPoint","coordinates":[[45.3, 2648.54],[636.34, 3381.73],[637.24, 3521.17],[638.14, 3238.69],[648.94, 3196.41],[662.43, 3158.63],[667.83, 3128.04],[673.23, 3301.66],[682.23, 3264.78],[686.72, 3071.36],[686.72, 3219.8],[690.32, 3482.49],[690.32, 3541.86],[692.12, 3437.51],[697.52, 3404.22],[703.82, 3192.81],[713.71, 3361.04],[717.31, 3326.85],[718.21, 3108.25],[731.7, 3254.88],[738, 3178.42],[743.4, 3436.61],[747, 3345.75],[747.9, 3394.32],[752.4, 3130.74],[761.39, 3270.18],[776.68, 3215.3],[776.68, 3464.49],[780.28, 3160.43],[780.28, 3514.87],[784.78, 3111.85],[785.68, 3408.72],[792.88, 3360.14],[795.58, 3275.58],[800.97, 3324.15],[813.57, 3249.49],[819.87, 3208.1],[822.57, 3059.67],[825.26, 3514.87],[826.16, 3139.73],[828.86, 3442],[832.46, 3096.55],[833.36, 3169.42],[836.06, 3367.34],[836.06, 3398.82],[843.26, 3322.36],[854.05, 3265.68],[865.75, 3221.6],[869.34, 3177.52],[872.04, 3415.92],[872.94, 3463.59],[880.14, 3063.27],[884.64, 3341.25],[888.24, 3118.14],[889.14, 3288.17],[902.63, 3219.8],[908.03, 3518.47],[912.53, 3170.32],[917.92, 3115.44],[927.82, 3079.46],[930.52, 3449.2],[936.82, 3352.94],[939.51, 3304.36],[946.71, 3267.48],[960.21, 3225.2],[962.01, 3428.51],[970.1, 3129.84],[971.9, 3170.32],[980, 3305.26],[982.7, 3355.64],[984.5, 3080.36],[1004.29, 3221.6],[1008.79, 3273.78],[1008.79, 3447.4],[1010.58, 3131.64],[1019.58, 3385.33],[1021.38, 3061.47],[1042.97, 3241.39],[1045.67, 3479.79],[1048.37, 3191.91],[1052.87, 3153.23],[1060.96, 3112.75],[1061.86, 3412.32],[1079.85, 3312.46],[1080.75, 3357.44],[1087.05, 3226.1],[1102.34, 3132.54],[1104.14, 3093.85],[1113.14, 3262.98]]},"properties":{"objectType":"annotation"}},{"type":"Feature","id":"2e1c8271-2e6b-404d-814b-bc3f88337750","geometry":{"type":"MultiPoint","coordinates":[[4387.16, 3553.96],[4400.66, 3620.23],[4400.66, 3796.93],[4405.83, 3948.8],[4410.48, 3842.33],[4419.07, 3688.94],[4427.77, 3924.67],[4444.6, 3567.73],[4446.06, 3964.16],[4458.33, 3517.15],[4460.79, 3820.25],[4461.15, 3769.21],[4463.24, 3642.31],[4466.92, 3875.46],[4469.19, 3724.6],[4496.37, 3598.14],[4497.99, 3981.72],[4501.28, 3675.45],[4509.69, 3839.09],[4511.1, 3919.64],[4523.37, 3530.65],[4524.6, 3626.36],[4531.96, 3742.94],[4563.09, 3870.54],[4567.55, 3563.78],[4575.45, 3513.52],[4584.73, 3919.64],[4594.54, 3660.72],[4608.04, 3774.84],[4614.18, 3919.64],[4615.4, 3590.78],[4636.26, 3741.71],[4639.95, 3846.01],[4643.63, 3647.22],[4658.35, 3578.5],[4664.49, 3788.23],[4665.72, 3947.86],[4671.85, 3525.74],[4689.35, 3824.07],[4690.26, 3708.58],[4691.48, 3879.15],[4696.39, 3638.63],[4712.35, 3571.14],[4735.7, 3944.41],[4740.57, 3693.85],[4741.8, 3837.42],[4752.84, 3637.41],[4758.98, 3522.06],[4766.34, 3587.09],[4793.33, 3793.25],[4800.7, 3988.36],[4804.38, 3709.81],[4809.29, 3661.95],[4811.74, 3927],[4821.56, 3606.73],[4827.69, 3536.78],[4829.06, 3873.81],[4841.03, 3711.09],[4843.65, 3762.57],[4847.33, 3641.09],[4860.05, 3583.82],[4863.7, 3835.43]]},"properties":{"objectType":"annotation","color":[0, 255, 255]}},{"type":"Feature","id":"1da6e60d-0e16-4afd-8167-489ab4102c41","geometry":{"type":"MultiPoint","coordinates":[[4930.44, 459.24],[4937.08, 35.46],[4938.18, 95.21],[4939.29, 413.87],[4944.82, 365.19],[4947.04, 322.03],[4951.46, 286.63],[4961.42, 230.2],[4965.85, 503.5],[4968.06, 185.94],[4974.7, 146.1],[4976.91, 447.07],[4980.23, 98.53],[4993.51, 411.66],[4997.93, 367.4],[5002.36, 25.5],[5004.57, 323.14],[5012.32, 237.94],[5021.17, 177.09],[5021.17, 266.71],[5023.38, 129.51],[5031.13, 471.41],[5039.98, 421.62],[5041.09, 87.46],[5044.41, 36.56],[5056.58, 306.54],[5056.58, 384],[5058.79, 347.48],[5066.53, 215.81],[5070.96, 265.6],[5076.49, 181.51],[5086.45, 96.31],[5086.45, 139.47],[5086.45, 493.54],[5095.3, 450.38],[5096.41, 411.66],[5103.05, 44.31],[5104.15, 360.76],[5108.58, 268.92],[5108.58, 310.97],[5120.75, 222.45],[5129.6, 188.15],[5135.14, 130.61],[5141.77, 98.53],[5148.41, 490.22],[5149.52, 48.74],[5151.73, 434.89],[5152.84, 390.64],[5168.33, 346.38],[5174.97, 312.08],[5179.4, 262.28],[5184.93, 212.49],[5189.35, 174.87],[5193.78, 142.79],[5197.1, 96.31],[5200.42, 479.15],[5203.74, 44.31],[5203.74, 433.79],[5207.06, 378.46],[5219.23, 331.99],[5231.4, 285.52],[5240.25, 154.96],[5240.25, 202.53],[5240.25, 239.05],[5244.68, 109.59],[5251.32, 418.3],[5252.42, 473.62],[5261.27, 386.21],[5272.34, 336.42],[5277.87, 262.28],[5280.08, 297.69],[5284.51, 201.43],[5298.89, 164.91],[5300, 109.59],[5307.75, 62.01],[5312.17, 491.32],[5322.13, 448.17],[5325.45, 399.49],[5334.3, 343.06],[5335.41, 299.9],[5342.05, 206.96],[5345.37, 252.33],[5347.58, 168.23],[5352, 447.07],[5356.43, 503.5],[5357.54, 121.76],[5364.18, 67.55],[5375.24, 397.27],[5384.09, 347.48],[5390.73, 299.9],[5395.16, 223.56]]},"properties":{"objectType":"annotation"}},{"type":"Feature","id":"64a0f9a1-dcd4-4f41-ad05-01fa048b7129","geometry":{"type":"MultiPoint","coordinates":[[5480.58, 418.95],[5481.48, 93.29],[5485.08, 40.21],[5488.68, 335.29],[5493.18, 293.01],[5505.77, 251.62],[5512.97, 187.75],[5514.77, 490.02],[5518.37, 149.07],[5519.27, 104.09],[5523.77, 445.04],[5530.96, 48.31],[5532.76, 393.76],[5542.66, 355.08],[5550.75, 296.6],[5559.75, 204.84],[5565.15, 146.37],[5565.15, 248.02],[5574.15, 433.35],[5579.54, 115.78],[5586.74, 74.4],[5586.74, 338.89],[5591.24, 298.4],[5593.94, 390.16],[5602.03, 246.23],[5606.53, 168.86],[5609.23, 212.04],[5611.03, 471.13],[5616.43, 423.45],[5620.92, 77.1],[5620.92, 111.28],[5624.52, 34.82],[5627.22, 348.78],[5641.62, 224.63],[5643.42, 175.16],[5643.42, 289.41],[5647.91, 420.75],[5653.31, 504.41],[5658.71, 459.43],[5660.51, 105.89],[5661.41, 343.38],[5665.01, 44.71],[5665.01, 376.67],[5674, 295.7],[5680.3, 242.63],[5685.7, 210.24],[5692.89, 95.99],[5700.09, 464.83],[5701.89, 149.97],[5704.59, 54.61],[5715.38, 379.37],[5715.38, 425.25],[5715.38, 500.82],[5722.58, 298.4],[5722.58, 339.79],[5727.08, 254.32],[5733.38, 175.16],[5735.18, 225.53],[5743.27, 133.77],[5747.77, 101.39],[5757.67, 45.61],[5758.57, 512.51],[5763.06, 448.64],[5765.76, 394.66],[5766.66, 347.88],[5780.16, 267.82],[5781.06, 314.6],[5789.15, 62.7],[5792.75, 219.24],[5799.95, 160.76],[5801.75, 110.38],[5812.54, 506.21],[5814.34, 460.33],[5824.24, 355.98],[5827.84, 413.55],[5832.33, 306.5],[5835.93, 214.74],[5841.33, 266.02],[5844.93, 162.56],[5853.92, 115.78],[5860.22, 71.7],[5865.62, 467.53],[5866.52, 499.02],[5876.42, 405.46],[5879.11, 355.98],[5892.61, 314.6],[5898.91, 279.51],[5902.5, 169.76],[5902.5, 223.74],[5905.2, 113.08],[5908.8, 83.4],[5915.1, 501.72],[5918.7, 40.21],[5925.89, 449.54],[5935.79, 361.38],[5937.59, 409.96],[5940.29, 328.09],[5950.18, 280.41],[5956.48, 203.04]]},"properties":{"objectType":"annotation"}},{"type":"Feature","id":"014005c2-658f-4d5f-b1b2-46b7668b8265","geometry":{"type":"MultiPoint","coordinates":[[5296.18, 536.86],[5305.16, 487.97],[5309.15, 440.08],[5316.14, 774.31],[5323.12, 386.21],[5326.11, 728.42],[5327.11, 690.5],[5332.1, 635.63],[5351.06, 587.74],[5353.05, 551.82],[5354.05, 506.93],[5369.02, 454.05],[5378.99, 409.15],[5378.99, 800.25],[5379.99, 356.28],[5379.99, 747.37],[5391.96, 655.59],[5400.94, 693.5],[5402.94, 536.86],[5405.93, 481.99],[5405.93, 572.78],[5405.93, 604.7],[5420.9, 793.27],[5422.89, 754.36],[5427.88, 439.09],[5430.87, 386.21],[5433.87, 709.46],[5444.84, 341.31],[5451.82, 607.7],[5452.82, 658.58],[5465.79, 790.27],[5466.79, 527.88],[5470.78, 750.37],[5471.78, 470.01],[5473.77, 569.78],[5477.76, 431.1],[5483.75, 357.27],[5484.75, 700.48],[5493.73, 659.58],[5499.71, 569.78],[5499.71, 604.7],[5506.7, 523.89],[5517.67, 801.25],[5526.65, 722.43],[5526.65, 748.37],[5529.65, 447.07],[5534.63, 395.19],[5536.63, 674.54],[5541.62, 342.31],[5548.6, 628.65],[5560.57, 521.89],[5563.57, 569.78],[5566.56, 753.36],[5574.54, 440.08],[5576.54, 395.19],[5578.53, 691.5],[5587.51, 339.32],[5589.51, 544.84],[5592.5, 626.65],[5597.49, 502.94],[5603.47, 725.42],[5612.45, 427.11],[5613.45, 781.3],[5618.44, 388.2],[5618.44, 467.02],[5620.44, 700.48],[5627.42, 589.74],[5630.41, 341.31],[5634.4, 641.62],[5649.37, 547.83],[5656.35, 459.04],[5663.34, 427.11],[5664.33, 341.31],[5665.33, 383.21],[5666.33, 731.41],[5666.33, 797.26],[5667.33, 499.94],[5673.31, 692.5],[5680.3, 597.72],[5681.29, 638.62],[5686.28, 547.83],[5708.23, 459.04],[5714.22, 430.11],[5715.22, 797.26],[5717.21, 511.92],[5722.2, 748.37],[5724.2, 341.31],[5724.2, 715.45],[5727.19, 387.2],[5727.19, 672.55],[5736.17, 623.66],[5747.14, 447.07],[5749.14, 601.71],[5750.14, 515.91],[5754.13, 549.83],[5761.11, 415.14],[5763.11, 480.99],[5772.08, 339.32],[5784.06, 758.35],[5785.06, 675.54]]},"properties":{"objectType":"annotation"}},{"type":"Feature","id":"6fa60b73-24f1-43a7-b76f-9dc55bb3f9a8","geometry":{"type":"MultiPoint","coordinates":[[5979.32, 676.92],[5983.38, 534.15],[5984.19, 375.16],[5985.81, 422.21],[5988.25, 631.5],[5993.11, 337.04],[5994.74, 574.71],[5997.17, 294.05],[6002.04, 246.19],[6004.47, 477.37],[6019.88, 191.84],[6028.81, 538.21],[6040.16, 423.84],[6040.97, 389.77],[6043.41, 496.03],[6045.03, 346.77],[6049.09, 267.28],[6049.09, 307.03],[6058.01, 225.1],[6062.06, 193.46],[6070.18, 591.75],[6070.99, 473.32],[6079.1, 515.5],[6092.89, 323.25],[6092.89, 394.63],[6096.94, 431.95],[6099.38, 626.63],[6099.38, 666.38],[6103.43, 354.07],[6109.92, 283.5],[6110.73, 245.38],[6113.17, 582.01],[6120.47, 191.84],[6127.77, 519.55],[6135.07, 489.54],[6141.56, 606.35],[6142.37, 453.04],[6142.37, 556.87],[6152.1, 330.55],[6152.1, 375.16],[6152.1, 407.61],[6156.97, 288.37],[6160.22, 659.08],[6161.84, 256.73],[6174.01, 577.96],[6175.63, 221.85],[6182.12, 539.83],[6184.55, 504.14],[6187.8, 461.96],[6200.77, 660.7],[6204.83, 427.08],[6207.26, 595.8],[6216.19, 341.1],[6216.19, 374.35],[6219.43, 264.03],[6219.43, 301.35],[6225.92, 221.85],[6230.79, 560.11],[6246.2, 532.53],[6248.63, 474.94],[6254.31, 621.76],[6255.93, 423.84],[6260.8, 366.24],[6276.21, 267.28],[6279.46, 316.76],[6282.7, 584.45],[6284.33, 216.99],[6301.36, 551.19],[6302.17, 620.14],[6306.23, 509.82],[6307.85, 401.12],[6308.66, 671.24],[6309.47, 448.17],[6316.77, 369.49],[6320.83, 326.49],[6328.13, 298.91],[6330.56, 267.28],[6333.81, 635.55],[6337.05, 226.72],[6338.67, 598.24],[6339.48, 199.39],[6343.54, 560.92],[6347.6, 512.25],[6354.09, 462.77],[6355.71, 416.53],[6372.74, 375.16],[6375.18, 280.26],[6377.61, 339.47],[6388.97, 234.02],[6388.97, 675.3],[6392.95, 568.41],[6394.57, 529.48],[6400.92, 200.85],[6407.55, 634.93],[6411.61, 459.72],[6417.74, 421.74],[6419.93, 384.44],[6428.71, 344.21],[6439.68, 286.43]]},"properties":{"objectType":"annotation"}},{"type":"Feature","id":"90a9a545-12d0-4f5b-b7fa-a9e06f6d597b","geometry":{"type":"MultiPoint","coordinates":[[6423.35, 343.12],[6429.2, 285.34],[6446.03, 226.82],[6461.83, 521.72],[6461.83, 586.57],[6461.83, 643.44],[6465.82, 464.85],[6475.8, 355.1],[6477.79, 684.34],[6478.79, 402.99],[6482.78, 292.25],[6496.75, 241.36],[6506.73, 616.5],[6508.72, 565.61],[6511.71, 504.76],[6516.55, 643.67],[6520.69, 448.88],[6524.68, 417.96],[6533.66, 371.06],[6536.66, 330.16],[6543.64, 673.37],[6545.64, 624.48],[6552.62, 292.25],[6557.61, 545.66],[6557.61, 596.54],[6563.59, 503.76],[6564.59, 223.41],[6575.57, 454.87],[6586.54, 419.95],[6591.53, 336.14],[6592.53, 637.45],[6597.52, 379.05],[6600.51, 602.53],[6602.5, 294.24],[6613.48, 256.33],[6617.47, 669.38],[6619.46, 219.41],[6620.46, 546.66],[6624.45, 503.76],[6633.43, 466.84],[6641.41, 418.95],[6648.4, 355.1],[6648.4, 386.03],[6653.39, 647.43],[6654.38, 326.17],[6660.37, 608.52],[6663.36, 561.62],[6665.36, 524.71],[6666.36, 278.28],[6672.34, 234.38],[6672.34, 481.81],[6687.31, 438.91],[6697.29, 411.97],[6709.26, 364.08],[6712.25, 611.51],[6713.25, 569.61],[6715.24, 660.4],[6721.23, 304.22],[6730.21, 245.35],[6736.2, 487.79],[6737.19, 531.69],[6739.19, 207.44],[6747.17, 413.97],[6749.17, 672.37],[6750.16, 451.88],[6757.15, 368.07],[6765.13, 611.51],[6773.11, 333.15],[6774.11, 301.23],[6778.1, 261.32],[6778.1, 563.62],[6783.09, 491.79],[6796.06, 436.91],[6804.04, 373.06],[6816.01, 666.38],[6821, 618.49],[6822, 588.56],[6823.99, 288.26],[6827.98, 239.37],[6832.97, 534.69],[6834.97, 340.14],[6842.95, 384.03],[6846.94, 462.85],[6846.94, 496.77],[6855.92, 679.35],[6856.92, 620.49],[6860.91, 417.96],[6862.9, 274.29],[6866.89, 589.56],[6876.87, 334.15],[6883.85, 230.39],[6883.85, 553.64],[6895.83, 678.35],[6897.82, 508.75],[6900.82, 474.82],[6905.8, 288.26],[6908.8, 613.5],[6911.79, 431.92],[6913.79, 571.6]]},"properties":{"objectType":"annotation"}},{"type":"Feature","id":"4ebd5bee-5b67-4684-9d86-42d952ffe35b","geometry":{"type":"MultiPoint","coordinates":[[4945.72, 3771.76],[4953.7, 3704.92],[4954.7, 3905.45],[4966.67, 3661.02],[4996.6, 3815.66],[5004.58, 3744.83],[5005.58, 4127.94],[5015.56, 4002.23],[5019.55, 4074.07],[5020.55, 3933.39],[5021.55, 3685.96],[5043.5, 3876.52],[5050.48, 3770.77],[5053.47, 3718.89],[5053.47, 3809.68],[5065.44, 3933.39],[5067.44, 3666.01],[5074.42, 3983.27],[5074.42, 4029.17],[5092.38, 3875.52],[5102.36, 3828.63],[5105.35, 3711.9],[5109.34, 4114.97],[5112.34, 3761.79],[5119.32, 3991.26],[5119.32, 4043.14],[5123.31, 3955.34],[5134.29, 3908.45],[5149.25, 3815.66],[5156.23, 3962.32],[5165.21, 3756.8],[5179.18, 3694.94],[5192.15, 3854.57],[5201.13, 3814.66],[5204.12, 4132.93],[5206.12, 3737.84],[5211.11, 3914.43],[5219.09, 4086.04],[5223.08, 4031.16],[5230.06, 3685.96],[5236.05, 3934.39],[5238.05, 3977.29],[5264.98, 3884.5],[5265.98, 3821.65],[5268.97, 4112.98],[5279.95, 3777.75],[5280.95, 3719.88],[5293.92, 3671],[5293.92, 4020.19],[5302.9, 3914.43],[5308.88, 3950.35],[5326.84, 4111.98],[5329.83, 4058.1],[5343.8, 4008.22],[5357.77, 3659.02],[5361.76, 3903.46],[5365.75, 3953.34],[5369.74, 3850.58],[5374.73, 3807.68],[5380.72, 3744.83],[5386.7, 4057.1],[5406.66, 3690.95],[5414.64, 4134.92],[5425.61, 4067.08],[5431.6, 4103]]},"properties":{"objectType":"annotation","color":[0, 255, 255]}},{"type":"Feature","id":"81752b5f-278e-4dae-a440-e19fa4342302","geometry":{"type":"MultiPoint","coordinates":[[5551.11, 3748.29],[5558.48, 3971.62],[5562.16, 3918.86],[5568.29, 3856.28],[5575.66, 4193.73],[5585.47, 4139.74],[5595.29, 4056.29],[5608.79, 3803.51],[5616.15, 4231.77],[5621.06, 3964.26],[5635.78, 4172.87],[5645.6, 3767.92],[5646.83, 4031.75],[5646.83, 4090.65],[5652.96, 3835.42],[5675.05, 3885.73],[5681.19, 3944.63],[5684.87, 4153.24],[5686.1, 4204.77],[5699.59, 4047.7],[5702.05, 4098.02],[5703.28, 3763.02],[5711.87, 3831.73],[5725.36, 4193.73],[5726.59, 3982.67],[5736.41, 3915.18],[5756.04, 4137.28],[5757.27, 4086.97],[5770.77, 3801.06],[5771.99, 4007.21],[5781.81, 3958.13],[5800.22, 3857.5],[5802.67, 3900.45],[5808.81, 4180.23],[5810.03, 4128.69],[5811.26, 4075.93],[5818.62, 3782.65],[5829.67, 4236.68],[5835.8, 4019.48],[5844.39, 4170.42],[5845.62, 3951.99],[5851.76, 3891.86],[5860.35, 4106.61],[5872.62, 3840.32],[5877.53, 4041.57],[5886.11, 3986.35],[5887.34, 3748.29],[5894.7, 4204.77],[5903.29, 3924.99],[5908.2, 4091.88],[5913.11, 3799.83],[5916.79, 3852.59],[5926.61, 4018.25],[5926.61, 4163.05],[5952.38, 3963.03],[5956.06, 4187.6],[5974.47, 3912.72],[5975.69, 3858.73],[5976.92, 4116.42],[5985.51, 3792.47],[5986.74, 4064.88],[6000.24, 4001.07],[6008.83, 3927.45],[6012.51, 4231.77],[6016.19, 4176.55],[6019.87, 3832.96],[6032.14, 4109.06],[6041.96, 3770.38]]},"properties":{"objectType":"annotation","color":[0, 255, 255]}},{"type":"Feature","id":"4286c082-4e2f-41f2-8bb1-0f8c02c55e86","geometry":{"type":"MultiPoint","coordinates":[[4977.49, 1608.11],[4977.49, 1770.76],[4979.7, 1479.76],[4985.23, 1703.27],[4985.23, 1819.45],[4998.51, 1865.92],[5006.26, 1568.28],[5018.43, 1641.31],[5022.85, 1475.34],[5026.17, 1609.22],[5041.66, 1811.7],[5052.73, 1441.03],[5057.15, 1556.11],[5057.15, 1868.13],[5066.01, 1754.17],[5079.28, 1481.97],[5085.92, 1622.5],[5088.14, 1665.65],[5089.24, 1715.44],[5094.77, 1799.53],[5094.77, 1837.15],[5106.95, 1893.58],[5111.37, 1446.57],[5115.8, 1490.83],[5119.12, 1751.95],[5122.44, 1545.04],[5125.76, 1595.94],[5131.29, 1726.5],[5148.99, 1839.36],[5154.52, 1634.67],[5155.63, 1450.99],[5158.95, 1526.23],[5179.97, 1895.8],[5187.72, 1685.57],[5196.57, 1634.67],[5198.78, 1742],[5209.85, 1445.46],[5210.95, 1848.22],[5218.7, 1782.93],[5226.44, 1562.75],[5237.51, 1614.75],[5244.15, 1713.23],[5245.25, 1500.78],[5259.64, 1863.71],[5262.96, 1660.12],[5270.7, 1547.26],[5275.13, 1796.21],[5287.3, 1593.73],[5299.47, 1718.76],[5300.58, 1775.19],[5309.43, 1519.59],[5314.96, 1655.69],[5317.18, 1457.63],[5323.81, 1873.67],[5342.62, 1806.17],[5355.9, 1628.03],[5355.9, 1705.48],[5355.9, 1749.74],[5378.03, 1577.13],[5378.03, 1873.67],[5379.14, 1463.16],[5384.67, 1515.17],[5391.31, 1623.6],[5393.52, 1809.49],[5415.65, 1545.04],[5415.65, 1749.74],[5428.93, 1676.71],[5428.93, 1879.2],[5435.57, 1504.1],[5437.78, 1637.99],[5452.17, 1815.02],[5454.38, 1447.67]]},"properties":{"objectType":"annotation","color":[0, 255, 255]}},{"type":"Feature","id":"fbeb8377-f55d-4b95-bec8-d8969c43477a","geometry":{"type":"MultiPoint","coordinates":[[5532.65, 1714.69],[5535.97, 1813.17],[5537.07, 1918.28],[5551.46, 1516.63],[5553.67, 1654.94],[5556.99, 1965.86],[5566.95, 1602.94],[5570.27, 1698.1],[5571.37, 1752.31],[5572.48, 1843.04],[5592.4, 1644.98],[5593.5, 1807.64],[5596.82, 1565.32],[5610.1, 1858.53],[5615.63, 1912.75],[5616.74, 1684.82],[5625.59, 1515.53],[5628.91, 1785.51],[5643.29, 1564.21],[5643.29, 1608.47],[5644.4, 1716.91],[5653.25, 1831.98],[5655.47, 1877.34],[5657.68, 1938.2],[5661, 1660.48],[5669.85, 1775.55],[5685.34, 1708.05],[5691.98, 1855.21],[5694.19, 1607.36],[5694.19, 1816.49],[5704.15, 1544.3],[5706.36, 1657.16],[5707.47, 1755.63],[5711.9, 1498.93],[5713, 1932.67],[5725.17, 1695.88],[5730.71, 1879.56],[5742.88, 1806.53],[5743.98, 1631.71],[5753.94, 1544.3],[5759.47, 1753.42],[5762.79, 1858.53],[5768.33, 1952.58],[5771.65, 1906.11],[5779.39, 1690.35],[5790.46, 1516.63],[5793.77, 1795.46],[5802.63, 1591.87],[5803.73, 1636.13],[5812.58, 1840.83],[5818.12, 1973.61],[5825.86, 1911.64],[5828.08, 1534.34],[5832.5, 1683.71],[5836.93, 1617.32],[5841.35, 1726.86],[5866.8, 1865.17],[5867.91, 1773.34],[5877.87, 1973.61],[5880.08, 1526.59],[5882.29, 1598.51],[5893.36, 1809.85],[5896.68, 1664.9],[5900, 1757.84],[5902.21, 1710.27],[5903.32, 1907.22],[5916.59, 1494.5],[5921.02, 1549.83],[5921.02, 1857.43],[5936.51, 1579.7],[5938.72, 1629.49],[5938.72, 1974.71],[5939.83, 1918.28],[5940.94, 1775.55],[5963.06, 1734.61],[5975.24, 1845.26],[5984.09, 1659.37],[5985.19, 1887.3],[5986.3, 1614],[6009.54, 1548.72],[6015.07, 1934.88]]},"properties":{"objectType":"annotation","color":[0, 255, 255]}},{"type":"Feature","id":"1ded009a-3bde-4345-897d-90af79f2dd77","geometry":{"type":"MultiPoint","coordinates":[[2576.19, 2561.2],[2581.63, 2462.1],[2584.28, 2401.97],[2596.06, 2599.03],[2603.52, 2780.73],[2605.79, 2692.31],[2613.97, 2527.92],[2622.83, 2736.11],[2624.73, 2837.78],[2626.25, 2456.98],[2630.13, 2562.52],[2640.67, 2659.86],[2652.55, 2883.48],[2656.08, 2775.05],[2664.03, 2518.22],[2671.5, 2616.87],[2672.31, 2697.18],[2702.8, 2569.42],[2704.51, 2446.01],[2708.81, 2646.07],[2711.83, 2485.51],[2713.24, 2848.76],[2718.36, 2749.28],[2728.28, 2780.73],[2735.23, 2419.68],[2741.06, 2677.95],[2743.02, 2606.72],[2744.74, 2541.83],[2754.93, 2724.41],[2764.44, 2854.61],[2771.07, 2459.91],[2782.77, 2575.47],[2784.19, 2769.03],[2799.36, 2703.76],[2811.27, 2613.59],[2815.64, 2884.6],[2817.88, 2516.23],[2825.62, 2632.28],[2829.95, 2742.44],[2833.19, 2822.43],[2836.98, 2560.09],[2841.84, 2669.6],[2849.74, 2855.79],[2871.26, 2778.91],[2875.1, 2697.99],[2882.2, 2877.28],[2884.44, 2515.5],[2896.83, 2809.99],[2901.06, 2633.09],[2907.85, 2453.32],[2917.31, 2749.28],[2926.13, 2578.4],[2941.44, 2869.24],[2946.48, 2697.99],[2949.49, 2812.92],[2950.27, 2472.34],[2969.2, 2633.91],[2991.96, 2568.16],[3002.93, 2475.27],[3007.32, 2680.95],[3010.2, 2788.05],[3015.32, 2882.4],[3025.98, 2630.66],[3035.71, 2714.21],[3036.53, 2829.01],[3036.58, 2576.94],[3052.67, 2412.36],[3055.6, 2503.79],[3065.79, 2866.31]]},"properties":{"objectType":"annotation","color":[0, 255, 255]}},{"type":"Feature","id":"28527f42-3e7b-4e06-be4a-1e855a16558f","geometry":{"type":"MultiPoint","coordinates":[[6101.65, 1820.85],[6101.65, 2020.39],[6122.61, 1945.56],[6127.59, 1790.92],[6128.59, 1694.14],[6145.55, 1891.69],[6147.55, 2031.36],[6148.55, 1633.28],[6154.53, 1738.04],[6162.51, 1823.84],[6167.5, 1963.52],[6170.5, 1658.22],[6186.46, 1782.94],[6201.42, 1841.8],[6203.42, 1902.66],[6207.41, 1717.09],[6208.41, 1621.31],[6215.39, 1986.47],[6216.39, 2037.35],[6236.34, 1819.85],[6243.33, 1880.71],[6255.3, 1913.64],[6267.27, 1650.24],[6269.27, 2048.32],[6273.26, 1609.34],[6276.25, 1851.78],[6278.25, 1755],[6280.24, 1699.13],[6283.23, 1814.86],[6293.21, 1987.46],[6303.19, 1928.6],[6314.16, 1734.05],[6316.16, 1676.18],[6334.12, 1866.74],[6335.11, 2051.32],[6341.1, 1786.93],[6346.09, 1622.31],[6356.07, 1739.04],[6359.06, 1837.81],[6361.06, 1992.45],[6362.05, 1935.58],[6370.03, 1677.18],[6372.03, 2074.26],[6388.99, 1900.67],[6390.99, 1626.3],[6392.98, 2010.41],[6399.97, 1717.09],[6399.97, 1819.85],[6410.94, 1666.21],[6411.94, 1936.58],[6422.91, 2034.36],[6424.91, 1600.36],[6431.89, 1759.99],[6434.88, 1887.7],[6453.84, 1701.13],[6454.84, 1831.82],[6455.84, 2015.4],[6467.81, 1649.25],[6473.79, 1963.52],[6475.79, 1612.33],[6476.79, 1767.97],[6483.77, 1803.89],[6494.75, 1901.66],[6495.74, 1847.79],[6508.71, 2024.38],[6516.7, 1691.15],[6524.68, 1749.02],[6531.66, 1996.44],[6532.66, 1909.64],[6542.64, 2049.32],[6556.6, 1709.11],[6561.59, 1846.79]]},"properties":{"objectType":"annotation","color":[0, 255, 255]}},{"type":"Feature","id":"6adf13a8-8373-481c-9556-a50e045ccb4b","geometry":{"type":"MultiPoint","coordinates":[[6630.73, 1995.36],[6645.11, 1793.98],[6656.17, 1692.18],[6657.28, 1881.39],[6657.28, 2028.55],[6668.35, 1925.65],[6669.45, 1749.72],[6687.16, 2058.43],[6693.79, 1682.22],[6696.01, 1800.62],[6700.43, 1994.25],[6709.29, 1852.62],[6719.24, 2121.49],[6724.78, 1930.07],[6728.09, 1701.03],[6745.8, 2069.49],[6753.54, 2003.1],[6754.65, 1823.85],[6756.86, 1735.33],[6770.14, 2145.84],[6783.42, 1886.92],[6792.27, 1761.89],[6794.48, 1698.82],[6795.59, 1979.87],[6801.12, 2080.55],[6817.72, 2026.34],[6826.57, 1796.19],[6826.57, 1863.69],[6826.57, 1957.74],[6828.78, 1913.48],[6831, 2145.84],[6843.17, 2080.55],[6855.34, 1840.45],[6856.45, 1714.31],[6859.77, 1796.19],[6861.98, 2120.39],[6864.19, 1755.25],[6871.94, 2027.44],[6886.32, 1965.48],[6894.07, 1912.37],[6899.6, 2001.99],[6900.7, 2067.28],[6906.24, 1738.65],[6921.73, 1893.56],[6927.26, 2108.22],[6931.69, 1848.2],[6940.54, 2038.51],[6944.96, 1791.77],[6947.18, 1988.72],[6962.67, 1935.61],[6962.67, 2098.26],[6969.31, 1761.89],[6973.73, 2138.09],[6979.26, 2046.25],[6982.58, 1831.6],[6983.69, 1870.32],[6989.22, 1696.61],[7006.93, 1995.36],[7014.67, 1806.15],[7022.42, 1944.46],[7023.52, 1750.83],[7029.06, 2075.02],[7030.16, 2125.92],[7039.01, 1862.58],[7046.76, 1906.84],[7050.08, 1703.25],[7061.14, 2017.49],[7071.1, 2142.52],[7074.42, 1817.21],[7083.27, 1946.67],[7085.49, 2096.05],[7093.23, 1779.59],[7093.23, 1902.41],[7095.44, 1695.5]]},"properties":{"objectType":"annotation","color":[0, 255, 255]}},{"type":"Feature","id":"a64c4f0f-981c-47f1-83f0-f1c4f219060e","geometry":{"type":"MultiPoint","coordinates":[[7231.67, 2205.45],[7234.99, 2036.16],[7236.09, 2121.36],[7239.41, 2162.3],[7240.52, 1851.38],[7242.73, 1981.94],[7270.39, 2288.44],[7273.71, 2089.27],[7274.82, 1943.22],[7275.93, 2247.5],[7283.67, 2051.65],[7288.1, 1856.91],[7293.63, 2174.47],[7304.69, 2004.07],[7309.12, 1927.73],[7309.12, 2116.93],[7322.4, 2289.54],[7327.93, 2038.37],[7330.14, 1860.23],[7334.57, 2241.96],[7351.17, 1996.33],[7352.27, 2091.48],[7365.55, 2191.07],[7382.15, 2305.03],[7384.36, 1963.13],[7386.57, 2119.15],[7387.68, 2255.24],[7392.11, 1891.21],[7408.7, 2066.03],[7410.92, 2009.6],[7423.09, 2212.09],[7426.41, 1835.89],[7437.47, 1962.03],[7441.9, 2269.63],[7454.07, 1891.21],[7459.6, 2175.58],[7460.71, 2108.08],[7464.03, 2212.09],[7466.24, 2012.92],[7475.09, 1971.98],[7495.01, 2282.9],[7497.22, 1891.21],[7498.33, 2089.27],[7522.67, 2023.99],[7522.67, 2205.45],[7528.2, 2162.3],[7532.63, 1864.66],[7540.37, 1964.24],[7550.33, 2298.39],[7552.54, 2091.48],[7564.72, 1912.23],[7571.35, 2139.06],[7574.67, 2243.07],[7577.99, 2037.27],[7581.31, 2196.6],[7591.27, 1842.53],[7593.48, 1971.98],[7602.34, 2297.29],[7604.55, 2101.44],[7615.61, 1912.23],[7633.32, 2239.75],[7644.38, 2057.18],[7652.13, 2165.62],[7655.45, 1882.36],[7658.77, 2007.39],[7659.87, 2108.08],[7663.19, 1923.3],[7678.68, 2307.25],[7690.85, 1897.85],[7699.71, 2053.86],[7699.71, 2254.13],[7700.81, 2186.64],[7705.24, 1997.43]]},"properties":{"objectType":"annotation","color":[0, 255, 255]}}]}