{"type":"FeatureCollection","features":[{"type":"Feature","id":"eadbae8b-ff67-463b-8ef0-c13c83f8dadc","geometry":{"type":"Polygon","coordinates":[[[2434.53, 3476.18],[2434.53, 3987.13],[2945.49, 3987.13],[2945.49, 3476.18],[2434.53, 3476.18]]]},"properties":{"objectType":"annotation","classification":{"name":"2","color":[186, 153, 157]}}},{"type":"Feature","id":"e120af0f-9c5b-4f37-97f8-1eae5698fac1","geometry":{"type":"Polygon","coordinates":[[[3084.06, 3560.11],[3084.06, 4071.06],[3595.02, 4071.06],[3595.02, 3560.11],[3084.06, 3560.11]]]},"properties":{"objectType":"annotation","classification":{"name":"2","color":[186, 153, 157]}}},{"type":"Feature","id":"5efa92da-8ed6-490e-8821-d1ac915bee6e","geometry":{"type":"Polygon","coordinates":[[[6948.86, 3127.48],[6948.86, 3638.44],[7459.81, 3638.44],[7459.81, 3127.48],[6948.86, 3127.48]]]},"properties":{"objectType":"annotation","classification":{"name":"2","color":[186, 153, 157]}}},{"type":"Feature","id":"fa6231ff-f2df-4348-9005-f2b968b5d803","geometry":{"type":"Polygon","coordinates":[[[7266.11, 3242.85],[7266.11, 3753.8],[7777.07, 3753.8],[7777.07, 3242.85],[7266.11, 3242.85]]]},"properties":{"objectType":"annotation","classification":{"name":"2","color":[186, 153, 157]}}},{"type":"Feature","id":"542ee1d2-f494-41e2-bf4d-65d2556af25a","geometry":{"type":"Polygon","coordinates":[[[7511.27, 3466.37],[7511.27, 3977.33],[8022.23, 3977.33],[8022.23, 3466.37],[7511.27, 3466.37]]]},"properties":{"objectType":"annotation","classification":{"name":"2","color":[186, 153, 157]}}},{"type":"Feature","id":"86d8ac84-bfdd-4dc4-929b-ffa4bd26ed75","geometry":{"type":"Polygon","coordinates":[[[7439.17, 3141.9],[7439.17, 3652.86],[7950.12, 3652.86],[7950.12, 3141.9],[7439.17, 3141.9]]]},"properties":{"objectType":"annotation","classification":{"name":"2","color":[186, 153, 157]}}},{"type":"Feature","id":"286519e5-5324-4203-8775-a452e7e66697","geometry":{"type":"Polygon","coordinates":[[[7121.91, 1591.66],[7121.91, 2102.61],[7632.86, 2102.61],[7632.86, 1591.66],[7121.91, 1591.66]]]},"properties":{"objectType":"annotation","classification":{"name":"2","color":[186, 153, 157]}}},{"type":"Feature","id":"cfc1ef6a-a517-4235-93bb-38fa804fefee","geometry":{"type":"Polygon","coordinates":[[[7403.11, 1548.4],[7403.11, 2059.35],[7914.07, 2059.35],[7914.07, 1548.4],[7403.11, 1548.4]]]},"properties":{"objectType":"annotation","classification":{"name":"2","color":[186, 153, 157]}}},{"type":"Feature","id":"5445a689-c815-45b8-930a-8a1c90c2e599","geometry":{"type":"Polygon","coordinates":[[[7439.17, 495.67],[7439.17, 1006.63],[7950.12, 1006.63],[7950.12, 495.67],[7439.17, 495.67]]]},"properties":{"objectType":"annotation","classification":{"name":"2","color":[186, 153, 157]}}},{"type":"Feature","id":"15510490-b7f0-4f1f-9f31-65e0e8fe87eb","geometry":{"type":"Polygon","coordinates":[[[6970.49, 791.3],[6970.49, 1302.25],[7481.44, 1302.25],[7481.44, 791.3],[6970.49, 791.3]]]},"properties":{"objectType":"annotation","classification":{"name":"2","color":[186, 153, 157]}}},{"type":"Feature","id":"ffa04683-f950-4a87-ab00-7cb5bc5b0b9a","geometry":{"type":"Polygon","coordinates":[[[7417.53, 704.77],[7417.53, 1215.73],[7928.49, 1215.73],[7928.49, 704.77],[7417.53, 704.77]]]},"properties":{"objectType":"annotation","classification":{"name":"2","color":[186, 153, 157]}}},{"type":"Feature","id":"7ad1cb61-89ad-445c-bf55-d651a10f5973","geometry":{"type":"Polygon","coordinates":[[[3711.37, 1065.3],[3711.37, 1576.25],[4222.32, 1576.25],[4222.32, 1065.3],[3711.37, 1065.3]]]},"properties":{"objectType":"annotation","classification":{"name":"2","color":[186, 153, 157]}}},{"type":"Feature","id":"a3d2a812-7ce5-422b-acad-b7bbacabbd54","geometry":{"type":"Polygon","coordinates":[[[1548.24, 812.93],[1548.24, 1323.89],[2059.19, 1323.89],[2059.19, 812.93],[1548.24, 812.93]]]},"properties":{"objectType":"annotation","classification":{"name":"2","color":[186, 153, 157]}}},{"type":"Feature","id":"5687fe27-e74c-4bd3-b644-fe2247ccc83c","geometry":{"type":"Polygon","coordinates":[[[1101.19, 755.25],[1101.19, 1266.2],[1612.15, 1266.2],[1612.15, 755.25],[1101.19, 755.25]]]},"properties":{"objectType":"annotation","classification":{"name":"2","color":[186, 153, 157]}}},{"type":"Feature","id":"f1050ba7-8147-483d-ae65-3d40f6a8137f","geometry":{"type":"Polygon","coordinates":[[[625.3, 683.14],[625.3, 1194.1],[1136.26, 1194.1],[1136.26, 683.14],[625.3, 683.14]]]},"properties":{"objectType":"annotation","classification":{"name":"2","color":[186, 153, 157]}}},{"type":"Feature","id":"61e97257-3131-47fd-8e3b-48732db50642","geometry":{"type":"Polygon","coordinates":[[[0, 2694.86],[0, 3205.81],[508.95, 3205.81],[508.95, 2694.86],[0, 2694.86]]]},"properties":{"objectType":"annotation","classification":{"name":"2","color":[186, 153, 157]}}},{"type":"Feature","id":"a1c86973-c4b3-48df-88cc-c7ad9d8b3c61","geometry":{"type":"Polygon","coordinates":[[[1831.68, 258.71],[1831.68, 769.66],[2342.63, 769.66],[2342.63, 258.71],[1831.68, 258.71]]]},"properties":{"objectType":"annotation","classification":{"name":"2","color":[186, 153, 157]}}},{"type":"Feature","id":"10726a70-4ef9-40a6-8164-d76748c3fb86","geometry":{"type":"Polygon","coordinates":[[[1543.49, 211.88],[1543.49, 722.83],[2054.44, 722.83],[2054.44, 211.88],[1543.49, 211.88]]]},"properties":{"objectType":"annotation","classification":{"name":"2","color":[186, 153, 157]}}},{"type":"Feature","id":"6d6ed63d-2e6a-4f55-b856-c0ecb65e38a7","geometry":{"type":"Polygon","coordinates":[[[823.02, 1404.26],[823.02, 1915.21],[1333.97, 1915.21],[1333.97, 1404.26],[823.02, 1404.26]]]},"properties":{"objectType":"annotation","classification":{"name":"2","color":[186, 153, 157]}}},{"type":"Feature","id":"c75023b1-3bc1-4426-88d1-d70066519295","geometry":{"type":"Polygon","coordinates":[[[387.14, 1332.21],[387.14, 1843.16],[898.09, 1843.16],[898.09, 1332.21],[387.14, 1332.21]]]},"properties":{"objectType":"annotation","classification":{"name":"2","color":[186, 153, 157]}}},{"type":"Feature","id":"e1bc0c90-4fcb-47ec-ae95-77727aa7929f","geometry":{"type":"Polygon","coordinates":[[[1633.55, 1566.36],[1633.55, 2077.32],[2144.5, 2077.32],[2144.5, 1566.36],[1633.55, 1566.36]]]},"properties":{"objectType":"annotation","classification":{"name":"2","color":[186, 153, 157]}}},{"type":"Feature","id":"50e6348d-b7be-42f1-9e29-bf9acf8762c4","geometry":{"type":"Polygon","coordinates":[[[3653.06, 3639.7],[3653.06, 4150.66],[4164.01, 4150.66],[4164.01, 3639.7],[3653.06, 3639.7]]]},"properties":{"objectType":"annotation","classification":{"name":"2","color":[186, 153, 157]}}},{"type":"Feature","id":"d3cc6fce-0674-4a9e-9ebc-175a18d694b3","geometry":{"type":"Polygon","coordinates":[[[6212.1, 2141.73],[6212.1, 2652.69],[6723.06, 2652.69],[6723.06, 2141.73],[6212.1, 2141.73]]]},"properties":{"objectType":"annotation","classification":{"name":"2","color":[186, 153, 157]}}},{"type":"Feature","id":"9b16a054-c8f1-43f4-90d7-cc486f58350b","geometry":{"type":"Polygon","coordinates":[[[6158.61, 2858.04],[6158.61, 3369],[6669.57, 3369],[6669.57, 2858.04],[6158.61, 2858.04]]]},"properties":{"objectType":"annotation","classification":{"name":"2","color":[186, 153, 157]}}},{"type":"Feature","id":"ce9919c7-ddd4-464b-b7fd-1ccacc35ba1e","geometry":{"type":"Polygon","coordinates":[[[2793.64, 3602.94],[2793.64, 4113.9],[3304.59, 4113.9],[3304.59, 3602.94],[2793.64, 3602.94]]]},"properties":{"objectType":"annotation","classification":{"name":"2","color":[186, 153, 157]}}},{"type":"Feature","id":"f23173b4-3f16-4eea-8d4f-6b740c8630a9","geometry":{"type":"Polygon","coordinates":[[[6154.62, 2457.4],[6154.62, 2968.35],[6665.58, 2968.35],[6665.58, 2457.4],[6154.62, 2457.4]]]},"properties":{"objectType":"annotation","classification":{"name":"2","color":[186, 153, 157]}}},{"type":"Feature","id":"cb07efb8-eba5-472f-98a5-84ddbbd9846a","geometry":{"type":"Polygon","coordinates":[[[3256.02, 1677.9],[3256.02, 2188.85],[3766.98, 2188.85],[3766.98, 1677.9],[3256.02, 1677.9]]]},"properties":{"objectType":"annotation","classification":{"name":"2","color":[186, 153, 157]}}},{"type":"Feature","id":"5ae58bbf-ed32-4a27-8cf5-efec1d4727a9","geometry":{"type":"MultiPoint","coordinates":[[3748.34, 1167.38],[3749.34, 1482.65],[3750.34, 1221.26],[3758.32, 1418.8],[3765.3, 1365.92],[3768.3, 1105.53],[3778.27, 1262.16],[3783.26, 1318.03],[3787.25, 1547.5],[3790.24, 1492.63],[3791.24, 1219.26],[3796.23, 1444.74],[3809.2, 1379.89],[3813.19, 1326.02],[3816.18, 1182.35],[3826.16, 1103.53],[3827.16, 1497.62],[3829.15, 1284.11],[3841.13, 1235.23],[3843.12, 1544.51],[3862.08, 1130.47],[3862.08, 1432.77],[3863.08, 1186.34],[3866.07, 1332],[3868.06, 1383.88],[3890.01, 1286.11],[3890.01, 1520.57],[3891.01, 1237.22],[3896, 1468.69],[3907.97, 1410.82],[3911.96, 1137.45],[3913.96, 1191.33],[3929.92, 1358.94],[3933.91, 1093.55],[3933.91, 1310.05],[3934.91, 1541.52],[3948.88, 1253.18],[3949.88, 1205.29],[3961.85, 1465.69],[3965.84, 1097.54],[3965.84, 1414.81],[3966.84, 1149.42],[3968.83, 1357.94],[3979.81, 1303.07],[3997.77, 1249.19],[4004.75, 1477.67],[4010.74, 1211.28],[4015.72, 1420.8],[4022.71, 1096.55],[4022.71, 1152.42],[4024.7, 1374.9],[4035.68, 1315.04],[4044.66, 1267.15],[4051.64, 1209.29],[4058.62, 1537.53],[4060.62, 1424.79],[4062.62, 1152.42],[4067.6, 1486.65],[4075.59, 1114.5],[4075.59, 1377.9],[4091.55, 1323.02],[4099.53, 1280.12],[4104.52, 1544.51],[4109.51, 1440.75],[4112.5, 1502.61],[4124.47, 1165.39],[4125.47, 1206.29],[4130.46, 1113.51],[4132.45, 1338.99],[4132.45, 1383.88],[4151.41, 1547.5],[4159.39, 1500.61],[4161.39, 1274.14],[4169.37, 1409.82],[4169.37, 1445.74],[4170.37, 1179.35],[4170.37, 1238.22],[4178.35, 1133.46],[4183.34, 1353.95],[4197.3, 1291.1]]},"properties":{"objectType":"annotation"}},{"type":"Feature","id":"4ccc0ada-0b72-491d-85b6-bd450037f733","geometry":{"type":"Polygon","coordinates":[[[6044.77, 306.85],[6044.77, 817.81],[6555.73, 817.81],[6555.73, 306.85],[6044.77, 306.85]]]},"properties":{"objectType":"annotation","classification":{"name":"2","color":[186, 153, 157]}}},{"type":"Feature","id":"a232571f-fbe9-4284-86e6-f9547ed81115","geometry":{"type":"MultiPoint","coordinates":[[6195.18, 3242.37],[6196.17, 3064.78],[6200.17, 3010.91],[6200.17, 3293.26],[6206.15, 3124.64],[6213.14, 3335.16],[6214.13, 2913.13],[6214.13, 3182.51],[6246.06, 3081.74],[6248.05, 2879.21],[6250.05, 2976.99],[6251.05, 3141.61],[6252.05, 3038.84],[6253.04, 3199.47],[6255.04, 3266.32],[6257.03, 3310.22],[6296.94, 3356.11],[6299.93, 3160.56],[6300.93, 3215.44],[6303.93, 2888.19],[6304.92, 2996.94],[6306.92, 3047.82],[6308.91, 2939.07],[6308.91, 3252.35],[6310.91, 3105.69],[6337.85, 3060.79],[6349.82, 3288.27],[6352.81, 3336.16],[6356.8, 3198.47],[6357.8, 3022.88],[6358.8, 3237.38],[6360.79, 3132.63],[6363.79, 2913.13],[6365.78, 2959.03],[6396.71, 3093.72],[6398.71, 3261.33],[6401.7, 3316.2],[6407.69, 3043.83],[6418.66, 3215.44],[6420.66, 2982.97],[6421.65, 2940.07],[6426.64, 2880.21],[6452.58, 3159.56],[6460.56, 3229.4],[6462.56, 3063.79],[6462.56, 3331.17],[6464.55, 3267.32],[6469.54, 3116.66],[6478.52, 2910.14],[6478.52, 3005.92],[6521.42, 3187.5],[6521.42, 3246.36],[6522.42, 2877.22],[6526.41, 3021.88],[6528.41, 3143.6],[6530.4, 3091.72],[6533.4, 2972],[6534.39, 3338.15],[6572.31, 2888.19],[6576.3, 3008.91],[6578.29, 3225.41],[6578.29, 3282.28],[6584.28, 2940.07],[6586.27, 3330.17],[6589.27, 3056.8],[6589.27, 3123.65],[6621.19, 3342.14],[6635.16, 3252.35],[6638.15, 3029.86],[6640.15, 2921.11],[6640.15, 3181.51],[6643.14, 3068.77]]},"properties":{"objectType":"annotation"}},{"type":"Feature","id":"d7060c3b-773d-4c89-a01b-fc8117880857","geometry":{"type":"MultiPoint","coordinates":[[6169.24, 2786.43],[6170.23, 2837.31],[6174.23, 2523.03],[6175.22, 2623.8],[6180.21, 2710.6],[6207.15, 2820.35],[6211.14, 2864.25],[6216.13, 2486.12],[6219.12, 2912.14],[6220.12, 2640.76],[6220.12, 2685.66],[6221.12, 2741.53],[6242.07, 2836.31],[6246.06, 2617.81],[6252.05, 2559.95],[6255.04, 2771.46],[6259.03, 2889.19],[6261.02, 2720.58],[6265.02, 2668.7],[6269.01, 2506.07],[6301.93, 2834.31],[6302.93, 2718.58],[6306.92, 2476.14],[6307.92, 2776.45],[6309.91, 2524.03],[6313.9, 2569.93],[6313.9, 2616.82],[6313.9, 2932.09],[6314.9, 2672.69],[6316.9, 2893.18],[6352.81, 2588.88],[6353.81, 2755.5],[6358.8, 2695.64],[6361.79, 2800.39],[6363.79, 2910.14],[6364.78, 2860.25],[6365.78, 2539],[6365.78, 2636.77],[6368.78, 2479.14],[6368.78, 2951.05],[6410.68, 2722.57],[6410.68, 2764.48],[6411.68, 2569.93],[6415.67, 2609.83],[6415.67, 2820.35],[6421.65, 2508.07],[6422.65, 2655.73],[6426.64, 2882.2],[6428.64, 2946.06],[6460.56, 2914.13],[6468.55, 2789.42],[6469.54, 2469.16],[6469.54, 2751.51],[6474.53, 2675.68],[6479.52, 2636.77],[6490.49, 2580.9],[6518.43, 2877.22],[6522.42, 2548.97],[6524.42, 2504.08],[6524.42, 2763.48],[6527.41, 2824.34],[6535.39, 2717.58],[6566.32, 2892.18],[6568.31, 2635.77],[6574.3, 2579.9],[6577.29, 2520.04],[6581.29, 2684.66],[6584.28, 2952.04],[6592.26, 2740.53],[6593.26, 2798.4],[6626.18, 2638.77],[6630.17, 2920.12],[6637.16, 2745.52],[6639.15, 2592.87],[6644.14, 2552.96],[6646.14, 2486.12]]},"properties":{"objectType":"annotation"}},{"type":"Feature","id":"ae3fa14a-aee5-435c-b8dc-b26ea812c5c5","geometry":{"type":"MultiPoint","coordinates":[[3269.73, 1850.4],[3287.72, 2013.23],[3296.72, 1750.54],[3306.62, 1691.17],[3312.01, 1962.85],[3312.91, 2128.38],[3317.41, 2069.01],[3318.31, 1909.78],[3325.51, 1850.4],[3344.4, 1799.12],[3351.6, 1997.94],[3359.69, 1735.25],[3368.69, 2132.88],[3373.19, 1916.97],[3379.49, 2032.12],[3386.68, 1863],[3388.48, 2095.1],[3398.38, 1816.89],[3399.28, 1760.44],[3404.67, 1977.25],[3414.57, 1710.96],[3419.3, 1931.94],[3421.77, 2146.37],[3433.46, 2097.79],[3435.26, 1884.59],[3449.66, 1835.11],[3454.15, 1767.64],[3455.95, 2042.02],[3460.45, 1992.54],[3473.94, 1945.76],[3482.94, 1891.78],[3486.54, 2107.69],[3488.34, 1705.56],[3498.23, 1834.21],[3502.73, 2045.62],[3510.83, 1780.23],[3510.83, 1997.04],[3518.03, 1737.05],[3524.32, 2162.57],[3527.92, 1952.06],[3530.62, 1692.07],[3531.52, 2116.69],[3534.22, 1897.18],[3547.71, 2060.91],[3554.01, 1826.11],[3563.01, 1792.83],[3570.2, 2131.08],[3571.1, 2002.44],[3578.3, 1953.86],[3580.1, 1696.57],[3589.1, 1909.78],[3598.99, 2069.91],[3608.89, 1854],[3610.69, 2022.23],[3619.68, 1805.42],[3625.98, 1968.25],[3631.38, 1756.84],[3635.88, 1912.47],[3639.47, 1702.86],[3641.27, 2140.08],[3652.07, 1863.9],[3661.96, 2077.1],[3662.86, 1818.91],[3674.56, 2024.03],[3679.96, 1981.74],[3681.76, 1764.04],[3688.05, 1719.96],[3696.15, 1921.47],[3696.15, 2149.07],[3706.94, 1876.49],[3707.84, 2096],[3718.64, 2051.01],[3729.43, 1824.31],[3730.33, 1998.84],[3737.53, 1778.43],[3746.53, 2153.57],[3749.23, 1933.17],[3753.72, 1729.85],[3756.42, 2118.49]]},"properties":{"objectType":"annotation"}},{"type":"Feature","id":"750772d5-e2a7-4fa5-9f2a-2d33f65d1485","geometry":{"type":"MultiPoint","coordinates":[[6245.06, 2389.34],[6252.05, 2352.43],[6258.03, 2450.2],[6261.02, 2551.97],[6261.02, 2618.81],[6265.02, 2281.59],[6265.02, 2501.08],[6271, 2194.79],[6304.92, 2474.15],[6307.92, 2518.05],[6308.91, 2573.92],[6312.9, 2348.44],[6315.9, 2408.3],[6316.9, 2614.82],[6318.89, 2297.55],[6322.88, 2234.7],[6349.82, 2375.37],[6351.81, 2588.88],[6360.79, 2528.02],[6362.79, 2422.27],[6364.78, 2323.49],[6366.78, 2211.75],[6366.78, 2636.77],[6367.78, 2261.64],[6370.77, 2474.15],[6376.76, 2162.87],[6413.67, 2393.33],[6415.67, 2559.95],[6415.67, 2608.84],[6418.66, 2184.81],[6421.65, 2455.19],[6429.64, 2285.58],[6429.64, 2507.07],[6431.63, 2344.45],[6464.55, 2419.27],[6468.55, 2531.02],[6477.52, 2585.89],[6478.52, 2633.78],[6479.01, 2164.63],[6481.52, 2263.63],[6485.51, 2304.54],[6486.5, 2474.15],[6491.49, 2367.39],[6519.43, 2498.09],[6520.43, 2548.97],[6522.42, 2173.84],[6524.42, 2221.73],[6531.4, 2391.34],[6533.4, 2277.6],[6534.39, 2333.47],[6539.38, 2437.23],[6569.31, 2412.29],[6570.31, 2634.78],[6577.29, 2194.79],[6577.29, 2576.91],[6582.28, 2465.17],[6582.28, 2514.05],[6588.27, 2307.53],[6590.26, 2244.68],[6591.26, 2358.41],[6629.17, 2389.34],[6629.17, 2643.75],[6634.16, 2326.49],[6635.16, 2429.25],[6637.16, 2267.62],[6637.16, 2588.88],[6643.14, 2215.74],[6643.14, 2539.99],[6645.14, 2483.13],[6649.13, 2153.89],[6682.05, 2612.83],[6688.04, 2190.8],[6690.03, 2457.19],[6695.02, 2565.93],[6696.02, 2408.3],[6699.01, 2238.69],[6700.01, 2356.42]]},"properties":{"objectType":"annotation"}},{"type":"Feature","id":"59f46e35-05a6-4ea5-a294-6182183a83da","geometry":{"type":"MultiPoint","coordinates":[[2451.2, 3874.63],[2454.52, 3688.75],[2455.63, 3923.32],[2468.9, 3631.21],[2471.12, 3823.74],[2481.07, 3580.31],[2493.25, 3500.65],[2495.46, 3767.31],[2507.63, 3721.94],[2509.84, 3915.57],[2514.27, 3671.04],[2515.37, 3870.21],[2528.65, 3815.99],[2534.18, 3967.58],[2535.29, 3621.25],[2538.61, 3573.67],[2543.04, 3769.52],[2554.1, 3521.67],[2565.17, 3676.57],[2566.27, 3895.66],[2581.76, 3612.4],[2583.98, 3798.29],[2586.19, 3850.29],[2593.93, 3749.6],[2598.36, 3574.78],[2601.68, 3700.92],[2611.64, 3945.45],[2612.74, 3503.97],[2622.7, 3900.08],[2633.77, 3788.33],[2639.3, 3838.12],[2647.04, 3601.33],[2650.36, 3740.75],[2652.58, 3976.43],[2658.11, 3694.28],[2660.32, 3549.33],[2661.43, 3491.79],[2664.75, 3936.6],[2676.92, 3894.55],[2679.13, 3641.17],[2690.2, 3572.57],[2690.2, 3842.55],[2704.58, 3977.54],[2707.9, 3522.78],[2707.9, 3773.94],[2709.01, 3933.28],[2721.18, 3729.69],[2728.92, 3870.21],[2733.35, 3684.32],[2747.73, 3626.78],[2752.16, 3818.2],[2757.69, 3580.31],[2767.65, 3763.99],[2769.86, 3953.19],[2779.82, 3520.56],[2783.14, 3718.62],[2788.67, 3669.94],[2789.78, 3856.93],[2807.48, 3620.14],[2809.7, 3812.67],[2817.44, 3958.73],[2818.55, 3902.3],[2824.08, 3564.82],[2824.08, 3762.88],[2829.61, 3513.92],[2832.93, 3707.56],[2834.04, 3858.04],[2851.74, 3665.51],[2865.02, 3806.03],[2869.45, 3600.23],[2872.77, 3757.35],[2880.51, 3944.34],[2884.94, 3503.97],[2884.94, 3553.76],[2890.47, 3705.34],[2892.68, 3896.76],[2905.96, 3845.87],[2911.49, 3656.66],[2915.92, 3598.02],[2925.88, 3801.61],[2928.09, 3532.73],[2936.94, 3752.92]]},"properties":{"objectType":"annotation"}},{"type":"Feature","id":"ab488470-2f35-40a7-8f11-0a2f54ecf06b","geometry":{"type":"MultiPoint","coordinates":[[2813.37, 3817.82],[2820.73, 3773.64],[2826.86, 3897.58],[2826.86, 3954.03],[2834.23, 3714.74],[2842.82, 3858.31],[2850.18, 4033.79],[2855.09, 3657.06],[2858.77, 3809.23],[2873.49, 3762.6],[2880.86, 3951.57],[2883.31, 4091.46],[2894.36, 3706.15],[2901.72, 3887.76],[2905.4, 3849.72],[2906.63, 4048.51],[2917.67, 3990.84],[2918.9, 3650.93],[2918.9, 3816.59],[2932.4, 3754.01],[2947.12, 3931.94],[2952.03, 3884.08],[2953.26, 3692.65],[2954.48, 4089.01],[2966.75, 3641.11],[2966.75, 4026.42],[2969.21, 3836.22],[2982.71, 3978.57],[2983.93, 3792.05],[2992.52, 3925.8],[2993.75, 3734.37],[3007.25, 3688.97],[3009.7, 3871.81],[3010.93, 4055.88],[3017.07, 4017.83],[3025.66, 3823.95],[3026.88, 3647.25],[3035.47, 3972.43],[3047.74, 3718.42],[3047.74, 3771.19],[3060.01, 3913.53],[3063.7, 4055.88],[3064.92, 3857.08],[3066.15, 3677.93],[3079.65, 3800.64],[3080.88, 3625.16],[3088.24, 3949.12],[3088.24, 4016.61],[3095.6, 3750.33],[3107.87, 3903.71],[3107.87, 4100.05],[3110.33, 3717.19],[3118.92, 3859.54],[3120.14, 3668.11],[3122.6, 4042.38],[3131.19, 4004.34],[3141, 3804.32],[3144.69, 3594.48],[3147.14, 3941.75],[3149.59, 3744.19],[3164.32, 4087.78],[3166.77, 3707.38],[3177.82, 3583.44],[3177.82, 3642.34],[3180.27, 3881.63],[3183.95, 3836.22],[3185.18, 4036.24],[3196.22, 3976.11],[3199.91, 3785.91],[3214.63, 3734.37],[3218.31, 3929.48],[3226.9, 4071.83],[3230.58, 3890.22],[3231.81, 3679.15],[3233.04, 3644.79],[3237.95, 3837.45],[3237.95, 4037.47],[3245.31, 3795.73],[3257.58, 3976.11],[3262.49, 3736.83],[3269.85, 3935.62],[3273.53, 3675.47],[3284.58, 4063.24],[3287.03, 3860.77]]},"properties":{"objectType":"annotation"}},{"type":"Feature","id":"1f17912c-8a14-4cb8-bb6f-5356ec7f735d","geometry":{"type":"MultiPoint","coordinates":[[3099.44, 3708.6],[3105.57, 3904.94],[3122.75, 3650.93],[3123.98, 4041.15],[3132.57, 3850.95],[3136.25, 4000.66],[3138.7, 3805.55],[3143.61, 3605.53],[3148.52, 3750.33],[3160.79, 3950.34],[3171.84, 3704.92],[3174.29, 3901.26],[3176.75, 3847.27],[3182.88, 4041.15],[3184.11, 3652.16],[3197.61, 3590.8],[3202.51, 3979.79],[3203.74, 3784.68],[3213.56, 3925.8],[3214.79, 3735.6],[3220.92, 3879.17],[3227.06, 3686.52],[3231.96, 3637.43],[3234.42, 3831.31],[3238.1, 4027.65],[3247.92, 3785.91],[3256.51, 3739.28],[3262.64, 3972.43],[3265.1, 3582.21],[3265.1, 3928.26],[3277.37, 3679.15],[3278.59, 3864.45],[3292.09, 3816.59],[3294.55, 4025.2],[3299.46, 3622.71],[3306.82, 3968.75],[3310.5, 3772.41],[3316.64, 3927.03],[3324, 3864.45],[3332.59, 3703.7],[3337.5, 3665.65],[3338.72, 4059.56],[3339.95, 3808],[3344.86, 3610.43],[3349.77, 3769.96],[3358.36, 4019.06],[3366.95, 3961.39],[3377.99, 3712.28],[3386.58, 3893.9],[3393.94, 3853.4],[3406.21, 3650.93],[3409.9, 3988.38],[3412.35, 3801.86],[3420.94, 3606.75],[3420.94, 3754.01],[3425.85, 3951.57],[3435.67, 3688.97],[3436.89, 3897.58],[3451.62, 3842.36],[3455.3, 3642.34],[3461.43, 3588.35],[3461.43, 4028.88],[3465.12, 3787.14],[3466.34, 3978.57],[3476.16, 3747.87],[3482.3, 3938.07],[3497.02, 3897.58],[3500.7, 3691.42],[3506.84, 3619.02],[3510.52, 3842.36],[3512.97, 4030.11],[3522.79, 3985.93],[3525.24, 3774.87],[3539.97, 3930.71],[3548.56, 3688.97],[3548.56, 3723.33],[3557.15, 3873.04],[3564.51, 4055.88],[3565.74, 3626.39],[3574.33, 4017.83],[3575.56, 3815.36],[3579.24, 3768.73]]},"properties":{"objectType":"annotation"}},{"type":"Feature","id":"0a395fba-5404-4716-b965-2bfea08b9ae8","geometry":{"type":"MultiPoint","coordinates":[[3671.01, 3850.67],[3676.41, 4036.89],[3685.41, 3795.8],[3686.31, 3743.62],[3689.01, 3997.31],[3702.5, 3938.84],[3711.5, 3685.15],[3715.09, 4128.65],[3717.79, 3896.55],[3727.69, 4079.18],[3734.89, 3845.28],[3734.89, 4033.3],[3749.28, 3981.12],[3753.78, 3777.81],[3756.48, 4133.15],[3763.67, 3938.84],[3769.97, 4072.88],[3775.37, 3878.56],[3778.97, 3680.65],[3787.06, 3829.08],[3790.66, 4012.6],[3798.76, 3780.5],[3807.75, 3963.13],[3820.35, 3728.33],[3822.15, 4109.76],[3827.55, 3903.75],[3829.35, 3666.25],[3837.44, 3866.87],[3838.34, 4068.38],[3850.04, 3823.69],[3856.33, 4011.71],[3863.53, 3761.61],[3869.83, 3965.82],[3870.73, 3909.15],[3872.53, 3698.64],[3877.02, 3659.96],[3880.62, 4112.46],[3893.22, 3849.77],[3894.12, 4064.78],[3900.41, 4007.21],[3915.71, 3800.3],[3922.01, 3947.83],[3929.2, 3741.82],[3936.4, 3901.05],[3938.2, 3694.14],[3943.6, 4084.57],[3951.69, 4032.4],[3953.49, 3843.48],[3957.09, 3803.89],[3972.38, 3987.42],[3975.98, 3732.82],[3981.38, 3695.04],[3984.08, 4130.45],[3985.88, 3938.84],[3986.78, 4090.87],[4004.77, 3876.76],[4010.17, 3831.78],[4012.87, 4035.09],[4020.06, 3782.3],[4025.46, 3973.92],[4033.56, 4121.46],[4040.75, 3910.95],[4041.65, 3720.23],[4052.45, 3675.25],[4056.95, 3883.06],[4059.65, 4064.78],[4060.55, 3830.88],[4066.84, 4009.91],[4077.64, 3961.33],[4082.14, 3767.91],[4092.03, 4116.06],[4092.93, 3914.55],[4111.82, 4061.18],[4113.62, 3863.27],[4116.32, 3696.84],[4128.02, 3816.49],[4131.62, 4011.71],[4145.11, 3751.72],[4147.81, 3941.54],[4160.4, 3895.65]]},"properties":{"objectType":"annotation"}},{"type":"Feature","id":"46d96364-b367-43ae-9974-e7d962ea0f63","geometry":{"type":"MultiPoint","coordinates":[[7523.49, 3692.08],[7524.85, 3912.55],[7534.38, 3961.54],[7541.18, 3753.32],[7545.27, 3531.49],[7560.24, 3800.95],[7565.68, 3871.72],[7568.4, 3583.21],[7579.29, 3960.18],[7582.01, 3903.02],[7591.54, 3645.81],[7598.34, 3694.8],[7599.7, 3724.74],[7605.15, 3527.41],[7609.23, 3788.7],[7625.56, 3579.13],[7625.56, 3841.78],[7626.92, 3890.77],[7637.81, 3617.23],[7643.25, 3957.45],[7645.97, 3639],[7647.33, 3689.36],[7665.03, 3513.8],[7665.03, 3781.9],[7667.75, 3731.55],[7673.19, 3555.99],[7677.27, 3840.42],[7682.72, 3622.67],[7684.08, 3938.4],[7686.8, 3673.03],[7688.16, 3889.41],[7703.13, 3712.49],[7715.38, 3775.09],[7716.74, 3504.28],[7728.99, 3566.88],[7728.99, 3618.59],[7731.71, 3885.33],[7735.79, 3825.45],[7741.24, 3913.91],[7745.32, 3673.03],[7746.68, 3726.1],[7758.93, 3487.95],[7771.18, 3777.82],[7772.54, 3813.2],[7780.7, 3561.43],[7783.42, 3863.55],[7791.59, 3610.43],[7791.59, 3660.78],[7805.2, 3934.32],[7806.56, 3701.61],[7824.25, 3762.85],[7828.33, 3494.75],[7828.33, 3543.74],[7836.5, 3603.62],[7836.5, 3821.36],[7851.47, 3653.97],[7851.47, 3860.83],[7851.47, 3911.18],[7865.08, 3953.37],[7867.8, 3701.61],[7869.16, 3497.47],[7875.96, 3753.32],[7886.85, 3549.19],[7888.21, 3796.87],[7893.66, 3595.46],[7903.18, 3640.37],[7903.18, 3858.11],[7915.43, 3697.52],[7915.43, 3915.27],[7922.24, 3743.79],[7926.32, 3500.19],[7927.68, 3957.45],[7941.29, 3845.86],[7946.73, 3791.43],[7948.09, 3543.74],[7953.54, 3599.54],[7960.34, 3651.25],[7965.78, 3893.49],[7967.15, 3957.45],[7975.31, 3736.99],[7990.28, 3788.7],[7994.36, 3536.94],[7999.81, 3572.32],[8012.05, 3624.03]]},"properties":{"objectType":"annotation"}},{"type":"Feature","id":"7cf1edfe-91a3-4025-bade-20e8a5d130c2","geometry":{"type":"MultiPoint","coordinates":[[6961.44, 3271.56],[6969.61, 3312.39],[6985.94, 3394.04],[6996.83, 3179.02],[6998.19, 3467.53],[7018.6, 3236.18],[7022.68, 3268.84],[7022.68, 3517.89],[7025.4, 3580.49],[7030.85, 3330.08],[7034.93, 3387.24],[7044.46, 3149.08],[7056.71, 3474.34],[7059.43, 3189.91],[7067.59, 3251.15],[7083.92, 3296.06],[7089.37, 3345.05],[7092.09, 3549.19],[7093.45, 3626.76],[7094.81, 3147.72],[7101.61, 3407.65],[7107.06, 3452.56],[7112.5, 3184.47],[7123.39, 3237.54],[7124.75, 3549.19],[7127.47, 3511.08],[7131.55, 3291.98],[7138.36, 3345.05],[7145.16, 3607.7],[7157.41, 3173.58],[7158.77, 3399.49],[7172.38, 3242.98],[7175.1, 3448.48],[7175.1, 3546.46],[7180.55, 3293.34],[7188.71, 3487.95],[7191.43, 3331.44],[7191.43, 3621.31],[7205.04, 3388.6],[7213.21, 3434.87],[7214.57, 3177.66],[7217.29, 3221.21],[7226.82, 3481.14],[7234.98, 3535.58],[7248.59, 3282.45],[7248.59, 3592.73],[7251.31, 3338.25],[7256.76, 3451.2],[7258.12, 3392.68],[7267.64, 3181.74],[7278.53, 3497.47],[7285.34, 3241.62],[7286.7, 3555.99],[7297.58, 3296.06],[7308.47, 3594.1],[7309.83, 3335.52],[7322.08, 3436.23],[7327.52, 3385.88],[7332.97, 3225.29],[7335.69, 3498.83],[7339.77, 3283.81],[7354.74, 3327.36],[7354.74, 3389.96],[7354.74, 3564.16],[7356.1, 3602.26],[7369.71, 3165.41],[7372.43, 3443.04],[7376.52, 3489.31],[7387.4, 3211.68],[7395.57, 3271.56],[7405.09, 3549.19],[7414.62, 3326],[7418.7, 3602.26],[7424.15, 3377.71],[7426.87, 3166.77],[7428.23, 3430.79],[7437.76, 3492.03],[7440.48, 3219.85],[7448.64, 3271.56],[7452.73, 3539.66]]},"properties":{"objectType":"annotation"}},{"type":"Feature","id":"dece5a46-b014-4b86-a9ef-545c3577eb6f","geometry":{"type":"MultiPoint","coordinates":[[7461.58, 3313.75],[7461.58, 3595.46],[7479.27, 3370.91],[7479.27, 3641.73],[7480.63, 3211.68],[7486.07, 3161.33],[7487.44, 3417.18],[7488.8, 3478.42],[7498.32, 3262.04],[7505.13, 3313.75],[7507.85, 3530.13],[7516.01, 3584.57],[7524.18, 3637.64],[7528.26, 3370.91],[7533.71, 3426.7],[7545.95, 3475.7],[7565.01, 3539.66],[7566.37, 3583.21],[7569.09, 3272.92],[7570.45, 3306.95],[7575.89, 3636.28],[7581.34, 3369.55],[7584.06, 3467.53],[7600.39, 3191.27],[7601.75, 3411.74],[7608.56, 3531.49],[7611.28, 3256.59],[7622.16, 3583.21],[7626.25, 3302.86],[7634.41, 3351.86],[7634.41, 3617.23],[7648.02, 3406.29],[7654.83, 3456.64],[7656.19, 3195.35],[7658.91, 3497.47],[7664.35, 3561.43],[7671.16, 3251.15],[7672.52, 3301.5],[7682.04, 3630.84],[7698.38, 3354.58],[7701.1, 3188.55],[7703.82, 3458.01],[7720.15, 3511.08],[7721.51, 3257.95],[7725.59, 3298.78],[7728.31, 3554.63],[7731.04, 3625.4],[7747.37, 3354.58],[7748.73, 3399.49],[7754.17, 3451.2],[7762.34, 3181.74],[7773.22, 3244.34],[7775.95, 3486.58],[7785.47, 3553.27],[7786.83, 3283.81],[7790.92, 3607.7],[7795, 3340.97],[7803.16, 3388.6],[7803.16, 3453.92],[7811.33, 3172.22],[7819.49, 3545.1],[7827.66, 3496.11],[7830.38, 3287.89],[7835.83, 3240.26],[7845.35, 3602.26],[7846.71, 3339.61],[7846.71, 3391.32],[7860.32, 3440.31],[7867.13, 3168.13],[7867.13, 3504.28],[7882.1, 3234.82],[7883.46, 3554.63],[7886.18, 3549.19],[7886.18, 3595.46],[7895.71, 3336.89],[7899.79, 3285.17],[7922.92, 3383.16],[7922.92, 3438.95],[7924.28, 3165.41],[7924.28, 3210.32],[7925.64, 3504.28]]},"properties":{"objectType":"annotation"}},{"type":"Feature","id":"f3bbca27-5f28-4ea7-95d6-b5b8a85999ea","geometry":{"type":"MultiPoint","coordinates":[[7279.22, 3500.19],[7287.38, 3264.76],[7299.63, 3549.19],[7300.99, 3332.8],[7303.71, 3649.89],[7306.44, 3595.46],[7315.96, 3398.13],[7320.05, 3432.15],[7320.05, 3702.97],[7335.02, 3278.37],[7343.18, 3496.11],[7355.43, 3607.7],[7356.79, 3539.66],[7359.51, 3338.25],[7367.68, 3389.96],[7373.12, 3649.89],[7374.48, 3444.4],[7374.48, 3700.25],[7392.17, 3496.11],[7400.34, 3527.41],[7404.42, 3271.56],[7404.42, 3331.44],[7411.23, 3599.54],[7420.75, 3651.25],[7422.11, 3385.88],[7422.11, 3697.52],[7434.36, 3493.39],[7439.8, 3436.23],[7452.05, 3271.56],[7465.66, 3321.92],[7467.02, 3598.18],[7471.1, 3542.38],[7473.83, 3639],[7475.19, 3682.55],[7479.27, 3372.27],[7487.44, 3428.07],[7491.52, 3493.39],[7502.41, 3271.56],[7505.13, 3592.73],[7514.65, 3527.41],[7518.74, 3379.07],[7524.18, 3317.83],[7532.35, 3637.64],[7533.71, 3481.14],[7539.15, 3422.62],[7545.95, 3685.28],[7545.95, 3742.43],[7547.32, 3267.48],[7551.4, 3520.61],[7560.92, 3580.49],[7571.81, 3319.19],[7573.17, 3640.37],[7577.25, 3370.91],[7589.5, 3475.7],[7590.86, 3686.64],[7597.67, 3418.54],[7599.03, 3735.63],[7611.28, 3526.05],[7612.64, 3263.4],[7619.44, 3575.04],[7622.16, 3357.3],[7628.97, 3304.22],[7634.41, 3674.39],[7635.77, 3625.4],[7653.47, 3409.01],[7653.47, 3470.25],[7657.55, 3728.82],[7658.91, 3498.83],[7668.44, 3573.68],[7672.52, 3312.39],[7684.77, 3621.31],[7686.13, 3677.11],[7691.57, 3361.38],[7703.82, 3463.45],[7705.18, 3709.77],[7714.71, 3496.11],[7718.79, 3564.16],[7725.59, 3291.98],[7746.01, 3673.03],[7751.45, 3452.56],[7751.45, 3611.79],[7752.81, 3361.38],[7752.81, 3394.04],[7759.62, 3736.99],[7769.14, 3557.35]]},"properties":{"objectType":"annotation"}},{"type":"Feature","id":"17231067-e2ef-452f-a5f0-f8e33f35ce09","geometry":{"type":"MultiPoint","coordinates":[[24.62, 2939.91],[27.07, 2761.98],[54.07, 3017.22],[57.75, 2846.65],[63.88, 2982.86],[70.02, 3131.34],[85.97, 2754.62],[89.65, 2943.59],[92.11, 2894.51],[92.11, 3068.76],[111.74, 3165.7],[121.56, 2777.93],[121.56, 3028.26],[127.69, 2818.43],[141.19, 3109.25],[144.87, 2919.05],[152.23, 2723.94],[160.82, 3054.03],[165.73, 2856.47],[169.41, 3014.76],[178, 2815.97],[185.37, 2959.54],[195.18, 3155.88],[197.64, 2768.11],[206.23, 2919.05],[207.45, 3098.21],[209.91, 2719.03],[228.32, 2858.92],[233.22, 3051.58],[244.27, 2995.13],[245.5, 3186.56],[249.18, 2802.47],[254.08, 3128.88],[260.22, 2936.23],[268.81, 2892.05],[276.17, 3087.16],[282.31, 3041.76],[290.9, 2796.34],[294.58, 3179.2],[299.49, 2988.99],[301.94, 2847.88],[309.3, 3117.84],[320.35, 2732.53],[320.35, 2930.09],[325.26, 3074.89],[335.07, 2884.69],[344.89, 3028.26],[351.03, 3170.61],[352.25, 2833.15],[360.84, 2966.91],[362.07, 2779.16],[375.57, 2904.32],[380.48, 3116.61],[389.07, 2732.53],[396.43, 2867.51],[402.57, 3067.53],[405.02, 3189.01],[417.29, 3141.15],[419.74, 2806.15],[419.74, 3004.95],[433.24, 2752.16],[441.83, 3095.75],[445.51, 2899.41],[455.33, 3191.47],[462.69, 3040.53],[463.92, 2835.6],[472.51, 2980.4],[484.78, 2804.93],[484.78, 2943.59],[488.46, 2733.75],[489.69, 3141.15]]},"properties":{"objectType":"annotation"}},{"type":"Feature","id":"bcaca551-eccd-4672-a172-9a580185f42a","geometry":{"type":"MultiPoint","coordinates":[[6989.05, 1113.6],[6991.51, 982.3],[6997.64, 858.37],[7006.23, 1031.39],[7012.37, 1197.05],[7017.28, 891.5],[7023.41, 1069.43],[7027.09, 814.19],[7028.32, 1235.09],[7034.46, 933.22],[7040.59, 984.76],[7040.59, 1132.01],[7043.05, 1280.49],[7062.68, 859.59],[7070.04, 1059.61],[7077.41, 1189.69],[7086, 902.54],[7093.36, 1100.11],[7099.49, 1240],[7101.95, 1293.99],[7105.63, 1143.05],[7108.08, 961.44],[7114.22, 832.6],[7114.22, 1028.93],[7124.04, 876.77],[7125.26, 1190.91],[7135.08, 1227.73],[7142.44, 1075.56],[7151.03, 1269.45],[7155.94, 967.58],[7159.62, 1114.83],[7160.85, 853.46],[7173.12, 1157.78],[7174.35, 1019.12],[7180.48, 892.72],[7181.71, 1051.02],[7189.07, 1201.96],[7203.8, 1087.84],[7207.48, 1251.04],[7208.71, 1118.51],[7217.3, 1290.31],[7218.52, 851],[7219.75, 1025.25],[7220.98, 970.03],[7222.2, 941.81],[7227.11, 890.27],[7229.57, 1173.73],[7241.84, 1068.2],[7246.75, 830.14],[7246.75, 1226.5],[7257.79, 1111.15],[7272.52, 1134.47],[7276.2, 994.57],[7278.65, 873.09],[7286.01, 1201.96],[7288.47, 1025.25],[7292.15, 923.4],[7306.88, 1238.77],[7308.1, 811.74],[7313.01, 968.81],[7320.37, 1266.99],[7328.96, 857.14],[7328.96, 1024.03],[7336.33, 1113.6],[7346.14, 903.77],[7358.41, 1051.02],[7362.1, 1200.73],[7368.23, 841.19],[7368.23, 950.4],[7369.46, 1243.68],[7379.27, 1084.15],[7384.18, 1292.76],[7392.77, 1124.65],[7396.45, 881.68],[7400.14, 922.18],[7408.73, 1033.84],[7414.86, 808.05],[7416.09, 971.26],[7421, 1172.51],[7425.9, 1214.23],[7434.49, 1112.38],[7439.4, 1262.08],[7440.63, 846.09],[7441.86, 1147.96],[7447.99, 1038.75],[7463.95, 884.14]]},"properties":{"objectType":"annotation"}},{"type":"Feature","id":"635cc3c0-c39b-4e46-bbdf-707af3294cea","geometry":{"type":"MultiPoint","coordinates":[[7436.85, 845.74],[7444.21, 1105.89],[7450.35, 1150.06],[7451.57, 750.03],[7456.48, 992.99],[7461.39, 1042.08],[7462.62, 894.82],[7463.84, 779.48],[7473.66, 1077.66],[7476.12, 1211.42],[7477.34, 945.14],[7482.25, 981.95],[7487.16, 828.56],[7499.43, 1113.25],[7505.57, 765.98],[7511.7, 876.42],[7515.38, 903.41],[7516.61, 1145.15],[7519.06, 1035.94],[7528.88, 804.02],[7538.7, 1185.65],[7539.93, 941.45],[7542.38, 746.34],[7549.74, 1085.03],[7552.2, 875.19],[7571.83, 1023.67],[7575.51, 1125.52],[7580.42, 914.46],[7585.33, 1167.24],[7589.01, 821.2],[7597.6, 1065.39],[7601.28, 741.44],[7606.19, 957.41],[7611.1, 1109.57],[7616.01, 866.6],[7623.37, 785.61],[7627.05, 999.13],[7627.05, 1147.61],[7633.19, 923.05],[7636.87, 1039.62],[7647.91, 1190.56],[7649.14, 835.92],[7662.64, 1080.12],[7665.09, 966],[7666.32, 1129.2],[7672.45, 731.62],[7674.91, 872.74],[7688.41, 778.25],[7688.41, 1015.08],[7692.09, 1170.92],[7698.22, 815.06],[7698.22, 903.41],[7704.36, 1201.6],[7717.86, 1086.25],[7728.9, 952.5],[7736.26, 876.42],[7739.94, 980.72],[7746.08, 769.66],[7747.31, 1131.66],[7766.94, 1023.67],[7776.76, 819.97],[7780.44, 1064.17],[7784.12, 864.15],[7787.8, 961.09],[7791.48, 1199.15],[7797.62, 743.89],[7800.07, 1109.57],[7806.21, 996.67],[7811.12, 900.96],[7822.16, 1174.6],[7827.07, 800.34],[7840.57, 936.55],[7841.79, 729.16],[7841.79, 1054.35],[7849.16, 1109.57],[7854.06, 842.06],[7858.97, 985.63],[7876.15, 775.79],[7877.38, 893.6],[7879.83, 1151.29],[7881.06, 1042.08],[7884.74, 950.04],[7885.97, 818.74],[7900.69, 1201.6],[7904.38, 738.98],[7914.19, 1089.93],[7916.65, 866.6],[7921.56, 985.63],[7938.74, 916.91],[7946.1, 813.83]]},"properties":{"objectType":"annotation"}},{"type":"Feature","id":"55810aa4-cbfb-4294-972a-49f34a14b3eb","geometry":{"type":"MultiPoint","coordinates":[[7438.88, 855.26],[7445.17, 747.31],[7448.77, 632.16],[7463.17, 777.9],[7464.96, 891.25],[7470.36, 679.84],[7476.66, 927.23],[7484.76, 724.82],[7488.35, 518.81],[7491.95, 976.71],[7495.55, 840.87],[7504.55, 555.69],[7506.35, 656.45],[7508.15, 762.6],[7518.04, 898.45],[7521.64, 807.58],[7530.64, 601.57],[7533.33, 695.13],[7538.73, 942.53],[7556.73, 770.7],[7561.22, 873.26],[7564.82, 528.7],[7569.32, 669.94],[7582.81, 911.04],[7584.61, 819.28],[7592.71, 567.39],[7596.31, 709.53],[7597.21, 953.32],[7605.3, 611.47],[7607.1, 996.5],[7610.7, 744.61],[7618.8, 866.96],[7626, 638.46],[7633.19, 542.2],[7635.89, 567.39],[7635.89, 785.09],[7638.59, 915.54],[7648.49, 680.74],[7648.49, 829.17],[7662.88, 628.56],[7663.78, 722.12],[7665.4, 527.35],[7673.67, 877.75],[7675.47, 965.02],[7687.17, 770.7],[7688.97, 663.65],[7693.47, 804.89],[7695.42, 582.51],[7701.56, 693.33],[7701.56, 917.34],[7723, 520.86],[7723.81, 642.53],[7724.95, 958.72],[7726.75, 848.97],[7729.45, 744.61],[7740.25, 782.39],[7740.25, 886.75],[7744.09, 553.3],[7748.14, 677.41],[7765.99, 589.81],[7769.93, 821.98],[7771.73, 954.22],[7772.48, 520.86],[7777.35, 716.35],[7783.84, 629.55],[7785.23, 863.36],[7791.95, 746.36],[7804.12, 991.11],[7805.74, 553.3],[7810.42, 903.84],[7812.23, 674.17],[7818.72, 587.37],[7825.21, 798.28],[7834.71, 929.03],[7840.62, 625.5],[7841.43, 716.35],[7844.67, 834.78],[7847.92, 542.76],[7857.65, 658.76],[7858.46, 869.66],[7859, 977.61],[7873.06, 769.89],[7874.69, 900.49],[7876.31, 595.48],[7881.18, 702.56],[7893.34, 533.84],[7900.64, 642.53],[7900.64, 825.05],[7900.64, 942.67],[7920.11, 674.17],[7923.36, 880.21],[7937.15, 593.86]]},"properties":{"objectType":"annotation"}},{"type":"Feature","id":"2979d258-b95d-429b-85cf-f23622214d6e","geometry":{"type":"MultiPoint","coordinates":[[7132.51, 1652.86],[7140.49, 1701.75],[7148.47, 1759.61],[7158.45, 2012.03],[7160.44, 1971.13],[7162.44, 2060.92],[7164.43, 1843.42],[7164.43, 1920.24],[7184.39, 1641.89],[7187.38, 1694.76],[7194.36, 1729.68],[7209.33, 1768.59],[7212.32, 1849.41],[7215.31, 1937.2],[7226.29, 2092.84],[7227.29, 2013.03],[7231.28, 2052.94],[7237.26, 1758.62],[7240.26, 1644.88],[7241.25, 1689.78],[7245.25, 1809.5],[7252.23, 1896.3],[7260.21, 1936.21],[7265.2, 1977.11],[7278.17, 2021.01],[7278.17, 2077.88],[7286.15, 1625.92],[7287.15, 1680.8],[7296.13, 1722.7],[7296.13, 1755.62],[7298.12, 1830.45],[7306.1, 1923.24],[7316.08, 1869.36],[7318.08, 1994.07],[7326.06, 2043.96],[7338.03, 1652.86],[7339.03, 2093.84],[7347.01, 1758.62],[7348.01, 1713.72],[7358.98, 1796.53],[7368.96, 1842.42],[7368.96, 1887.32],[7377.94, 1933.21],[7386.92, 1978.11],[7389.91, 1642.88],[7396.9, 1681.79],[7396.9, 1727.69],[7396.9, 2046.95],[7406.87, 1790.54],[7406.87, 1822.47],[7408.87, 1872.35],[7429.82, 2031.98],[7438.8, 1955.16],[7440.79, 1907.27],[7442.79, 1631.91],[7448.78, 2083.86],[7450.77, 1730.68],[7453.76, 1684.79],[7463.74, 1780.57],[7463.74, 1824.46],[7476.71, 1859.38],[7482.7, 1908.27],[7484.69, 1992.08],[7485.69, 1954.16],[7492.67, 1617.94],[7498.66, 2084.86],[7505.64, 1787.55],[7507.64, 1745.65],[7521.61, 1839.43],[7537.57, 1893.31],[7547.55, 2035.98],[7549.54, 2085.86],[7550.54, 1930.22],[7555.53, 1978.11],[7556.53, 1627.92],[7563.51, 1792.54],[7566.5, 1742.65],[7582.47, 1845.42],[7586.46, 1903.28],[7593.44, 1642.88],[7600.43, 1965.14],[7605.41, 1693.77],[7605.41, 2011.03],[7609.4, 2057.93]]},"properties":{"objectType":"annotation"}},{"type":"Feature","id":"e088640a-55d7-400d-889c-c673cb1867bd","geometry":{"type":"MultiPoint","coordinates":[[7428.46, 1859.79],[7433.99, 2036.83],[7437.31, 1902.95],[7439.52, 1954.95],[7441.73, 1995.89],[7442.84, 1578.75],[7447.27, 1646.24],[7457.22, 1691.61],[7458.33, 1735.87],[7458.33, 1776.81],[7463.86, 1823.28],[7481.57, 1865.33],[7485.99, 1911.8],[7491.52, 1579.86],[7491.52, 1956.06],[7491.52, 2018.02],[7498.16, 1630.75],[7509.23, 1746.93],[7513.65, 1798.94],[7516.97, 1667.27],[7528.04, 1833.24],[7532.46, 1901.84],[7534.68, 1579.86],[7540.21, 1937.25],[7544.63, 1987.04],[7550.17, 2053.43],[7559.02, 1644.03],[7567.87, 1795.62],[7570.08, 1742.51],[7576.72, 1849.84],[7593.32, 1933.93],[7594.43, 1597.56],[7601.06, 1656.2],[7603.28, 1972.65],[7608.81, 2029.08],[7613.24, 1688.29],[7632.05, 1805.58],[7638.69, 1908.48],[7640.9, 1571],[7654.18, 1952.74],[7654.18, 1998.1],[7656.39, 1617.48],[7669.67, 1660.63],[7676.31, 1724.8],[7678.52, 1795.62],[7695.12, 1880.82],[7701.75, 1838.77],[7707.29, 1935.03],[7711.71, 1621.9],[7711.71, 1680.55],[7712.82, 2033.51],[7720.56, 1738.08],[7727.2, 1795.62],[7737.16, 1875.28],[7743.8, 1573.22],[7744.91, 1942.78],[7748.23, 1832.13],[7762.61, 2043.47],[7764.82, 1991.46],[7771.46, 1638.5],[7775.89, 1691.61],[7779.21, 1735.87],[7791.38, 1901.84],[7794.7, 1790.09],[7798.02, 1839.88],[7806.87, 1966.02],[7817.93, 2022.45],[7823.47, 1593.13],[7824.57, 1710.42],[7827.89, 1773.49],[7830.1, 1655.1],[7837.85, 1848.73],[7854.45, 1578.75],[7855.55, 1908.48],[7858.87, 1973.76],[7872.15, 1630.75],[7878.79, 2020.23],[7883.22, 1725.91],[7893.17, 1575.43],[7903.13, 1792.3],[7903.13, 1836.56]]},"properties":{"objectType":"annotation"}},{"type":"Feature","id":"053f34d3-268b-42a4-8af9-d16aa3707776","geometry":{"type":"MultiPoint","coordinates":[[6068.14, 592.49],[6078.93, 475.54],[6081.63, 634.77],[6083.43, 425.16],[6084.33, 352.29],[6084.33, 740.92],[6088.83, 697.74],[6122.11, 457.54],[6123.91, 393.67],[6125.71, 506.12],[6129.31, 609.58],[6139.21, 552],[6140.1, 657.26],[6158.1, 627.57],[6159.9, 739.12],[6165.29, 525.01],[6180.59, 418.86],[6189.58, 476.44],[6190.48, 810.19],[6198.58, 369.38],[6221.07, 618.57],[6221.97, 675.25],[6222.87, 552.9],[6229.17, 438.65],[6233.66, 758.01],[6235.46, 504.32],[6241.76, 383.77],[6245.36, 326.2],[6267.85, 560.1],[6267.85, 796.7],[6270.55, 740.92],[6272.35, 525.01],[6282.24, 679.75],[6283.14, 464.74],[6291.24, 347.79],[6291.24, 635.67],[6313.73, 718.43],[6320.93, 598.78],[6321.83, 503.42],[6324.53, 770.61],[6329.92, 377.48],[6331.72, 547.5],[6333.52, 426.96],[6344.32, 612.28],[6357.81, 341.49],[6361.41, 795.8],[6364.11, 476.44],[6365.01, 734.62],[6371.31, 687.84],[6381.2, 567.3],[6391.1, 411.66],[6409.99, 653.66],[6416.29, 771.51],[6418.09, 708.54],[6421.68, 543.01],[6422.58, 486.33],[6425.28, 600.58],[6454.97, 455.74],[6455.87, 637.47],[6461.27, 793.1],[6464.87, 732.82],[6468.46, 383.77],[6471.16, 674.35],[6476.56, 573.59],[6477.46, 519.62],[6505.35, 762.51],[6509.85, 594.28],[6509.85, 711.23],[6517.04, 543.91],[6527.84, 664.45],[6534.14, 434.15],[6539.53, 491.73]]},"properties":{"objectType":"annotation"}},{"type":"Feature","id":"20dc5f25-d380-4b41-8249-28bb57dd468d","geometry":{"type":"MultiPoint","coordinates":[[397.69, 1379.15],[401.37, 1834.41],[406.28, 1597.58],[417.33, 1774.28],[422.24, 1546.04],[424.69, 1490.82],[429.6, 1721.52],[439.41, 1429.46],[445.55, 1614.76],[448, 1661.39],[460.28, 1370.56],[475, 1549.72],[482.36, 1774.28],[483.59, 1721.52],[490.95, 1490.82],[506.91, 1429.46],[508.13, 1587.76],[511.81, 1636.85],[515.5, 1386.52],[520.4, 1533.77],[532.68, 1728.88],[536.36, 1488.37],[544.95, 1447.87],[555.99, 1676.11],[564.58, 1415.97],[564.58, 1791.46],[568.26, 1363.2],[574.4, 1597.58],[578.08, 1743.6],[582.99, 1549.72],[586.67, 1704.34],[592.8, 1510.45],[611.21, 1665.07],[613.66, 1460.14],[623.48, 1828.27],[627.16, 1401.24],[629.62, 1602.49],[638.21, 1508],[638.21, 1555.86],[639.43, 1763.24],[646.8, 1355.84],[654.16, 1690.84],[661.52, 1442.96],[667.66, 1624.57],[677.47, 1796.37],[683.61, 1575.49],[688.52, 1377.93],[693.43, 1747.29],[694.65, 1525.18],[704.47, 1689.61],[715.51, 1488.37],[726.56, 1452.78],[730.24, 1627.03],[730.24, 1834.41],[732.69, 1796.37],[748.65, 1736.24],[749.87, 1408.6],[751.1, 1566.9],[762.14, 1673.66],[763.37, 1504.32],[775.64, 1458.91],[775.64, 1609.85],[789.14, 1404.92],[791.6, 1822.14],[796.5, 1536.22],[800.18, 1365.65],[803.87, 1769.37],[816.14, 1711.7],[823.5, 1650.34],[828.41, 1481],[838.23, 1604.94],[840.68, 1429.46],[840.68, 1806.19],[852.95, 1379.15],[856.63, 1533.77],[867.68, 1731.33],[872.58, 1673.66],[878.72, 1465.05],[882.4, 1414.74],[893.45, 1609.85]]},"properties":{"objectType":"annotation"}},{"type":"Feature","id":"8d0e0676-3f06-4b19-b0c5-efb3d8ec837b","geometry":{"type":"MultiPoint","coordinates":[[852.95, 1532.54],[861.54, 1738.7],[877.49, 1618.44],[881.17, 1473.64],[881.17, 1914.17],[882.4, 1678.57],[889.76, 1425.78],[893.45, 1851.59],[895.9, 1797.6],[899.58, 1557.08],[921.67, 1501.86],[925.35, 1725.2],[932.71, 1671.2],[941.3, 1424.56],[949.89, 1574.26],[952.35, 1617.21],[953.57, 1858.95],[959.71, 1804.96],[970.75, 1759.56],[971.98, 1506.77],[974.43, 1715.38],[979.34, 1472.41],[986.71, 1431.92],[991.61, 1873.68],[996.52, 1635.62],[1003.88, 1819.68],[1005.11, 1546.04],[1013.7, 1768.15],[1014.93, 1585.31],[1019.84, 1498.18],[1029.65, 1701.88],[1038.24, 1884.72],[1044.38, 1640.53],[1046.83, 1438.05],[1057.88, 1586.53],[1065.24, 1541.13],[1067.69, 1823.37],[1068.92, 1769.37],[1073.83, 1512.91],[1083.65, 1451.55],[1094.69, 1689.61],[1108.19, 1862.63],[1116.78, 1650.34],[1119.23, 1822.14],[1120.46, 1590.22],[1130.28, 1769.37],[1140.09, 1537.45],[1141.32, 1709.24],[1146.23, 1896.99],[1151.14, 1458.91],[1158.5, 1662.61],[1165.86, 1609.85],[1172, 1559.54],[1172, 1838.09],[1190.41, 1764.46],[1190.41, 1793.92],[1197.77, 1509.23],[1199, 1905.58],[1201.45, 1458.91],[1205.13, 1700.65],[1212.49, 1658.93],[1212.49, 1849.14],[1219.86, 1801.28],[1222.31, 1602.49],[1238.26, 1539.9],[1240.72, 1759.56],[1251.76, 1430.69],[1252.99, 1477.32],[1259.12, 1689.61],[1260.35, 1910.49],[1265.26, 1619.67],[1266.49, 1839.32],[1281.21, 1557.08],[1286.12, 1787.78],[1288.57, 1725.2],[1293.48, 1492.05],[1304.53, 1436.83],[1310.66, 1884.72],[1319.25, 1676.11]]},"properties":{"objectType":"annotation"}},{"type":"Feature","id":"d086b7bd-e241-47f0-95a4-a4a9454d5430","geometry":{"type":"MultiPoint","coordinates":[[1648.41, 1717.88],[1657.39, 1853.57],[1659.38, 1665],[1659.38, 1814.66],[1659.38, 2059.09],[1672.35, 1767.76],[1684.33, 1731.85],[1684.33, 1979.28],[1696.3, 1896.47],[1698.29, 1691.94],[1722.24, 1636.07],[1729.22, 2016.19],[1731.22, 1805.68],[1738.2, 1583.19],[1752.17, 1738.83],[1754.17, 1937.37],[1771.13, 1866.54],[1782.1, 1670.99],[1782.1, 1805.68],[1788.09, 1623.1],[1789.08, 1755.79],[1795.07, 2028.16],[1800.06, 1939.37],[1811.03, 1706.91],[1824, 1647.04],[1826, 1872.52],[1829.99, 2073.06],[1834.98, 1816.65],[1843.96, 1595.16],[1845.95, 1971.29],[1855.93, 1768.76],[1865.91, 1911.43],[1881.87, 1694.93],[1882.87, 1874.52],[1884.86, 2052.11],[1895.84, 1817.65],[1898.83, 1620.11],[1901.82, 1770.76],[1910.8, 1987.26],[1921.78, 1897.47],[1921.78, 1950.34],[1929.76, 1720.87],[1938.74, 2042.13],[1939.74, 1664],[1949.71, 1616.11],[1953.7, 2006.21],[1968.67, 1754.79],[1972.66, 1940.37],[1977.65, 1899.46],[1982.64, 1780.73],[1987.63, 1672.98],[1988.62, 1847.58],[1993.61, 2064.08],[2014.56, 1623.1],[2018.56, 2008.21],[2021.55, 1955.33],[2028.53, 1795.7],[2038.51, 1925.4],[2044.5, 1755.79],[2044.5, 1858.56],[2051.48, 2070.07],[2052.48, 1685.95],[2065.45, 1820.64],[2067.44, 2020.18],[2084.4, 1968.3],[2089.39, 1633.08],[2094.38, 1713.89],[2098.37, 1912.43],[2113.34, 1837.6],[2119.32, 2017.19],[2129.3, 1979.28],[2134.29, 1775.75]]},"properties":{"objectType":"annotation"}},{"type":"Feature","id":"54f7df04-7a92-41f4-be7e-767b2b9c4f9a","geometry":{"type":"MultiPoint","coordinates":[[1853.1, 364.95],[1854.21, 530.92],[1857.53, 694.68],[1861.96, 311.84],[1877.45, 465.64],[1881.87, 603.95],[1889.62, 555.26],[1896.26, 432.44],[1909.53, 382.65],[1926.13, 742.26],[1927.24, 481.13],[1932.77, 316.26],[1940.52, 645.99],[1948.26, 405.89],[1957.11, 361.63],[1959.33, 596.2],[1967.07, 547.52],[1971.5, 711.27],[1975.92, 305.2],[1990.31, 473.38],[2001.37, 429.12],[2004.69, 628.29],[2009.12, 389.29],[2011.33, 566.33],[2024.61, 330.65],[2026.82, 516.53],[2041.2, 684.72],[2041.2, 740.04],[2043.42, 449.04],[2051.16, 403.67],[2057.8, 615.01],[2071.08, 557.47],[2078.82, 327.33],[2089.89, 507.68],[2096.53, 655.95],[2106.49, 603.95],[2110.91, 435.76],[2114.23, 366.05],[2117.55, 554.15],[2128.62, 409.21],[2135.26, 501.04],[2135.26, 703.53],[2141.89, 273.11],[2149.64, 661.48],[2158.49, 445.72],[2161.81, 618.33],[2178.41, 390.4],[2181.73, 337.29],[2187.26, 767.7],[2188.37, 546.41],[2196.11, 698],[2204.96, 496.62],[2217.13, 630.5],[2218.24, 433.55],[2230.41, 599.52],[2231.52, 546.41],[2240.37, 731.19],[2251.43, 359.42],[2253.65, 679.19],[2258.07, 456.79],[2259.18, 281.96],[2263.61, 501.04],[2274.67, 615.01],[2285.74, 413.63],[2291.27, 362.74],[2303.44, 713.49],[2305.65, 548.62],[2306.76, 302.99],[2327.78, 632.71],[2328.89, 460.1]]},"properties":{"objectType":"annotation"}},{"type":"Feature","id":"ac61d107-61c9-4ee8-90fc-654acede2218","geometry":{"type":"MultiPoint","coordinates":[[1566.21, 345.7],[1568.91, 226.05],[1570.71, 577.8],[1574.31, 285.42],[1576.11, 515.72],[1594.1, 435.66],[1600.4, 382.58],[1611.19, 620.08],[1612.09, 664.16],[1617.49, 322.31],[1621.09, 579.6],[1632.78, 288.12],[1637.28, 226.05],[1640.88, 468.94],[1641.78, 528.32],[1654.37, 434.76],[1661.57, 657.86],[1673.27, 366.39],[1681.36, 567],[1681.36, 603.89],[1683.16, 526.52],[1693.96, 295.32],[1695.76, 473.44],[1705.65, 224.25],[1709.25, 430.26],[1720.05, 382.58],[1720.95, 634.47],[1725.44, 572.4],[1733.54, 323.21],[1742.54, 277.33],[1751.53, 674.06],[1756.03, 505.83],[1762.33, 450.05],[1780.32, 377.18],[1785.72, 593.09],[1792.91, 532.82],[1795.61, 317.81],[1798.31, 280.02],[1806.41, 703.74],[1808.21, 459.95],[1820.8, 407.77],[1820.8, 644.37],[1834.3, 373.58],[1843.29, 597.59],[1849.59, 244.94],[1856.79, 527.42],[1857.69, 313.31],[1858.59, 693.85],[1875.68, 464.45],[1880.18, 610.18],[1887.37, 418.57],[1899.07, 543.61],[1905.37, 377.18],[1914.36, 317.81],[1921.56, 476.14],[1944.05, 651.57],[1944.95, 417.67],[1958.44, 364.59],[1962.04, 593.99],[1969.24, 703.74],[1972.84, 536.41],[1984.53, 300.72],[1985.43, 488.74],[1998.03, 433.86],[1999.83, 556.21],[2002.52, 628.18],[2013.32, 392.48],[2021.42, 513.92],[2031.31, 335.8],[2043.91, 450.05]]},"properties":{"objectType":"annotation"}},{"type":"Feature","id":"7f01534d-d468-4592-9460-7ac1839b14b8","geometry":{"type":"MultiPoint","coordinates":[[1136.11, 892.96],[1143.09, 797.18],[1149.08, 984.75],[1149.08, 1206.23],[1174.02, 1112.45],[1175.02, 1162.34],[1181, 874],[1202.95, 1210.22],[1210.94, 1006.69],[1215.92, 825.11],[1219.91, 955.81],[1221.91, 785.21],[1236.88, 1089.5],[1237.87, 894.95],[1237.87, 1054.58],[1252.84, 1226.19],[1264.81, 817.13],[1276.78, 1161.34],[1280.77, 968.78],[1283.77, 891.96],[1288.76, 771.24],[1296.74, 1100.48],[1316.69, 1026.65],[1317.69, 1233.17],[1326.67, 968.78],[1329.66, 1180.29],[1341.63, 779.22],[1342.63, 1142.38],[1352.61, 872.01],[1353.61, 1083.52],[1358.59, 1240.16],[1362.59, 1031.64],[1379.55, 987.74],[1385.53, 1145.37],[1401.5, 930.87],[1410.47, 829.1],[1410.47, 891.96],[1415.46, 781.22],[1418.46, 1045.6],[1428.43, 1179.3],[1445.39, 947.83],[1454.37, 1078.53],[1454.37, 1136.4],[1467.34, 1245.14],[1479.32, 859.04],[1479.32, 969.78],[1489.29, 1208.23],[1501.27, 887.97],[1507.25, 1121.43],[1514.24, 795.18],[1514.24, 1060.57],[1523.21, 1214.22],[1525.21, 1179.3],[1545.16, 980.75],[1563.12, 1086.51],[1578.09, 866.02],[1595.05, 821.12],[1596.05, 1164.33],[1598.04, 988.74]]},"properties":{"objectType":"annotation"}},{"type":"Feature","id":"aa0a5289-48cc-4b35-bfaa-0c225b2f41ed","geometry":{"type":"MultiPoint","coordinates":[[1572.1, 1087.51],[1573.1, 1270.09],[1574.1, 874],[1595.05, 1183.29],[1605.03, 978.76],[1618.99, 1071.54],[1622.98, 1279.07],[1625.98, 885.97],[1632.96, 983.75],[1637.95, 1227.19],[1657.9, 1288.05],[1658.9, 1172.31],[1673.87, 1089.5],[1675.86, 912.91],[1677.86, 837.09],[1694.82, 1201.25],[1695.82, 1003.7],[1716.77, 1124.42],[1728.74, 928.87],[1731.73, 1301.02],[1735.72, 1078.53],[1739.71, 1222.2],[1742.71, 1015.67],[1755.68, 851.05],[1757.67, 977.76],[1777.63, 1309.99],[1782.62, 930.87],[1782.62, 1108.46],[1786.61, 869.01],[1793.59, 1028.64],[1799.58, 1215.21],[1833.5, 930.87],[1848.46, 832.1],[1849.46, 1028.64],[1858.44, 1229.18],[1881.39, 1313.99],[1887.37, 1136.4],[1890.37, 927.88],[1899.35, 853.05],[1909.32, 1221.2],[1922.29, 1035.63],[1925.29, 937.85],[1938.26, 1136.4],[1946.24, 853.05],[1947.24, 895.95],[1971.18, 988.74],[1972.18, 1231.18],[1974.17, 1036.63],[1979.16, 1190.27],[1988.14, 832.1],[1993.13, 1134.4],[1994.13, 953.82],[1995.12, 905.93],[2018.07, 1259.11],[2019.07, 1041.61],[2033.04, 1145.37],[2043.01, 955.81]]},"properties":{"objectType":"annotation"}},{"type":"Feature","id":"7e481b62-a8ec-4a5f-8659-01472fff2b5e","geometry":{"type":"MultiPoint","coordinates":[[647.79, 1020.88],[652.28, 834.66],[668.48, 756.39],[673.87, 1133.33],[676.57, 921.92],[694.57, 1080.25],[701.76, 710.51],[708.96, 1005.59],[716.16, 830.16],[718.86, 1178.31],[724.25, 741.1],[735.95, 1110.84],[745.84, 886.84],[757.54, 1052.37],[762.94, 709.61],[771.93, 978.6],[773.73, 1142.33],[779.13, 756.39],[795.32, 1089.25],[799.82, 937.22],[806.12, 882.34],[808.82, 1036.17],[826.81, 1151.32],[840.42, 925.41],[843, 702.42],[844.8, 767.19],[850.2, 1055.06],[866.97, 847.96],[872.69, 722.21],[875.39, 1156.72],[899.68, 1061.36],[922.17, 867.95],[927.57, 733],[937.46, 1144.13],[938.36, 1010.08],[940.16, 788.78],[953.65, 929.12],[953.65, 1074.86],[969.85, 859.85],[974.35, 981.3],[993.24, 1183.71],[994.14, 733],[997.74, 775.28],[1006.73, 1131.53],[1019.33, 1063.16],[1029.22, 876.94],[1038.22, 1016.38],[1041.82, 805.87],[1042.72, 1182.81],[1048.11, 747.4],[1055.31, 1082.05],[1058.91, 1150.42],[1062.51, 893.13],[1079.6, 948.01],[1091.3, 806.77],[1092.2, 1182.81],[1094.89, 996.59],[1110.19, 1149.52],[1120.98, 899.43],[1120.98, 1070.36],[1129.98, 703.32]]},"properties":{"objectType":"annotation"}}]}