{"type":"FeatureCollection","features":[{"type":"Feature","id":"03f24de7-0c5b-439a-a8b8-785448668258","geometry":{"type":"Polygon","coordinates":[[[3326.11, 766.08],[3326.11, 1277.03],[3837.07, 1277.03],[3837.07, 766.08],[3326.11, 766.08]]]},"properties":{"objectType":"annotation","classification":{"name":"2","color":[186, 153, 157]}}},{"type":"Feature","id":"f51cc61b-8c69-4c82-905b-83ba6141ec22","geometry":{"type":"Polygon","coordinates":[[[5425.98, 2197.11],[5425.98, 2708.06],[5936.94, 2708.06],[5936.94, 2197.11],[5425.98, 2197.11]]]},"properties":{"objectType":"annotation","classification":{"name":"2","color":[186, 153, 157]}}},{"type":"Feature","id":"f7a87596-3fcb-414e-916d-d387f9887767","geometry":{"type":"Polygon","coordinates":[[[6256.28, 3327.22],[6256.28, 3838.17],[6767.24, 3838.17],[6767.24, 3327.22],[6256.28, 3327.22]]]},"properties":{"objectType":"annotation","classification":{"name":"2","color":[186, 153, 157]}}},{"type":"Feature","id":"cd7f0585-b80f-484e-9c9a-286b58fe509a","geometry":{"type":"Polygon","coordinates":[[[7541.18, 2711.06],[7541.18, 3222.02],[8052.14, 3222.02],[8052.14, 2711.06],[7541.18, 2711.06]]]},"properties":{"objectType":"annotation","classification":{"name":"2","color":[186, 153, 157]}}},{"type":"Feature","id":"986b69a3-b67f-4c6e-8f69-efe11c1eb22d","geometry":{"type":"Polygon","coordinates":[[[117.32, 1433.68],[117.32, 1944.63],[628.27, 1944.63],[628.27, 1433.68],[117.32, 1433.68]]]},"properties":{"objectType":"annotation","classification":{"name":"2","color":[186, 153, 157]}}},{"type":"Feature","id":"da9ee313-9804-45fb-91dc-cfbfb50071f0","geometry":{"type":"Polygon","coordinates":[[[4776.01, 937.75],[4776.01, 1448.71],[5286.97, 1448.71],[5286.97, 937.75],[4776.01, 937.75]]]},"properties":{"objectType":"annotation","classification":{"name":"2","color":[186, 153, 157]}}},{"type":"Feature","id":"ce6ce476-42ca-4c0f-b31b-60cf61f7c0ec","geometry":{"type":"Polygon","coordinates":[[[2574.4, 524.48],[2574.4, 1035.44],[3085.36, 1035.44],[3085.36, 524.48],[2574.4, 524.48]]]},"properties":{"objectType":"annotation","classification":{"name":"2","color":[186, 153, 157]}}},{"type":"Feature","id":"b2b63901-8695-444c-906d-96e63af49f23","geometry":{"type":"Polygon","coordinates":[[[3661.73, 1838.52],[3661.73, 2349.48],[4172.69, 2349.48],[4172.69, 1838.52],[3661.73, 1838.52]]]},"properties":{"objectType":"annotation","classification":{"name":"2","color":[186, 153, 157]}}},{"type":"Feature","id":"25f37709-91d7-4c23-bb92-b32e1e3487c6","geometry":{"type":"Polygon","coordinates":[[[4017.1, 1088.03],[4017.1, 1598.99],[4528.05, 1598.99],[4528.05, 1088.03],[4017.1, 1088.03]]]},"properties":{"objectType":"annotation","classification":{"name":"2","color":[186, 153, 157]}}},{"type":"Feature","id":"efa925a6-0561-442a-a678-a0e61e04b040","geometry":{"type":"Polygon","coordinates":[[[1639.58, 1600.72],[1639.58, 2111.67],[2150.54, 2111.67],[2150.54, 1600.72],[1639.58, 1600.72]]]},"properties":{"objectType":"annotation","classification":{"name":"2","color":[186, 153, 157]}}},{"type":"Feature","id":"572519b7-6b40-4d13-9d40-cc41df3eeccf","geometry":{"type":"Polygon","coordinates":[[[3355.86, 3725.46],[3355.86, 4236.41],[3866.82, 4236.41],[3866.82, 3725.46],[3355.86, 3725.46]]]},"properties":{"objectType":"annotation","classification":{"name":"2","color":[186, 153, 157]}}},{"type":"Feature","id":"b8ad5f68-d36c-421d-b333-33fdf1070850","geometry":{"type":"Polygon","coordinates":[[[3994.56, 344.14],[3994.56, 855.1],[4505.51, 855.1],[4505.51, 344.14],[3994.56, 344.14]]]},"properties":{"objectType":"annotation","classification":{"name":"2","color":[186, 153, 157]}}},{"type":"Feature","id":"120e139e-efeb-4d46-b82d-c7a717e80c83","geometry":{"type":"Polygon","coordinates":[[[5908.54, 2733.07],[5908.54, 3244.02],[6419.5, 3244.02],[6419.5, 2733.07],[5908.54, 2733.07]]]},"properties":{"objectType":"annotation","classification":{"name":"2","color":[186, 153, 157]}}},{"type":"Feature","id":"3f9d4388-785f-4b04-ae78-affdda7ce820","geometry":{"type":"Polygon","coordinates":[[[6631.98, 2808.75],[6631.98, 3319.7],[7142.94, 3319.7],[7142.94, 2808.75],[6631.98, 2808.75]]]},"properties":{"objectType":"annotation","classification":{"name":"2","color":[186, 153, 157]}}},{"type":"Feature","id":"767c7835-1abe-4c2f-acb8-e959715e5b3a","geometry":{"type":"Polygon","coordinates":[[[6511.76, 1463.73],[6511.76, 1974.69],[7022.71, 1974.69],[7022.71, 1463.73],[6511.76, 1463.73]]]},"properties":{"objectType":"annotation","classification":{"name":"2","color":[186, 153, 157]}}},{"type":"Feature","id":"807a97db-6bfa-4e93-b80b-f42d775fc6de","geometry":{"type":"Polygon","coordinates":[[[7496.1, 58.61],[7496.1, 569.56],[8007.05, 569.56],[8007.05, 58.61],[7496.1, 58.61]]]},"properties":{"objectType":"annotation","classification":{"name":"2","color":[186, 153, 157]}}},{"type":"Feature","id":"5a01ae14-0b3a-4326-ad17-ea5ec510e349","geometry":{"type":"Polygon","coordinates":[[[5213.57, 92.16],[5213.57, 603.12],[5724.53, 603.12],[5724.53, 92.16],[5213.57, 92.16]]]},"properties":{"objectType":"annotation","classification":{"name":"2","color":[186, 153, 157]}}},{"type":"Feature","id":"d7e56bf8-3eef-4c39-b9ed-2ac4906bcd0c","geometry":{"type":"Polygon","coordinates":[[[57.2, 892.67],[57.2, 1403.62],[568.16, 1403.62],[568.16, 892.67],[57.2, 892.67]]]},"properties":{"objectType":"annotation","classification":{"name":"2","color":[186, 153, 157]}}},{"type":"Feature","id":"cd6ee465-1583-46ad-b095-947bad93c006","geometry":{"type":"Polygon","coordinates":[[[6271.31, 434.31],[6271.31, 945.27],[6782.26, 945.27],[6782.26, 434.31],[6271.31, 434.31]]]},"properties":{"objectType":"annotation","classification":{"name":"2","color":[186, 153, 157]}}},{"type":"Feature","id":"2e5a2c7c-243f-4ef0-9786-3655721304b9","geometry":{"type":"MultiPoint","coordinates":[[5440.73, 2344.15],[5451.17, 2283.81],[5452.33, 2548.34],[5468.58, 2226.96],[5468.58, 2492.65],[5474.38, 2434.64],[5483.66, 2655.08],[5489.46, 2391.71],[5490.62, 2597.07],[5495.26, 2337.18],[5506.87, 2547.18],[5519.63, 2296.58],[5519.63, 2494.97],[5527.75, 2233.93],[5533.55, 2667.85],[5534.71, 2445.08],[5547.47, 2401],[5554.43, 2355.75],[5554.43, 2572.71],[5570.68, 2305.86],[5574.16, 2513.54],[5582.28, 2244.37],[5582.28, 2462.49],[5585.76, 2688.73],[5596.2, 2418.4],[5598.52, 2637.68],[5610.12, 2360.39],[5614.77, 2579.67],[5624.05, 2316.3],[5628.69, 2522.82],[5639.13, 2259.45],[5641.45, 2475.25],[5653.05, 2430],[5656.53, 2649.28],[5661.17, 2220],[5662.33, 2384.75],[5670.46, 2595.91],[5676.26, 2336.02],[5686.7, 2542.54],[5690.18, 2276.85],[5690.18, 2491.49],[5701.78, 2225.8],[5701.78, 2445.08],[5706.42, 2670.17],[5716.86, 2389.39],[5720.35, 2599.39],[5736.59, 2338.34],[5738.91, 2554.15],[5747.03, 2296.58],[5749.35, 2513.54],[5751.67, 2685.25],[5764.43, 2454.37],[5774.88, 2634.2],[5781.84, 2407.96],[5784.16, 2236.25],[5793.44, 2352.27],[5801.56, 2570.39],[5805.04, 2301.22],[5809.68, 2522.82],[5820.12, 2688.73],[5827.09, 2462.49],[5829.41, 2412.6],[5832.89, 2627.24],[5843.33, 2583.15],[5849.13, 2371.99],[5854.93, 2316.3],[5860.73, 2535.58],[5871.17, 2215.36],[5872.33, 2257.13],[5876.97, 2478.73],[5886.26, 2426.52],[5893.13, 2648.18],[5903.66, 2376.63],[5907.23, 2607.15],[5911.78, 2317.46],[5917.49, 2548.16]]},"properties":{"objectType":"annotation"}},{"type":"Feature","id":"c9e9c4cc-d80a-4ef2-8cec-0a757ce4cf58","geometry":{"type":"MultiPoint","coordinates":[[6276.93, 3350.37],[6281.89, 3561.6],[6283.87, 3761.92],[6283.87, 3804.56],[6296.76, 3513],[6296.76, 3711.34],[6311.64, 3457.47],[6312.63, 3656.8],[6325.52, 3611.18],[6326.51, 3396.98],[6330.48, 3779.77],[6335.44, 3569.53],[6341.39, 3351.36],[6348.33, 3727.21],[6350.31, 3500.11],[6361.22, 3671.67],[6378.08, 3621.1],[6379.07, 3411.85],[6385.02, 3783.74],[6388.99, 3354.33],[6394.94, 3571.51],[6397.92, 3526.89],[6406.84, 3735.14],[6414.77, 3477.3],[6418.74, 3674.65],[6433.62, 3427.72],[6433.62, 3793.65],[6438.57, 3621.1],[6443.53, 3580.44],[6448.49, 3375.16],[6452.46, 3539.78],[6455.43, 3738.12],[6472.29, 3488.21],[6475.27, 3689.53],[6486.18, 3441.6],[6491.13, 3648.87],[6499.07, 3387.06],[6499.07, 3807.54],[6503.03, 3597.3],[6511.96, 3755.97],[6513.94, 3541.76],[6525.84, 3709.36],[6533.78, 3495.15],[6543.69, 3656.8],[6543.69, 3814.48],[6546.67, 3444.58],[6554.6, 3403.92],[6562.54, 3600.27],[6563.53, 3560.61],[6564.52, 3769.85],[6566.5, 3346.4],[6582.37, 3721.26],[6584.35, 3514.99],[6588.32, 3465.4],[6594.27, 3665.72],[6603.2, 3618.12],[6604.19, 3406.89],[6611.13, 3780.76],[6615.1, 3361.28],[6618.07, 3573.5],[6631.95, 3521.93],[6638.9, 3473.34],[6640.88, 3682.58],[6651.79, 3421.77],[6661.71, 3625.07],[6668.65, 3797.62],[6671.62, 3363.26],[6673.61, 3575.48],[6682.53, 3749.03],[6689.47, 3531.85],[6698.4, 3708.37],[6703.36, 3487.22],[6713.27, 3645.89],[6719.22, 3433.67],[6725.17, 3591.35],[6726.17, 3826.38],[6736.08, 3385.08],[6738.07, 3548.7],[6744.02, 3755.97],[6750.96, 3495.15]]},"properties":{"objectType":"annotation"}},{"type":"Feature","id":"d15bc475-84c3-48df-8cb6-2951a0b58494","geometry":{"type":"Polygon","coordinates":[[[7041.2, 3339.16],[7041.2, 3850.11],[7552.15, 3850.11],[7552.15, 3339.16],[7041.2, 3339.16]]]},"properties":{"objectType":"annotation","classification":{"name":"2","color":[186, 153, 157]}}},{"type":"Feature","id":"4005fca8-47af-457e-93b0-e9ff4b8ce68e","geometry":{"type":"MultiPoint","coordinates":[[7063.26, 3631.16],[7065.46, 3414.5],[7073.16, 3578.37],[7076.46, 3808.23],[7084.16, 3371.6],[7088.56, 3746.64],[7090.76, 3529.98],[7101.76, 3694.95],[7109.46, 3474.98],[7118.25, 3657.55],[7120.45, 3425.49],[7121.55, 3611.36],[7125.95, 3825.83],[7134.75, 3784.03],[7135.85, 3372.7],[7146.85, 3510.18],[7146.85, 3559.67],[7158.95, 3727.94],[7166.65, 3459.59],[7172.14, 3423.29],[7173.24, 3653.15],[7174.34, 3621.26],[7185.34, 3822.53],[7195.24, 3579.47],[7195.24, 3773.03],[7199.64, 3368.3],[7202.94, 3521.18],[7213.94, 3730.14],[7221.64, 3683.95],[7222.74, 3480.48],[7232.63, 3840.12],[7233.73, 3632.26],[7239.23, 3437.59],[7245.83, 3793.93],[7250.23, 3378.2],[7253.53, 3578.37],[7259.03, 3532.18],[7272.23, 3742.24],[7276.63, 3700.45],[7279.93, 3474.98],[7289.82, 3649.86],[7293.12, 3439.79],[7301.92, 3606.96],[7306.32, 3382.6],[7306.32, 3814.83],[7317.32, 3567.37],[7320.62, 3765.34],[7330.52, 3712.54],[7332.72, 3496.98],[7349.21, 3451.89],[7350.31, 3656.45],[7358.01, 3414.5],[7359.11, 3611.36],[7374.51, 3554.17],[7376.71, 3774.13],[7389.91, 3726.84],[7392.11, 3516.78],[7404.21, 3457.39],[7405.31, 3668.55],[7413, 3837.92],[7416.3, 3785.13],[7417.4, 3617.96],[7425.1, 3413.4],[7425.1, 3572.87],[7440.5, 3733.44],[7441.6, 3361.7],[7446, 3538.77],[7458.1, 3483.78],[7460.3, 3680.65],[7469.09, 3641.06],[7472.39, 3429.89],[7485.59, 3798.33],[7491.09, 3383.7],[7494.39, 3586.07],[7496.59, 3744.44],[7507.59, 3543.17],[7514.19, 3691.65],[7518.59, 3489.28],[7524.08, 3437.59],[7528.48, 3636.66],[7528.48, 3812.63],[7535.08, 3385.9],[7537.28, 3599.26]]},"properties":{"objectType":"annotation"}},{"type":"Feature","id":"b6bfb256-65ec-44c0-b235-9c8ee35d68db","geometry":{"type":"MultiPoint","coordinates":[[6653.14, 3051.58],[6655.12, 2851.26],[6658.1, 3219.18],[6664.05, 2990.1],[6669.01, 3173.56],[6682.89, 2943.49],[6689.83, 2896.88],[6691.81, 3278.68],[6692.81, 3112.07],[6708.67, 3062.49],[6711.65, 2848.28],[6716.61, 3005.96],[6717.6, 3223.14],[6726.52, 2962.33],[6729.5, 3174.55],[6740.41, 2915.72],[6740.41, 3125.96],[6749.33, 3290.58],[6760.24, 3079.35],[6765.2, 2862.17],[6765.2, 3242.98],[6777.1, 3027.78],[6782.06, 3190.42],[6785.03, 2984.15],[6794.95, 2921.67],[6796.93, 3144.8],[6808.83, 3090.26],[6809.83, 3302.48],[6813.79, 2872.08],[6821.73, 3039.68],[6824.7, 3240.99],[6825.69, 2836.38],[6835.61, 3198.35],[6840.57, 2995.05],[6842.55, 3157.69],[6851.48, 2939.52],[6858.42, 3105.13],[6864.37, 3310.41],[6867.34, 2895.88],[6876.27, 3061.5],[6876.27, 3259.84],[6883.21, 2848.28],[6891.14, 3008.94],[6900.07, 3214.22],[6904.04, 2967.29],[6905.03, 3163.64],[6918.91, 2903.82],[6918.91, 3111.08],[6929.82, 3068.44],[6931.8, 3277.69],[6933.79, 2855.23],[6947.67, 3024.8],[6948.66, 3223.14],[6957.59, 3173.56],[6964.53, 2969.27],[6971.47, 2923.65],[6978.41, 3126.95],[6980.4, 3284.63],[6984.36, 3069.43],[6991.31, 2868.12],[6997.26, 2823.49],[6998.25, 3028.77],[7000.23, 3229.09],[7008.16, 3182.48],[7016.1, 2978.2],[7027.01, 2928.61],[7027.01, 3137.86],[7039.9, 3081.33],[7039.9, 3302.48],[7043.87, 2883.98],[7048.82, 3247.94],[7053.78, 3032.74],[7058.74, 2830.43],[7058.74, 3188.43],[7065.68, 2992.08],[7083.53, 3146.78],[7089.48, 2934.56],[7095.43, 2892.91],[7097.42, 3099.18],[7101.38, 3264.79],[7112.29, 3047.61],[7114.28, 3220.17],[7115.27, 2844.32],[7129.15, 3003.98],[7140.06, 3155.71]]},"properties":{"objectType":"annotation"}},{"type":"Feature","id":"8e461848-c3eb-4803-8516-a261327f2394","geometry":{"type":"Polygon","coordinates":[[[4358.72, 2921.57],[4358.72, 3432.52],[4869.67, 3432.52],[4869.67, 2921.57],[4358.72, 2921.57]]]},"properties":{"objectType":"annotation","classification":{"name":"2","color":[186, 153, 157]}}},{"type":"Feature","id":"b74f6116-c50b-43f6-b863-a377ce67679e","geometry":{"type":"Polygon","coordinates":[[[4549.23, 2348.91],[4549.23, 2859.86],[5060.18, 2859.86],[5060.18, 2348.91],[4549.23, 2348.91]]]},"properties":{"objectType":"annotation","classification":{"name":"2","color":[186, 153, 157]}}},{"type":"Feature","id":"393c2987-f04f-4f50-a8b5-6ef752616c09","geometry":{"type":"Polygon","coordinates":[[[2478.68, 1682.04],[2478.68, 2193],[2989.64, 2193],[2989.64, 1682.04],[2478.68, 1682.04]]]},"properties":{"objectType":"annotation","classification":{"name":"2","color":[186, 153, 157]}}},{"type":"Feature","id":"19c8771c-44a2-4b35-a7e2-57d331ec91fe","geometry":{"type":"MultiPoint","coordinates":[[6526.31, 1708.51],[6529.38, 1483.05],[6538.84, 1669.4],[6547.05, 1624.35],[6557.79, 1909.15],[6564.14, 1818.97],[6567.78, 1568.24],[6571.44, 1535.31],[6576.24, 1767.28],[6582.42, 1492.61],[6586.08, 1730.46],[6593.4, 1687.77],[6597.02, 1947.03],[6606.81, 1651.18],[6607.84, 1887.51],[6626.33, 1586.53],[6629.99, 1541.4],[6629.99, 1802.42],[6640.97, 1760.95],[6645.85, 1492.61],[6651.94, 1709.73],[6652.48, 1945.67],[6659.24, 1898.33],[6664.14, 1662.16],[6668.71, 1860.45],[6679.42, 1610.6],[6682.44, 1574.34],[6684.95, 1802.29],[6698.27, 1506.81],[6699.83, 1749.53],[6705.24, 1898.33],[6707.94, 1704.89],[6713.35, 1948.38],[6729.58, 1857.75],[6732.29, 1819.87],[6736.1, 1537.74],[6737.32, 1581.65],[6747.17, 1488.46],[6759.34, 1913.21],[6776.93, 1633.2],[6780.99, 1865.86],[6790.46, 1545.27],[6790.46, 1815.81],[6797.22, 1488.46],[6805.34, 1961.91],[6809.39, 1726.54],[6812.1, 1685.95],[6816.75, 1786.05],[6821.57, 1602.09],[6824.27, 1872.63],[6826.98, 1915.91],[6835.1, 1650.78],[6843.21, 1834.75],[6847.27, 1547.98],[6855.39, 1784.7],[6856.74, 1754.94],[6864.86, 1704.89],[6879.74, 1924.03],[6885.15, 1876.69],[6888.56, 1627.76],[6889.36, 1575.35],[6895.01, 1522.13],[6897.32, 1836.11],[6916.26, 1795.52],[6916.78, 1485.85],[6924.37, 1945.67],[6925.73, 1746.83],[6935.2, 1696.78],[6944.67, 1656.2],[6947.37, 1886.16],[6958.19, 1611.56],[6966.31, 1838.81],[6967.66, 1558.8],[6978.48, 1501.99],[6981.19, 1787.41],[6982.54, 1746.83],[6986.6, 1707.6],[6989.3, 1949.73],[6996.07, 1895.62],[7008.24, 1653.49],[7010.66, 1855.27]]},"properties":{"objectType":"annotation"}},{"type":"Feature","id":"b1b3de60-3590-4916-93ce-43987cab64c0","geometry":{"type":"MultiPoint","coordinates":[[4795.82, 1199.82],[4801.91, 1402.29],[4804.35, 991.24],[4809.23, 1344.96],[4820.21, 1151.03],[4825.09, 1298.61],[4827.53, 1109.56],[4843.39, 1065.65],[4849.48, 1236.41],[4850.37, 1391.44],[4855.58, 1176.64],[4856.8, 1016.86],[4867.78, 982.71],[4873.88, 1336.43],[4882.42, 1118.09],[4887.29, 1283.98],[4895.83, 1069.31],[4900.42, 1404.97],[4908.03, 1024.18],[4908.03, 1215.67],[4925.11, 1163.22],[4926.33, 968.07],[4928.77, 1354.72],[4936.08, 1307.15],[4942.18, 1114.44],[4951.94, 1438.88],[4956.82, 1254.7],[4965.36, 1053.45],[4965.36, 1383.99],[4969.02, 1220.55],[4978.77, 996.12],[4982.43, 1176.64],[4986.09, 1330.33],[4995.85, 963.19],[5006.83, 1113.22],[5010.49, 1263.24],[5015.37, 1401.07],[5016.59, 1061.99],[5027.56, 1190.06],[5028.78, 998.56],[5042.2, 1151.03],[5043.42, 1342.52],[5060.5, 1090.04],[5062.94, 1280.32],[5070.25, 1219.33],[5072.69, 1409.61],[5077.57, 1046.13],[5087.33, 1158.35],[5088.55, 983.93],[5089.77, 1352.28],[5103.19, 1298.61],[5112.94, 1097.36],[5123.92, 1240.07],[5125.14, 1055.89],[5126.36, 1402.29],[5128.8, 1187.62],[5134.9, 1358.38],[5142.22, 994.9],[5154.41, 1119.31],[5159.29, 1287.64],[5175.15, 1070.53],[5176.37, 1237.63],[5184.91, 1414.49],[5191.01, 1016.86],[5191.01, 1202.26],[5193.45, 1371.8],[5210.52, 1164.44],[5215.4, 964.41],[5215.4, 1307.15],[5219.06, 1107.12],[5232.48, 1061.99],[5236.14, 1252.26],[5243.45, 1418.15],[5245.89, 1013.2],[5248.33, 1201.04],[5255.65, 961.97],[5259.31, 1346.18],[5266.63, 1138.83],[5275.17, 1072.96],[5275.17, 1280.32]]},"properties":{"objectType":"annotation"}},{"type":"Feature","id":"967621ce-632d-4edc-8913-088c9dcb9369","geometry":{"type":"MultiPoint","coordinates":[[7557.12, 3130.3],[7563.81, 2862.39],[7565.16, 3076.5],[7576.6, 3028.7],[7583.01, 2813.82],[7592.14, 3191.57],[7596.13, 2977.53],[7602.22, 2765.24],[7603.54, 2927.03],[7607.62, 3145.11],[7614.98, 2877.88],[7622.43, 3091.24],[7634.51, 2833.44],[7641.96, 3042.09],[7644.65, 3200.99],[7649.32, 2779.57],[7656.1, 2980.15],[7660.09, 2732.44],[7660.14, 3139.05],[7664.85, 2944.46],[7683.03, 2883.19],[7683.71, 3099.32],[7692.46, 2832.02],[7693.13, 3038.05],[7705.25, 2995.63],[7710.64, 2801.72],[7713.33, 3164.63],[7722.08, 2951.19],[7725.45, 2746.51],[7729.49, 3112.79],[7732.18, 2898.68],[7740.94, 3062.96],[7756.42, 3016.51],[7757.1, 2842.12],[7764.5, 2799.02],[7764.5, 2970.72],[7770.56, 2759.3],[7772.49, 3185.11],[7779.32, 2917.53],[7789.66, 3129.86],[7790.09, 2871.74],[7799.37, 3076.09],[7808.94, 2823.94],[7815.8, 3029.05],[7833.72, 3198.56],[7835.96, 2979.02],[7841.94, 2737.08],[7846.42, 3133.59],[7847.16, 2921.52],[7854.63, 2880.45],[7855.38, 3088.04],[7862.84, 3046.22],[7868.82, 2835.65],[7882.26, 2990.22],[7883.75, 3206.77],[7886.74, 2791.59],[7892.71, 2739.32],[7893.46, 3151.51],[7898.69, 2946.91],[7906.9, 3099.24],[7912.87, 2890.91],[7929.3, 3052.2],[7930.79, 2834.9],[7932.29, 3012.62],[7939.01, 2786.36],[7942, 2967.07],[7946.48, 3169.43],[7962.16, 3112.68],[7963.65, 2900.61],[7977.09, 2855.06],[7978.59, 3064.89],[7988.29, 3018.59],[7993.52, 2818.47],[7994.27, 2756.49],[8005.47, 3190.34],[8007.71, 2976.78],[8022.64, 3138.82],[8028.62, 2928.24],[8035.34, 3083.56],[8037.58, 2770.68],[8039.07, 2867.76]]},"properties":{"objectType":"annotation"}},{"type":"Feature","id":"a84ba81c-8979-409a-80b8-013ee4884962","geometry":{"type":"Polygon","coordinates":[[[7170.51, 2485.64],[7170.51, 2996.6],[7681.46, 2996.6],[7681.46, 2485.64],[7170.51, 2485.64]]]},"properties":{"objectType":"annotation","classification":{"name":"2","color":[186, 153, 157]}}},{"type":"Feature","id":"45a59a75-06bd-4b23-8104-3d29bdb7e00d","geometry":{"type":"MultiPoint","coordinates":[[7185.78, 2964.78],[7192.37, 2588.16],[7192.37, 2751.99],[7199.91, 2915.82],[7209.32, 2698.32],[7212.15, 2874.39],[7216.85, 2647.48],[7230.98, 2821.67],[7237.57, 2769.88],[7237.57, 2976.08],[7240.39, 2605.11],[7256.4, 2720.92],[7257.34, 2938.42],[7270.52, 2885.69],[7272.41, 2546.73],[7277.11, 2661.6],[7284.65, 2841.44],[7291.24, 2609.82],[7300.65, 2788.71],[7302.54, 2507.19],[7307.24, 2974.2],[7309.13, 2551.44],[7313.83, 2741.63],[7318.54, 2918.65],[7325.13, 2687.02],[7329.84, 2877.22],[7336.43, 2626.76],[7348.67, 2827.32],[7350.55, 2563.68],[7357.15, 2517.54],[7357.15, 2783.06],[7359.03, 2990.2],[7369.39, 2945.01],[7376.92, 2734.1],[7385.39, 2681.37],[7389.16, 2891.34],[7398.57, 2571.21],[7399.52, 2635.24],[7403.28, 2840.5],[7405.17, 2792.48],[7416.46, 2526.96],[7416.46, 2745.4],[7418.35, 2986.44],[7429.65, 2946.89],[7436.24, 2648.42],[7437.18, 2895.11],[7440, 2588.16],[7441.89, 2690.79],[7452.24, 2842.38],[7470.13, 2801.89],[7477.66, 2531.67],[7480.49, 2960.07],[7481.43, 2595.69],[7482.37, 2751.99],[7488.02, 2654.07],[7491.79, 2703.97],[7502.15, 2910.17],[7515.33, 2850.85],[7522.86, 2502.48],[7523.8, 2808.48],[7533.22, 2612.64],[7536.04, 2753.87],[7537.92, 2972.32],[7539.81, 2551.44],[7540.75, 2666.31],[7550.16, 2712.45],[7556.76, 2919.59],[7569, 2859.33],[7570.88, 2562.74],[7572.76, 2618.29],[7578.41, 2816.96],[7585.94, 2512.84],[7588.77, 2985.5],[7597.24, 2668.19],[7601.01, 2775.53],[7608.54, 2918.65],[7611.37, 2721.86],[7617.02, 2612.64],[7623.61, 2873.45],[7633.02, 2572.15],[7633.02, 2829.2],[7633.96, 2511.89],[7642.44, 2690.79],[7654.68, 2778.35],[7661.27, 2627.71],[7666.92, 2735.04]]},"properties":{"objectType":"annotation"}},{"type":"Feature","id":"9382a395-0924-4aac-9d11-72a4f601551d","geometry":{"type":"MultiPoint","coordinates":[[3374.22, 4160.05],[3375.07, 3784.8],[3375.59, 3974.61],[3380.16, 3745.74],[3396.29, 4085.34],[3409.87, 4027.61],[3411.57, 3845.08],[3420.06, 3986.86],[3428.55, 4202.5],[3431.14, 4145.82],[3436.19, 3928.28],[3438.74, 3752.53],[3438.74, 3803.47],[3448.93, 3894.32],[3453.17, 4104.02],[3465.91, 4046.29],[3468.45, 3856.11],[3472.37, 4201.29],[3475.25, 4001.29],[3481.19, 4154.11],[3487.13, 3802.63],[3491.38, 3749.99],[3491.38, 3945.26],[3497.15, 4105.28],[3512.2, 4065.91],[3521.47, 4002.22],[3522.79, 3845.08],[3524.49, 3884.98],[3533.83, 4192.31],[3536.52, 3948.95],[3550.81, 4108.26],[3559.3, 3771.21],[3569.16, 3901.59],[3572.03, 4073.45],[3576.28, 3839.98],[3578.82, 4028.46],[3585.62, 4175.33],[3595.8, 4126.94],[3597.9, 3954.74],[3623.82, 4076],[3624.54, 3875.99],[3635.71, 4020.82],[3646.74, 4181.28],[3650.99, 3970.73],[3657.78, 3817.91],[3664.57, 3774.61],[3678.16, 4071.76],[3697.68, 3873.94],[3702.78, 3986.01],[3706.17, 4190.62],[3711.27, 4092.98],[3714.66, 3788.19],[3719.76, 3946.11],[3719.76, 4128.64],[3738.43, 4061.57],[3740.13, 3904.5],[3744.38, 3856.11],[3751.17, 4030.16],[3757.96, 3797.53],[3759.66, 4218.63],[3760.51, 3987.71],[3772.39, 4154.11],[3775.79, 3945.26],[3786.83, 4090.43],[3791.07, 3906.2],[3799.56, 4046.29],[3813.67, 3832.83],[3820.79, 3779.7],[3825.03, 4002.14],[3827.58, 4180.43],[3828.43, 3946.95],[3836.92, 4129.49],[3847.95, 4097.23],[3850.5, 3896.86],[3852.67, 3845.88]]},"properties":{"objectType":"annotation","color":[0, 255, 255]}},{"type":"Feature","id":"7604ff44-a3ae-4396-9c37-8ea61c6b0848","geometry":{"type":"Polygon","coordinates":[[[2624.78, 3760.03],[2624.78, 4270.98],[3135.73, 4270.98],[3135.73, 3760.03],[2624.78, 3760.03]]]},"properties":{"objectType":"annotation","classification":{"name":"2","color":[186, 153, 157]}}},{"type":"Feature","id":"4fb4a743-01a2-4dd9-9041-cd2528318186","geometry":{"type":"Polygon","coordinates":[[[7653.89, 1614.5],[7653.89, 2125.46],[8164.84, 2125.46],[8164.84, 1614.5],[7653.89, 1614.5]]]},"properties":{"objectType":"annotation","classification":{"name":"2","color":[186, 153, 157]}}},{"type":"Feature","id":"37006cd4-e4f5-4e34-a693-b3fc4719ef7f","geometry":{"type":"MultiPoint","coordinates":[[7670.71, 1637.27],[7674.96, 1894.52],[7680.05, 2092.33],[7685.99, 1846.97],[7686.84, 2041.39],[7697.88, 1796.03],[7702.12, 1996.39],[7702.97, 1751.88],[7714.01, 1954.79],[7718.25, 1907.25],[7719.95, 1701.79],[7730.14, 1651.7],[7736.08, 2102.52],[7739.48, 1854.61],[7746.27, 1810.46],[7746.27, 2054.13],[7754.76, 1757.83],[7757.31, 2007.43],[7765.8, 1716.23],[7774.29, 1959.04],[7778.53, 1669.53],[7781.08, 1919.14],[7787.87, 1628.78],[7795.51, 2101.67],[7796.36, 1869.05],[7804, 1824.05],[7806.55, 2062.62],[7819.28, 1780.75],[7819.28, 2015.92],[7827.77, 1962.43],[7830.32, 1731.51],[7837.11, 1678.02],[7844.75, 1915.74],[7845.6, 1880.08],[7858.34, 1627.08],[7861.73, 1829.14],[7865.98, 2068.56],[7870.22, 1784.15],[7875.32, 2026.96],[7878.71, 1729.81],[7882.11, 1984.51],[7891.45, 1695],[7901.64, 1642.36],[7905.88, 1939.51],[7906.73, 1897.91],[7916.92, 2090.63],[7923.71, 1840.18],[7933.05, 1801.13],[7938.14, 2034.6],[7939.84, 1987.9],[7943.24, 1750.19],[7944.94, 1943.76],[7957.67, 1700.1],[7962.76, 1894.52],[7972.1, 1657.65],[7974.65, 1841.88],[7975.5, 1806.22],[7983.14, 2090.63],[7994.18, 1751.04],[7997.57, 2041.39],[8006.91, 1991.3],[8012.01, 1676.32],[8012.85, 1949.7],[8013.7, 1711.13],[8024.74, 1906.4],[8030.68, 1855.46],[8033.23, 2107.61],[8042.57, 2062.62],[8046.81, 1807.92],[8052.76, 2010.83],[8058.7, 1719.62],[8062.94, 1762.07],[8066.34, 1968.38],[8070.59, 1670.38],[8072.28, 1919.98],[8086.72, 1872.44],[8087.57, 1628.78],[8090.96, 2112.71],[8096.06, 1824.9],[8102, 2073.65],[8107.94, 2030.35],[8110.49, 1781.6],[8120.68, 1735.75],[8124.07, 1980.26],[8125.77, 1693.3],[8139.35, 1925.08],[8141.9, 1634.72],[8144.45, 1877.54]]},"properties":{"objectType":"annotation"}},{"type":"Feature","id":"59dae632-435e-4b67-bbac-8c1755d0586e","geometry":{"type":"MultiPoint","coordinates":[[1987.86, 693.79],[2000.71, 788.57],[2008.35, 985.54],[2008.71, 587.25],[2020.29, 645.15],[2021.08, 915.92],[2022.6, 747.06],[2030.42, 1049.21],[2040.61, 851.39],[2045.77, 696.11],[2057.59, 994.03],[2059.66, 572.2],[2065.23, 932.9],[2066.08, 747.82],[2066.61, 625.47],[2072.02, 798.76],[2076.27, 668.86],[2081.36, 1029.68],[2083.91, 867.53],[2089.85, 700.27],[2101.74, 771.59],[2102.58, 838.66],[2103.43, 994.87],[2114.47, 628.11],[2119.56, 566.13],[2122.96, 806.4],[2123.81, 938.84],[2139.94, 724.9],[2139.94, 895.54],[2149.28, 677.35],[2162.86, 606.04],[2162.86, 651.03],[2166.26, 754.61],[2166.26, 1005.91],[2167.96, 830.17],[2182.39, 566.13],[2182.39, 958.37],[2189.18, 717.25],[2189.18, 913.37],[2193.43, 873.47],[2199.37, 1040.72],[2207.86, 789.42],[2214.65, 669.71],[2217.2, 994.87],[2219.75, 628.96],[2225.69, 582.26],[2228.24, 810.64],[2231.63, 950.73],[2239.27, 719.8],[2246.91, 896.39],[2255.4, 690.94],[2259.65, 857.34],[2264.74, 635.75],[2267.29, 795.36],[2267.29, 827.62],[2273.23, 585.66],[2276.63, 759.7],[2278.33, 988.93],[2282.57, 949.03],[2293.61, 919.31],[2303.8, 732.54],[2303.8, 868.37],[2308.04, 1044.97],[2313.14, 667.16],[2313.14, 701.12],[2314.83, 832.72],[2316.53, 1005.06],[2326.72, 606.04],[2326.72, 638.3],[2326.72, 797.06],[2338.6, 769.04],[2348.79, 578.02],[2348.79, 735.08],[2352.19, 945.63],[2356.43, 700.27],[2358.13, 853.09],[2368.32, 1033.93],[2381.05, 648.49],[2383.6, 814.04],[2388.7, 993.18],[2396.34, 758.85],[2399.73, 943.94],[2406.52, 580.57],[2408.22, 720.65],[2411.62, 673.11],[2422.66, 880.26],[2424.35, 1029.68],[2435.39, 645.94],[2437.09, 814.04],[2437.94, 930.35],[2440.48, 980.44],[2452.37, 784.32],[2463.41, 864.13],[2470.2, 1022.04],[2471.05, 731.69]]},"properties":{"objectType":"annotation"}},{"type":"Feature","id":"7bbef389-7892-4054-8620-62918ad17488","geometry":{"type":"Polygon","coordinates":[[[6.19, 2974.37],[6.19, 3485.33],[517.15, 3485.33],[517.15, 2974.37],[6.19, 2974.37]]]},"properties":{"objectType":"annotation","classification":{"name":"2","color":[186, 153, 157]}}},{"type":"Feature","id":"63951315-3705-42fc-8042-fdd9be3a8613","geometry":{"type":"Polygon","coordinates":[[[2388.46, 2494.71],[2388.46, 3005.66],[2899.41, 3005.66],[2899.41, 2494.71],[2388.46, 2494.71]]]},"properties":{"objectType":"annotation","classification":{"name":"2","color":[186, 153, 157]}}},{"type":"Feature","id":"ccbbfdf6-538e-4d65-89ed-ac11a32a8db8","geometry":{"type":"MultiPoint","coordinates":[[7519.11, 370.27],[7531.28, 303.88],[7535.7, 501.94],[7542.34, 223.11],[7544.56, 101.4],[7548.98, 175.53],[7549.97, 548.39],[7559.86, 434.14],[7573.36, 382.86],[7574.43, 280.65],[7594.35, 478.7],[7596.56, 548.41],[7605.74, 188.55],[7606.52, 421.17],[7613.16, 135.7],[7617.58, 376.91],[7623.12, 311.63],[7638.61, 246.34],[7647.46, 195.45],[7652.99, 555.05],[7654.1, 515.22],[7671.8, 449.94],[7675.12, 397.93],[7677.33, 168.89],[7690.61, 88.12],[7693.93, 322.69],[7697.25, 260.73],[7699.46, 504.15],[7701.68, 216.47],[7705.6, 546.59],[7721.59, 449.94],[7726.02, 396.82],[7734.87, 347.03],[7737.08, 288.39],[7740.4, 105.82],[7754.79, 234.17],[7758.11, 536.24],[7762.53, 184.38],[7774.7, 474.28],[7783.87, 409.85],[7784.66, 112.46],[7799.16, 262.32],[7802.36, 205.41],[7810.11, 439.98],[7814.54, 511.9],[7825.6, 136.8],[7832.24, 385.76],[7835.56, 320.48],[7845.52, 469.85],[7852.16, 262.94],[7857.69, 77.05],[7869.86, 227.53],[7876.5, 552.84],[7878.71, 142.34],[7882.03, 381.33],[7884.24, 495.3],[7900.84, 202.09],[7912.51, 339.68],[7914.12, 78.16],[7922.97, 431.13],[7939.57, 244.13],[7942.89, 173.32],[7946.21, 515.22],[7949.52, 311.63],[7955.06, 389.08],[7965.02, 120.21],[7973.87, 444.4],[7979.08, 540.3],[7979.98, 489.02],[7997.1, 170]]},"properties":{"objectType":"annotation","color":[0, 255, 255]}},{"type":"Feature","id":"f2cb3f66-60d8-42da-9980-bb6d7962f894","geometry":{"type":"Polygon","coordinates":[[[7347.29, 683.42],[7347.29, 1194.37],[7858.25, 1194.37],[7858.25, 683.42],[7347.29, 683.42]]]},"properties":{"objectType":"annotation","classification":{"name":"2","color":[186, 153, 157]}}},{"type":"Feature","id":"47091d07-7b04-4064-8594-6a63d17bcbfd","geometry":{"type":"Polygon","coordinates":[[[6033.98, 2411.22],[6033.98, 2922.18],[6544.94, 2922.18],[6544.94, 2411.22],[6033.98, 2411.22]]]},"properties":{"objectType":"annotation","classification":{"name":"2","color":[186, 153, 157]}}},{"type":"Feature","id":"0dea09d7-c3fe-41fd-b684-a7a17186377d","geometry":{"type":"Polygon","coordinates":[[[7368.88, 1845.13],[7368.88, 2356.08],[7879.84, 2356.08],[7879.84, 1845.13],[7368.88, 1845.13]]]},"properties":{"objectType":"annotation","classification":{"name":"2","color":[186, 153, 157]}}},{"type":"Feature","id":"7eecef26-da11-4944-a347-9e4a41c5a7ef","geometry":{"type":"MultiPoint","coordinates":[[7381.91, 2082.7],[7386.9, 2039.8],[7391.89, 2290.22],[7411.84, 2220.38],[7413.84, 1930.05],[7415.83, 2183.47],[7416.83, 1976.95],[7423.82, 1885.16],[7428.8, 2127.6],[7432.79, 2090.68],[7445.77, 2039.8],[7450.75, 2337.11],[7460.73, 2282.24],[7461.73, 1995.9],[7464.72, 2228.36],[7474.7, 1946.02],[7475.7, 2181.47],[7478.69, 1905.11],[7479.69, 2136.58],[7488.67, 2350.08],[7496.65, 1867.2],[7502.63, 2096.67],[7509.62, 2053.77],[7513.61, 2007.87],[7515.6, 2296.21],[7517.6, 2252.31],[7526.58, 2205.42],[7530.57, 1964.97],[7537.55, 1923.07],[7537.55, 2111.63],[7547.53, 1860.21],[7548.53, 2152.54],[7560.5, 2070.73],[7568.48, 2315.16],[7569.48, 2024.83],[7588.44, 1974.95],[7589.43, 2262.29],[7592.43, 1915.09],[7594.42, 2214.4],[7603.4, 2169.5],[7609.39, 2318.16],[7611.38, 1879.17],[7613.38, 2122.61],[7630.34, 2281.24],[7631.34, 2073.72],[7637.32, 2024.83],[7643.31, 2227.37],[7651.29, 2187.46],[7654.28, 1971.96],[7656.28, 1933.05],[7664.26, 2142.56],[7667.25, 1896.13],[7677.23, 2100.66],[7678.23, 1857.22],[7687.21, 2326.14],[7690.2, 2283.24],[7696.19, 2044.79],[7702.17, 1995.9],[7703.17, 2242.33],[7709.16, 1951.01],[7719.13, 1917.08],[7729.11, 2145.56],[7737.09, 1862.21],[7737.09, 2350.08],[7741.08, 2097.67],[7745.07, 2061.75],[7751.06, 2292.22],[7760.04, 2253.31],[7761.04, 2009.87],[7772.01, 2191.45],[7779, 1965.97],[7782.99, 2152.54],[7786.98, 1914.09],[7790.97, 1862.21],[7791.97, 2112.63],[7802.94, 2068.73],[7805.93, 2313.17],[7814.91, 2266.28],[7816.91, 2016.85],[7829.88, 1962.98],[7831.87, 2228.36],[7834.87, 1921.07],[7836.86, 2185.46],[7844.84, 1887.15],[7850.83, 2134.58],[7865.79, 2326.14],[7868.79, 2072.72],[7872.78, 2031.82]]},"properties":{"objectType":"annotation"}},{"type":"Feature","id":"b13ee301-d763-4151-9f20-976236ff0603","geometry":{"type":"Polygon","coordinates":[[[5309.51, 2893.89],[5309.51, 3404.84],[5820.47, 3404.84],[5820.47, 2893.89],[5309.51, 2893.89]]]},"properties":{"objectType":"annotation","classification":{"name":"2","color":[186, 153, 157]}}},{"type":"Feature","id":"6a5dfeda-5a31-4c37-a394-9d7e3046c1fd","geometry":{"type":"MultiPoint","coordinates":[[5322.85, 3070.07],[5339.94, 3249.1],[5348.04, 2962.12],[5351.64, 3189.72],[5355.24, 2901.85],[5355.24, 3379.54],[5360.63, 3129.45],[5366.93, 3088.97],[5366.93, 3320.17],[5379.52, 3019.69],[5390.32, 3273.39],[5394.82, 2972.92],[5395.72, 3204.12],[5408.31, 3151.94],[5410.11, 3378.64],[5415.51, 2921.64],[5425.41, 3336.36],[5429, 3100.66],[5439.8, 3049.38],[5443.4, 3274.29],[5453.29, 2994.51],[5461.39, 2933.33],[5463.19, 3178.93],[5472.19, 3105.16],[5477.58, 3345.36],[5503.67, 3288.68],[5511.77, 3231.1],[5522.56, 2949.52],[5525.26, 3179.83],[5527.96, 3368.75],[5537.86, 3129.45],[5542.35, 3300.37],[5549.55, 3073.67],[5555.85, 3032.29],[5559.45, 3241],[5572.04, 3198.72],[5575.64, 3380.44],[5578.34, 2972.92],[5591.83, 2914.44],[5597.23, 3135.75],[5604.43, 3317.47],[5607.13, 3084.47],[5612.52, 3034.09],[5625.12, 3263.49],[5626.02, 2985.51],[5628.72, 3202.32],[5633.22, 3386.74],[5638.61, 3158.24],[5642.21, 2924.34],[5653.01, 3326.46],[5656.61, 3042.19],[5657.51, 3101.56],[5684.49, 2988.21],[5684.49, 3223.01],[5684.49, 3270.69],[5695.29, 3396.63],[5696.19, 2943.23],[5704.29, 3169.93],[5707.88, 3339.96],[5716.88, 3066.47],[5718.68, 3295.88],[5720.48, 3119.55],[5729.47, 3241.9],[5733.97, 3006.2],[5751.07, 3177.13],[5758.26, 2959.42],[5765.46, 3132.15],[5768.16, 2905.44],[5768.16, 3355.25],[5778.05, 3302.17],[5782.55, 3081.77],[5794.25, 3241.9],[5796.05, 3019.69],[5800.54, 3193.32],[5804.14, 2972.92]]},"properties":{"objectType":"annotation"}},{"type":"Feature","id":"cb06cadd-a838-4169-afb3-b22f9ffd49cc","geometry":{"type":"MultiPoint","coordinates":[[6293.89, 541.26],[6297.81, 876.73],[6303.79, 478.29],[6304.69, 683.4],[6323.58, 836.34],[6328.08, 630.33],[6330.78, 579.95],[6337.98, 913.7],[6361.37, 675.31],[6362.07, 737.23],[6364.96, 534.97],[6371.26, 477.39],[6371.26, 821.94],[6383.86, 932.6],[6384.76, 451.3],[6391.05, 778.76],[6391.95, 621.33],[6403.65, 566.45],[6418.04, 726.58],[6421.64, 478.29],[6421.64, 866.02],[6434.23, 624.03],[6435.13, 683.4],[6436.93, 823.74],[6445.93, 588.04],[6460.32, 769.77],[6472.92, 539.46],[6479.72, 707.05],[6484.61, 471.99],[6497.7, 667.73],[6500.81, 805.75],[6504.4, 933.5],[6508, 844.43],[6517, 583.55],[6518.8, 744.58],[6534.99, 708.59],[6544.89, 900.21],[6551.18, 516.97],[6553.74, 480.55],[6556.01, 610.49],[6569.18, 649.22],[6573.67, 768.87],[6576.37, 810.25],[6591.67, 564.65],[6595.22, 494],[6596.17, 454],[6596.17, 901.11],[6597.06, 697.8],[6601.46, 866.67],[6620.45, 631.23],[6622.25, 807.55],[6637.55, 732.88],[6640.25, 594.34],[6641.15, 928.1],[6643.84, 506.18],[6652.84, 884.92],[6665.44, 700.5],[6675.33, 839.04],[6679.83, 776.96],[6697.82, 572.75],[6698.72, 738.28],[6699.46, 621.78],[6702.32, 906.51],[6725.91, 512.26],[6730.21, 825.54],[6733.81, 632.12],[6739.2, 551.16],[6743.7, 767.07],[6763.35, 918.81],[6765.29, 724.79]]},"properties":{"objectType":"annotation","color":[0, 255, 255]}},{"type":"Feature","id":"68c85719-f38a-4bfd-a36c-5a547da9dd73","geometry":{"type":"Polygon","coordinates":[[[1974.28, 547.02],[1974.28, 1057.98],[2485.24, 1057.98],[2485.24, 547.02],[1974.28, 547.02]]]},"properties":{"objectType":"annotation","classification":{"name":"2","color":[186, 153, 157]}}},{"type":"Feature","id":"0fda6cfb-068e-4d11-814c-ee7e25558092","geometry":{"type":"MultiPoint","coordinates":[[7359, 946.18],[7365.29, 1097.43],[7370.69, 901.31],[7386.88, 1039.86],[7387.78, 852.74],[7394.98, 1164],[7398.57, 995.77],[7408.47, 791.56],[7415.67, 946.3],[7422.86, 1123.52],[7440.86, 751.08],[7441.75, 1082.14],[7448.05, 1020.96],[7452.55, 888.72],[7457.95, 1173.9],[7471.44, 1109.13],[7475.94, 788.86],[7484.04, 952.59],[7485.84, 752.88],[7502.93, 1070.44],[7503.44, 1025.5],[7511.03, 1171.2],[7511.87, 844.51],[7521.97, 980.46],[7541.61, 1108.23],[7546.11, 919.31],[7547.91, 730.39],[7556.01, 1026.36],[7573.1, 821.25],[7577.6, 1166.7],[7586.59, 966.09],[7592.33, 731.87],[7592.89, 1080.34],[7593.06, 895.71],[7617.18, 856.33],[7620.78, 1026.36],[7622.32, 1165.61],[7629.63, 791.85],[7632.56, 1122.46],[7648.12, 946.55],[7654.06, 754.68],[7654.06, 903.11],[7663.96, 1051.55],[7674.75, 1006.57],[7680.83, 835.74],[7682.85, 1164],[7692.75, 1105.53],[7697.48, 962.02],[7707.14, 1059.65],[7712.54, 753.78],[7721.54, 1014.67],[7725.13, 886.02],[7738.61, 1118.8],[7740.43, 1150.51],[7751.22, 778.07],[7758.42, 933.7],[7762.7, 1074.79],[7762.75, 696.76],[7779.57, 864.26],[7781.81, 1007.47],[7789.01, 1169.4],[7792.6, 816.75],[7804.44, 1118.07],[7815.09, 753.78],[7822.29, 925.6],[7827.85, 1056.63],[7837.35, 714.32],[7845.4, 1012.74],[7846.58, 1171.2],[7850.31, 832.97]]},"properties":{"objectType":"annotation","color":[0, 255, 255]}},{"type":"Feature","id":"033962d7-98c5-42e0-a1cd-646cbf9c21a8","geometry":{"type":"MultiPoint","coordinates":[[2402.65, 2641.38],[2409.16, 2590.04],[2414.3, 2813.15],[2424.65, 2518.12],[2424.65, 2557.95],[2437.41, 2975.06],[2440.39, 2730.38],[2444.87, 2693.71],[2447.39, 2935.15],[2452.98, 2887.81],[2459.28, 2855.43],[2467.8, 2615.49],[2478.17, 2811.35],[2487.69, 2521.25],[2490.77, 2722.28],[2490.77, 2777.16],[2502.27, 2967.07],[2505.16, 2688.1],[2506.26, 2926.17],[2510.56, 2652.11],[2513.24, 2884.27],[2525.21, 2841.36],[2528.21, 2805.45],[2531.25, 2603.53],[2533.05, 2562.15],[2543.84, 2518.97],[2544.17, 2753.57],[2552.15, 2960.09],[2562.13, 2655.79],[2562.13, 2920.18],[2564.12, 2711.66],[2570.11, 2858.33],[2581.08, 2596.93],[2587.07, 2803.45],[2589.06, 2553.03],[2596.05, 2509.13],[2599.04, 2992.02],[2602.03, 2765.54],[2613.5, 2941.89],[2614.01, 2704.68],[2630.97, 2851.34],[2633.96, 2623.87],[2634.96, 2783.5],[2637.95, 2578.97],[2651.92, 2743.59],[2654.91, 2538.07],[2658.9, 2948.12],[2665.89, 2697.7],[2666.89, 2654.8],[2672.87, 2899.23],[2682.85, 2573.98],[2682.85, 2853.34],[2703.8, 2534.07],[2703.8, 2767.54],[2703.8, 2814.43],[2705.8, 2981.04],[2718.77, 2685.72],[2724.75, 2927.17],[2734.73, 2883.27],[2740.71, 2618.88],[2757.68, 2557.02],[2757.68, 2843.36],[2760.67, 2757.56],[2785.49, 2888.59],[2785.61, 2690.71],[2795.59, 2647.81],[2798.58, 2594.93],[2814.54, 2968.07],[2817.54, 2516.12],[2824.52, 2922.18],[2837.49, 2881.27],[2837.67, 2667.28],[2839.47, 2847.21],[2851.46, 2557.02],[2855.45, 2808.44],[2863.43, 2713.66],[2867.42, 2512.13],[2874.41, 2769.53],[2877.4, 2978.05],[2890.37, 2622.87],[2895.25, 2899.39]]},"properties":{"objectType":"annotation"}},{"type":"Feature","id":"b92bbc32-cc67-4879-8063-5c9c27a4e17f","geometry":{"type":"MultiPoint","coordinates":[[2498.01, 1904.6],[2502.25, 1854.51],[2513.29, 2110.06],[2514.99, 2146.56],[2518.38, 1814.61],[2532.81, 1761.12],[2533.66, 2064.21],[2536.21, 2021.76],[2542.15, 1981.86],[2544.7, 1701.69],[2558.28, 1942.81],[2562.53, 1879.13],[2562.53, 2185.62],[2565.93, 2143.17],[2573.57, 1845.17],[2576.96, 2102.42],[2589.7, 1807.82],[2591.39, 1766.22],[2599.04, 2060.82],[2599.88, 1732.26],[2603.28, 2014.12],[2616.02, 1933.47],[2620.26, 1891.02],[2625.35, 2144.02],[2631.3, 2101.57],[2638.94, 1841.78],[2648.28, 2062.51],[2653.37, 1767.06],[2655.07, 2027.71],[2663.56, 1988.65],[2664.41, 1727.16],[2666.96, 1947.9],[2669.5, 2179.67],[2678.84, 1902.9],[2683.94, 1865.55],[2694.12, 2095.62],[2700.07, 2048.93],[2700.91, 1774.71],[2700.91, 1813.76],[2713.65, 2010.73],[2716.2, 1701.69],[2727.23, 1976.77],[2734.03, 1929.22],[2734.87, 2140.62],[2739.97, 1872.34],[2744.21, 2078.64],[2753.55, 2032.8],[2758.65, 1796.78],[2763.74, 1763.67],[2767.14, 1722.07],[2773.93, 1926.68],[2776.48, 2000.54],[2778.17, 1957.24],[2796, 2111.76],[2796, 2147.41],[2802.79, 1875.74],[2803.64, 1839.23],[2810.44, 2066.76],[2819.77, 1794.23],[2824.87, 1751.78],[2824.87, 2031.95],[2828.26, 1998.84],[2829.96, 1949.6],[2831.66, 1707.64],[2841.85, 1892.72],[2843.92, 2162.17],[2853.73, 1858.76],[2862.22, 2104.11],[2862.58, 2064.83],[2865.62, 1811.21],[2873.26, 2029.4],[2876.66, 1771.31],[2884.3, 1989.5],[2886.84, 1739.05],[2891.09, 1892.72],[2893.64, 1692.35],[2896.18, 1941.96],[2898.73, 2178.83],[2908, 2139.46],[2909.77, 1857.06],[2910.62, 2104.11],[2921.65, 2021.76],[2925.9, 1813.76],[2930.14, 2059.97],[2930.99, 1773.01],[2941.18, 1734.8],[2944.58, 1980.16],[2949.67, 2140.62],[2953.07, 1942.81],[2970.05, 1890.17],[2973.44, 1849.42],[2980.2, 1811.74]]},"properties":{"objectType":"annotation"}},{"type":"Feature","id":"0e2157c5-4230-4a2a-a475-2682cab864a9","geometry":{"type":"MultiPoint","coordinates":[[1651.31, 1978.6],[1658.83, 1661.91],[1661.29, 1926.72],[1663.95, 1883.07],[1668.94, 1809.24],[1683.24, 2013.72],[1685.9, 1764.34],[1694.88, 1712.46],[1697.87, 1912.05],[1698.87, 1666.57],[1702.99, 1858.66],[1708.84, 2081.01],[1712.5, 1808.19],[1719.08, 1762.11],[1720.55, 2034.93],[1725.67, 1974.23],[1727.13, 1920.1],[1732.98, 1712.37],[1738.1, 1647.28],[1744.68, 1868.9],[1749.07, 2067.12],[1749.8, 1805.27],[1757.85, 2024.69],[1763.7, 1711.64],[1763.7, 1762.11],[1766.63, 1971.3],[1774.67, 1656.05],[1783.45, 1914.25],[1786.37, 1868.9],[1787.25, 2095.67],[1790.03, 1828.67],[1793.69, 1770.89],[1795.15, 2049.56],[1799.54, 2002.75],[1803.93, 1945.7],[1811.97, 1672.88],[1816.36, 1898.16],[1828.47, 1839.98],[1839.04, 2051.03],[1843.08, 1735.19],[1843.43, 1939.85],[1843.43, 1986.66],[1844.89, 1798.68],[1854.4, 1640.69],[1855.13, 2075.89],[1864.64, 2019.57],[1869.03, 1827.94],[1869.76, 1876.95],[1870.49, 1774.55],[1881.46, 1959.6],[1882.92, 1724.08],[1899.74, 1668.49],[1900.48, 2087.6],[1908.52, 1806.73],[1909.25, 2035.67],[1912.91, 1752.6],[1920.22, 1701.4],[1920.96, 1983],[1929, 1916.44],[1930.46, 1641.43],[1937.78, 1860.12],[1942.9, 1792.83],[1956.07, 1741.63],[1957.53, 2055.41],[1964.84, 1699.94],[1965.57, 1953.01],[1972.16, 1986.66],[1978.01, 1642.89],[1978.74, 1895.23],[1983.86, 2089.06],[1987.52, 1845.49],[1996.29, 1789.91],[2002.15, 2040.79],[2003.61, 1988.85],[2006.53, 1693.36],[2008.73, 1740.17],[2014.58, 1938.39],[2019.7, 1885.72],[2024.09, 1626.07],[2031.4, 2081.01],[2035.06, 1830.87],[2038.72, 2029.81],[2044.57, 1969.84],[2049.69, 1776.74],[2050.42, 1730.66],[2058.46, 1675.07],[2058.46, 1934],[2060.66, 1618.02],[2067.24, 1876.95],[2070.9, 2010.8],[2071.63, 2063.46],[2080.41, 1826.48],[2083.33, 1968.37],[2088.45, 1781.13],[2090.65, 1727],[2095.77, 1919.37],[2100.89, 1667.03],[2106.74, 1976.42],[2106.74, 2047.37],[2107.47, 1874.75],[2118.17, 1624.6],[2121.37, 1819.89],[2125.02, 1766.5],[2134.53, 2018.11],[2135.26, 1717.49],[2136, 1914.98],[2136.73, 2083.94]]},"properties":{"objectType":"annotation"}},{"type":"Feature","id":"b9ce73cb-d6e9-4979-9e06-4f75243c5afd","geometry":{"type":"MultiPoint","coordinates":[[2593.62, 857.55],[2600.11, 1010.86],[2602.75, 652.3],[2612.27, 813.75],[2616.72, 597.43],[2618.72, 554.53],[2622.01, 934.61],[2627.69, 778.06],[2629.31, 732.63],[2639.85, 885.94],[2656.63, 666.27],[2657.7, 1000.32],[2664.19, 821.05],[2669.6, 596.43],[2673.92, 786.17],[2683.66, 932.99],[2689.34, 752.91],[2692.55, 550.54],[2692.58, 705.86],[2692.58, 904.6],[2704.75, 872.15],[2705.56, 1002.75],[2709.62, 666.93],[2716.1, 615.01],[2716.1, 834.03],[2728.27, 577.7],[2729.08, 797.52],[2729.08, 935.42],[2736.38, 984.91],[2738.01, 739.93],[2747.74, 700.99],[2751.8, 557.42],[2754.23, 894.05],[2762.34, 674.23],[2769.64, 640.97],[2770.45, 1003.56],[2771.26, 859.98],[2778.57, 822.67],[2779.38, 789.41],[2781.81, 612.58],[2785.87, 962.19],[2787.49, 748.85],[2787.49, 915.96],[2799.66, 881.08],[2802.09, 572.83],[2813.45, 671.79],[2815.88, 721.27],[2824.8, 838.89],[2832.91, 974.36],[2836.16, 612.58],[2839.4, 816.99],[2843.46, 770.76],[2846.7, 928.93],[2855.63, 552.55],[2864.55, 726.14],[2868.61, 868.1],[2871.04, 1019.79],[2875.91, 684.77],[2878.34, 829.16],[2880.77, 636.91],[2884.02, 987.34],[2887.26, 804.82],[2889.7, 587.43],[2893.75, 954.08],[2905.92, 564.72],[2908.35, 744.8],[2919.71, 919.2],[2920.52, 1018.97],[2924.58, 868.1],[2929.44, 678.28],[2941.61, 591.49],[2943.23, 803.2],[2944.86, 632.04],[2953.78, 746.42],[2955.4, 966.25],[2974.87, 868.1],[2974.87, 1025.46],[2976.49, 901.35],[2977.3, 682.34],[2984.6, 822.67],[2989.47, 972.74],[2995.96, 621.5],[3005.69, 783.73],[3008.94, 754.53],[3010.56, 563.91],[3011.37, 882.7],[3013.81, 933.8],[3023.54, 728.57],[3034.08, 687.2],[3041.39, 1005.18],[3043.82, 641.78],[3044.63, 852.68],[3058.42, 602.03],[3066.53, 786.98],[3069.78, 569.58],[3073.02, 937.86]]},"properties":{"objectType":"annotation"}},{"type":"Feature","id":"3ae9d4ba-a6f2-43ca-8184-2faf704cf96b","geometry":{"type":"MultiPoint","coordinates":[[4016.45, 588.13],[4018.49, 428.21],[4021.54, 776.56],[4029.71, 844.17],[4031.73, 546.37],[4034.78, 376.27],[4035.8, 719.52],[4039.88, 669.61],[4053.12, 482.2],[4072.47, 624.8],[4078.24, 694.82],[4078.58, 419.05],[4081.98, 776.96],[4090.81, 563.68],[4092.84, 364.04],[4109.14, 502.57],[4109.41, 838.38],[4118.57, 653.75],[4121.36, 447.57],[4126.03, 700.8],[4132.01, 796.38],[4134.99, 567.88],[4140.22, 607.46],[4144.79, 389.51],[4167.1, 499.93],[4173.49, 754.01],[4182.78, 445.42],[4189.5, 632.84],[4193.24, 804.59],[4193.98, 396.88],[4198.46, 714.24],[4206.68, 564.15],[4208.17, 517.85],[4226.84, 756.05],[4232.81, 476.78],[4237.29, 669.43],[4239.53, 629.86],[4244.54, 818.6],[4249.99, 594.76],[4261.19, 381.2],[4270.22, 694.37],[4270.9, 519.34],[4273.14, 439.44],[4293.4, 642.2],[4299.27, 500.67],[4300.86, 832.67],[4301.69, 788.78],[4302.51, 600.8],[4305.25, 414.05],[4313.28, 724.19],[4318.25, 560.22],[4324.66, 371.49],[4330.67, 527.92],[4337.3, 664.56],[4345.58, 491.48],[4345.92, 833.58],[4356.34, 459.18],[4357.64, 745.88],[4360.48, 607.42],[4364.62, 422.75],[4378.7, 365.6],[4379.53, 550.28],[4383.03, 688.38],[4394.98, 662.24],[4395.27, 508.87],[4395.74, 848.4],[4402.44, 747.37],[4417.62, 455.87],[4418.87, 593.55],[4422.59, 397.9],[4422.6, 560.69],[4423.34, 803.5],[4433.8, 751.1],[4439.03, 502.45],[4445.75, 710.03],[4456.21, 648.8],[4467.41, 456.89],[4471.14, 778.73],[4477.11, 402.38],[4477.11, 598.77],[4492.8, 549.49]]},"properties":{"objectType":"annotation"}},{"type":"Feature","id":"f8e319a9-48d5-415a-8b73-b2056e4613a9","geometry":{"type":"MultiPoint","coordinates":[[2638.72, 4156.86],[2649.25, 4097.61],[2656.99, 4026.79],[2665.84, 4253.62],[2670.27, 3994.7],[2671.38, 3946.02],[2674.69, 3791.11],[2683.55, 4193.87],[2686.87, 3897.33],[2686.87, 4076.58],[2689.08, 3849.76],[2693.5, 4134.12],[2707.89, 4038.96],[2730.02, 4234.81],[2732.23, 3911.72],[2732.23, 3998.02],[2744.4, 3840.9],[2744.4, 4186.12],[2747.72, 4147.4],[2754.36, 4083.22],[2763.21, 4045.6],[2770.96, 3961.51],[2773.68, 3993.58],[2779.81, 4234.81],[2780.92, 3917.25],[2794.19, 3833.16],[2797.51, 4133.01],[2797.51, 4179.48],[2799.73, 3878.52],[2811.9, 4069.94],[2822.96, 4026.79],[2827.66, 3941.41],[2828.49, 4227.06],[2829.6, 3993.6],[2839.56, 3885.16],[2843.98, 4137.44],[2848.41, 3788.9],[2851.73, 4172.85],[2855.05, 4087.65],[2860.17, 4027.07],[2860.58, 3844.22],[2863.9, 3946.02],[2876.07, 4228.17],[2883.82, 3975.89],[2898.2, 4147.4],[2909.27, 3871.89],[2912.59, 3784.47],[2914.8, 4051.13],[2925.06, 4004.36],[2936.93, 4222.64],[2938.03, 3907.29],[2938.03, 3952.66],[2946.89, 4162.89],[2952.42, 4111.99],[2956.84, 3858.61],[2962.38, 3819.88],[2972.34, 4066.62],[2978.97, 3778.94],[2983.4, 3972.57],[2983.4, 4026.79],[2990.04, 4262.47],[2992.29, 4211.29],[2994.46, 4147.4],[2998.89, 3891.8],[2998.89, 3937.17],[3007.74, 4117.52],[3016.59, 3837.58],[3020.17, 4083.54],[3028.77, 3948.23],[3030.98, 3988.06],[3033.19, 4256.94],[3037.62, 4030.11],[3053.11, 4145.18],[3054.21, 4209.36],[3058.64, 3886.27],[3059.75, 4086.54],[3064.17, 3814.35],[3090.73, 3894.01],[3096.26, 4250.3],[3098.47, 4038.96],[3104.01, 4170.63],[3115.07, 4105.35],[3122.82, 3846.44]]},"properties":{"objectType":"annotation"}},{"type":"Feature","id":"ecfbecc9-3c3a-4923-8500-a10eb85ae5e4","geometry":{"type":"MultiPoint","coordinates":[[6046.4, 2733.8],[6051.39, 2679.93],[6056.38, 2461.43],[6069.35, 2864.5],[6087.3, 2590.13],[6088.3, 2800.65],[6103.27, 2529.27],[6103.27, 2754.75],[6112.25, 2473.4],[6113.24, 2699.88],[6122.22, 2650.99],[6128.21, 2869.49],[6134.2, 2428.51],[6148.16, 2604.1],[6152.15, 2816.61],[6156.15, 2547.23],[6158.14, 2770.72],[6168.12, 2712.85],[6171.11, 2493.36],[6184.08, 2881.46],[6187.07, 2438.48],[6189.07, 2669.95],[6205.03, 2827.59],[6212.02, 2603.1],[6214.01, 2781.69],[6215.01, 2552.22],[6228.98, 2497.35],[6233.97, 2898.42],[6235.96, 2723.82],[6241.95, 2432.5],[6241.95, 2846.54],[6247.93, 2665.96],[6263.9, 2613.08],[6270.88, 2789.67],[6276.87, 2566.19],[6284.85, 2733.8],[6295.82, 2910.39],[6296.82, 2521.29],[6297.82, 2853.53],[6300.81, 2677.93],[6301.81, 2464.42],[6314.78, 2630.04],[6322.76, 2799.65],[6332.74, 2572.18],[6332.74, 2760.74],[6345.71, 2691.9],[6347.7, 2525.28],[6348.7, 2889.44],[6358.68, 2471.41],[6364.66, 2640.02],[6372.65, 2422.52],[6372.65, 2826.59],[6377.63, 2597.12],[6383.62, 2794.66],[6390.6, 2547.23],[6398.59, 2498.35],[6398.59, 2740.79],[6403.57, 2909.4],[6412.55, 2695.89],[6420.54, 2640.02],[6423.53, 2438.48],[6425.52, 2854.52],[6427.52, 2594.12],[6443.48, 2804.64],[6449.47, 2754.75],[6450.47, 2543.24],[6457.91, 2908.27],[6465.43, 2705.87],[6466.43, 2862.5],[6473.41, 2493.36],[6476.41, 2657.98],[6484.39, 2606.1],[6495.36, 2812.62],[6498.36, 2434.49],[6499.35, 2559.21],[6511.33, 2758.74],[6513.32, 2712.85],[6520.3, 2869.49],[6527.29, 2499.34],[6527.29, 2666.96]]},"properties":{"objectType":"annotation"}},{"type":"Feature","id":"e2cd813d-ae65-4615-a559-66ecf5171392","geometry":{"type":"MultiPoint","coordinates":[[5921.55, 2994.85],[5925.52, 3223.93],[5926.51, 2755.85],[5926.51, 3165.42],[5932.46, 2944.28],[5945.35, 2891.72],[5950.31, 3111.87],[5958.24, 3058.32],[5959.24, 2844.12],[5977.09, 3007.74],[5978.08, 3182.28],[5980.06, 2776.68],[5989.98, 2957.17],[5998.9, 3132.7],[6004.85, 2892.71],[6012.79, 3076.17],[6019.73, 2843.12],[6025.68, 3025.6],[6035.6, 2975.02],[6037.58, 2789.57],[6047.5, 3194.18],[6052.46, 2916.51],[6052.46, 3138.65],[6063.36, 2864.94],[6066.34, 3082.12],[6084.19, 3200.13],[6086.17, 3027.58],[6092.12, 2808.41],[6102.04, 2747.92],[6102.04, 2982.95],[6110.97, 3150.55],[6111.96, 2930.39],[6126.83, 2877.83],[6131.79, 3099.97],[6136.75, 3042.45],[6145.67, 2806.43],[6148.65, 3217.98],[6152.62, 2990.89],[6161.54, 2763.79],[6161.54, 3167.41],[6167.49, 2937.33],[6176.42, 3112.86],[6185.34, 2879.82],[6189.31, 3056.34],[6190.3, 2823.29],[6192.28, 3232.86],[6206.17, 2775.69],[6213.11, 2995.84],[6213.11, 3172.37],[6226, 2953.2],[6230.96, 2905.6],[6232.94, 3134.68],[6247.82, 3080.14],[6252.78, 2846.1],[6252.78, 3226.91],[6258.73, 3021.63],[6264.68, 2792.55],[6268.64, 2967.09],[6279.55, 3180.3],[6284.51, 3141.62],[6292.44, 2914.53],[6300.38, 2859.98],[6300.38, 3095.01],[6319.22, 3035.51],[6323.19, 2795.52],[6327.15, 3202.12],[6333.1, 2987.91],[6334.1, 2749.9],[6340.05, 2943.28],[6342.03, 3152.53],[6350.96, 3112.86],[6354.92, 2889.73],[6367.81, 3059.31],[6372.77, 2843.12],[6376.74, 2997.83],[6382.35, 3214.47],[6383.68, 2789.57],[6386.66, 2960.14],[6392.61, 3164.43],[6397.56, 2904.61],[6408.47, 3111.87]]},"properties":{"objectType":"annotation"}},{"type":"Feature","id":"2d8ae4bf-3121-4b18-b0f8-1182e894b2f0","geometry":{"type":"MultiPoint","coordinates":[[4574.38, 2480.71],[4575.47, 2639.08],[4590.87, 2407.02],[4595.27, 2590.69],[4606.27, 2536.8],[4606.27, 2834.85],[4608.47, 2782.06],[4615.07, 2732.57],[4629.37, 2484.01],[4630.47, 2688.57],[4633.76, 2442.22],[4637.06, 2653.38],[4648.06, 2387.23],[4651.36, 2570.89],[4656.86, 2783.16],[4656.86, 2838.15],[4672.83, 2487.19],[4676.45, 2694.01],[4681.06, 2745.76],[4700.25, 2369.73],[4701.95, 2418.02],[4702.24, 2624.59],[4708.55, 2794.16],[4714.05, 2577.49],[4725.05, 2530.2],[4731.65, 2751.26],[4736.05, 2487.31],[4740.45, 2455.41],[4741.55, 2708.37],[4745.95, 2668.78],[4749.25, 2411.42],[4759.14, 2633.58],[4759.14, 2849.15],[4762.44, 2591.79],[4765.74, 2370.73],[4771.24, 2795.26],[4782.24, 2507.1],[4782.24, 2554.4],[4783.34, 2750.16],[4791.04, 2690.77],[4796.54, 2469.71],[4806.44, 2422.42],[4809.73, 2629.18],[4816.33, 2381.73],[4822.93, 2590.69],[4825.13, 2813.95],[4832.83, 2520.3],[4843.83, 2754.56],[4851.53, 2436.72],[4852.63, 2647.88],[4853.97, 2705.91],[4868.84, 2400.47],[4869.13, 2603.89],[4875.78, 2807.06],[4876.82, 2558.8],[4884.71, 2773.34],[4891.89, 2521.3],[4892.7, 2479.93],[4899.58, 2682.11],[4906.52, 2448.81],[4906.53, 2727.73],[4913.47, 2625.58],[4928.34, 2576.99],[4931.81, 2368.53],[4944.21, 2794.17],[4951.15, 2747.56],[4953.14, 2707.89],[4956.11, 2471.87],[4956.11, 2529.39],[4973.96, 2405.43],[4976.94, 2672.19],[4983.88, 2626.57],[4996.77, 2814],[4998.75, 2557.16],[5003.71, 2752.52],[5004.7, 2508.56],[5011.94, 2458.84],[5017.6, 2715.83],[5022.55, 2415.34],[5030.49, 2680.13],[5033.46, 2633.52],[5034.45, 2849.7],[5038.42, 2579.96],[5044.37, 2375.68]]},"properties":{"objectType":"annotation"}},{"type":"Feature","id":"9f4559d8-617c-4106-a4b9-6061d98f7542","geometry":{"type":"MultiPoint","coordinates":[[4373.06, 3114.86],[4383.85, 3391.94],[4385.41, 3061.74],[4385.41, 3211.51],[4398.55, 3340.98],[4402.86, 3014.48],[4408.68, 3171.52],[4409.41, 2974.49],[4416.85, 3299.51],[4418.86, 3130.81],[4423.95, 3261.67],[4430.27, 2941.08],[4432.33, 3403.81],[4432.67, 3079.91],[4445.76, 3218.78],[4447.94, 3042.11],[4459.57, 3176.61],[4461.02, 2997.76],[4476.29, 3130.08],[4478.47, 2952.68],[4478.83, 3312.6],[4480.62, 3274.15],[4491.56, 3084.28],[4493.14, 3407.39],[4494.93, 3232.12],[4503.92, 3039.2],[4511.02, 3176.68],[4513.7, 3365.36],[4521.75, 3326.91],[4522.82, 2985.4],[4529.8, 3137.34],[4532.48, 3098.89],[4533.38, 3274.15],[4545.89, 3047.02],[4554.84, 3415.43],[4561.1, 3229.44],[4564.67, 3366.25],[4567.36, 2996.05],[4570.04, 3181.15],[4581.66, 3327.8],[4587.92, 3284.88],[4595.08, 3114.09],[4600.44, 2954.92],[4601.33, 3241.06],[4604.91, 3064.91],[4609.38, 3014.83],[4615.64, 3389.5],[4617.43, 3196.35],[4627.27, 3152.54],[4629.06, 3340.32],[4642.47, 3114.98],[4642.47, 3292.93],[4655.88, 3072.06],[4660.35, 3257.16],[4665.72, 3023.77],[4669.29, 3216.03],[4681.81, 3401.13],[4684.5, 3170.42],[4688.07, 3347.47],[4691.65, 2971.02],[4692.54, 3120.35],[4700.59, 3302.76],[4708.64, 3271.47],[4709.53, 3069.38],[4715.79, 3032.72],[4723.84, 3235.7],[4731.89, 3404.7],[4732.78, 3175.79],[4743.51, 3351.05],[4747.09, 3307.24],[4749.77, 3128.4],[4756.93, 3076.53],[4760.5, 3270.57],[4762.29, 2991.58],[4773.02, 3034.5],[4773.92, 3231.23],[4785.21, 3414.16],[4796.18, 3366.59],[4798.06, 3189.2],[4801.64, 3134.66],[4804.32, 2940.61],[4804.32, 2995.16],[4813.26, 3321.54],[4814.15, 3091.73],[4814.15, 3280.41],[4828.46, 3047.92],[4831.14, 3238.38],[4843.75, 3419.04],[4844.56, 3196.35],[4852.33, 3379.24],[4852.61, 2998.74]]},"properties":{"objectType":"annotation"}},{"type":"Feature","id":"318fe224-100c-4051-a9ff-621788fea8d2","geometry":{"type":"MultiPoint","coordinates":[[5226, 529.58],[5230.17, 400.33],[5231.07, 127.6],[5240.9, 352.05],[5257, 300.18],[5261.84, 549.33],[5265.05, 514.79],[5268.62, 247.43],[5279.35, 451.3],[5281.14, 412.85],[5282.93, 193.77],[5290.08, 146.38],[5298.13, 345.79],[5299.92, 525.52],[5308.86, 293.03],[5315.12, 565.76],[5322.28, 240.27],[5324.96, 461.14],[5335.69, 396.76],[5338.37, 197.35],[5350, 155.32],[5361.62, 487.97],[5364.3, 351.15],[5370.56, 306.44],[5376.82, 579.17],[5377.72, 432.53],[5382.19, 267.99],[5388.45, 212.55],[5394.71, 386.92],[5405.44, 174.1],[5409.01, 335.06],[5409.91, 540.72],[5415.27, 296.61],[5416.17, 122.24],[5422.43, 498.7],[5426.9, 244.74],[5428.69, 450.41],[5445.67, 183.94],[5446.57, 409.28],[5457.3, 360.99],[5458.19, 569.34],[5462.67, 508.53],[5467.14, 133.86],[5468.03, 456.67],[5471.61, 304.65],[5483.23, 264.42],[5495.75, 403.02],[5498.43, 207.19],[5504.69, 358.31],[5505.59, 576.49],[5511.85, 149.96],[5516.32, 312.7],[5519.89, 529.99],[5528.84, 275.15],[5529.73, 494.23],[5540.46, 225.07],[5544.04, 445.94],[5552.98, 585.43],[5561.92, 168.74],[5566.39, 397.65],[5569.97, 539.83],[5578.02, 341.32],[5578.91, 496.01],[5585.17, 447.73],[5589.64, 292.14],[5600.37, 237.59],[5612.89, 400.33],[5620.94, 563.97],[5622.73, 192.88],[5624.52, 353.84],[5636.33, 147.77],[5638.82, 315.39],[5638.82, 518.37],[5646.87, 260.84],[5651.34, 470.98],[5658.49, 583.65],[5664.75, 419.11],[5671.01, 217.02],[5676.38, 524.63],[5684.43, 384.24],[5694.26, 331.48],[5697.84, 477.24],[5702.31, 275.15],[5704.1, 444.15],[5710.36, 170.52]]},"properties":{"objectType":"annotation"}},{"type":"Feature","id":"4062e8b3-61ac-4cad-a90a-96b8199cf418","geometry":{"type":"MultiPoint","coordinates":[[78.9, 1188],[80.9, 1025.38],[80.9, 1219.93],[90.88, 1352.62],[97.86, 972.5],[102.85, 1137.12],[111.83, 920.62],[117.81, 1258.84],[118.81, 1084.24],[139.76, 1035.36],[141.76, 1377.57],[148.74, 1199.98],[149.74, 996.45],[154.73, 1155.08],[163.71, 1311.72],[165.7, 933.59],[172.69, 1100.21],[175.68, 1260.83],[183.66, 1052.32],[185.66, 1392.53],[199.62, 1226.91],[204.61, 1010.41],[207.61, 1172.04],[212.59, 1330.67],[219.58, 1124.15],[221.57, 1295.75],[223.57, 968.51],[234.54, 906.65],[250.51, 1392.53],[251.51, 1222.92],[253.5, 975.49],[256.49, 1063.29],[262.48, 1024.38],[262.78, 1188.01],[270.46, 1143.11],[274.45, 1341.65],[279.44, 926.61],[295.4, 1292.76],[297.4, 1088.23],[297.4, 1250.86],[300.39, 1043.34],[309.37, 1223.92],[327.33, 993.45],[330.32, 1147.1],[330.32, 1353.62],[334.31, 946.56],[353.27, 1103.2],[353.27, 1259.84],[353.27, 1308.72],[378.21, 1207.96],[386.19, 1005.42],[386.19, 1378.56],[401.16, 957.54],[405.15, 1322.69],[414.13, 1104.2],[414.47, 908.96],[418.12, 1273.8],[427.1, 1062.29],[443.06, 1225.92],[448.05, 1016.4],[448.05, 1399.51],[454.04, 1353.62],[463.02, 969.51],[465.01, 1143.11],[475.99, 921.62],[475.99, 1293.76],[492.95, 1075.26],[500.93, 1025.38],[500.93, 1249.86],[502.92, 1196.98],[512.9, 1348.63],[514.9, 974.5],[520.88, 1306.73],[526.87, 925.61],[530.86, 1139.12],[542.83, 1265.82],[549.82, 1050.32]]},"properties":{"objectType":"annotation"}},{"type":"Feature","id":"2ea1f481-b4a5-482b-94dc-c1740ad23430","geometry":{"type":"MultiPoint","coordinates":[[123.62, 1628.45],[126.83, 1588.08],[148.78, 1747.72],[152.77, 1911.34],[160.75, 1527.22],[164.74, 1858.46],[168.73, 1689.85],[180.7, 1456.39],[183.7, 1628.99],[190.68, 1807.58],[200.66, 1575.11],[211.63, 1924.31],[215.62, 1741.73],[222.61, 1865.44],[225.6, 1476.34],[235.58, 1657.92],[247.77, 1814.67],[253.53, 1609.04],[262.16, 1763.39],[267.5, 1557.16],[277.48, 1930.29],[278.48, 1718.78],[283.47, 1885.4],[284.46, 1501.28],[290.45, 1676.88],[303.42, 1459.38],[304.42, 1838.51],[306.41, 1622.01],[322.38, 1576.11],[329.36, 1781.64],[341.33, 1533.21],[341.33, 1711.8],[343.33, 1891.38],[356.3, 1848.48],[361.29, 1454.39],[362.28, 1651.94],[374.26, 1798.6],[382.24, 1596.07],[384.23, 1541.19],[387.23, 1750.71],[387.23, 1919.32],[405.18, 1498.29],[406.18, 1687.85],[416.16, 1857.46],[422.15, 1641.96],[424.09, 1444.03],[424.14, 1816.56],[434.12, 1608.04],[441.1, 1554.16],[442.1, 1933.29],[443.1, 1755.7],[456.07, 1502.28],[462.05, 1712.8],[472.03, 1668.9],[473.03, 1870.43],[484, 1448.41],[488.99, 1612.03],[489.99, 1932.29],[493.98, 1774.65],[501.96, 1724.77],[507.95, 1573.12],[520.92, 1891.38],[523.91, 1840.5],[525.91, 1519.24],[526.9, 1673.89],[541.87, 1628.99],[544.86, 1461.38],[544.86, 1784.63],[557.83, 1572.12],[566.81, 1730.75],[573.8, 1899.37],[577.79, 1680.87],[588.76, 1652.93],[589.76, 1483.33],[590.76, 1856.46],[602.73, 1792.61],[610.71, 1597.06],[614.7, 1751.71],[615.7, 1540.19]]},"properties":{"objectType":"annotation"}},{"type":"Feature","id":"b39f9297-4ef9-4d37-8878-dd481d7a7a38","geometry":{"type":"MultiPoint","coordinates":[[22.54, 3393.82],[29.27, 3125.42],[34.24, 3437.9],[42.34, 3031.28],[45.93, 3319.16],[46.83, 3264.28],[63.93, 3399.22],[66.63, 3175.22],[68.42, 3229.19],[72.02, 3099.65],[81.92, 3135.63],[87.32, 3431.61],[108.01, 3314.66],[119.7, 3034.88],[121.5, 3230.99],[122.4, 3401.92],[128.7, 3150.03],[128.7, 3183.31],[135, 3103.25],[155.69, 3364.14],[160.19, 3292.17],[161.98, 3415.41],[165.58, 3034.88],[171.88, 3235.49],[179.98, 3182.41],[188.07, 3115.84],[188.97, 3147.33],[210.56, 3336.25],[211.06, 3387.24],[212.36, 3071.76],[214.16, 3427.11],[222.26, 3292.17],[224.06, 3242.69],[228.85, 2998.9],[234.85, 3193.21],[236.65, 3117.64],[243.71, 3464.38],[261.84, 3347.04],[261.96, 3390.56],[271.74, 3289.47],[272.64, 3433.41],[272.93, 3001.6],[285.23, 3238.19],[290.63, 3122.14],[295.13, 3173.42],[296.03, 3060.97],[313.12, 3000.69],[321.71, 3388.34],[322.12, 3441.5],[327.51, 3299.36],[328.41, 3340.75],[331.11, 3213],[337.41, 3177.02],[342.81, 3248.09],[345.03, 3091.24],[350, 3127.54],[364.86, 3398.3],[369.32, 2999.48],[377.03, 3309.78],[381.49, 3442.4],[382.39, 3073.56],[385.88, 3267.74],[399.47, 3210.7],[416.86, 3385.02],[420.17, 2992.6],[420.18, 3325.27],[429.17, 3449.6],[431.24, 3125.73],[434.57, 3259.99],[450.76, 3081.66],[468.32, 3327.43],[469.15, 3024.76],[472.31, 3212.69],[475.95, 3056.47],[476.51, 3272.95],[483.86, 3463.35],[497.79, 3352.01],[500.04, 3113.15],[502.94, 3411.82],[503.95, 3160.93]]},"properties":{"objectType":"annotation"}},{"type":"Feature","id":"3727d856-9e1a-4b24-8cf3-56c2f625cafc","geometry":{"type":"MultiPoint","coordinates":[[3339.26, 1116.31],[3344.94, 1010.05],[3356.3, 929.74],[3357.11, 894.05],[3364.41, 852.68],[3367.65, 1267.19],[3373.33, 1073.32],[3376.58, 1215.27],[3384.69, 1167.41],[3387.12, 1121.18],[3390.37, 1023.02],[3398.48, 811.31],[3399.29, 914.33],[3401.72, 1057.09],[3404.16, 957.32],[3418.76, 889.18],[3422.81, 851.06],[3429.3, 1204.73],[3439.04, 1097.65],[3443.9, 1019.78],[3444.72, 821.85],[3447.15, 781.3],[3453.64, 968.68],[3453.64, 1133.34],[3456.07, 923.25],[3468.24, 1262.32],[3474.73, 870.52],[3481.22, 808.87],[3482.84, 1053.04],[3490.95, 1198.24],[3500.69, 839.7],[3508.8, 1121.18],[3519.34, 982.47],[3523.4, 875.39],[3523.4, 1090.35],[3523.4, 1237.99],[3528.27, 941.91],[3534.76, 1055.47],[3547.73, 851.06],[3550.98, 1016.54],[3550.98, 1134.16],[3550.98, 1203.92],[3568.82, 954.08],[3572.07, 789.41],[3589.92, 1064.39],[3590.73, 838.89],[3591.54, 1109.82],[3592.35, 1251.78],[3598.84, 889.18],[3598.84, 1003.56],[3612.63, 1199.05],[3616.68, 959.75],[3623.17, 807.25],[3628.04, 1148.76],[3647.51, 1084.67],[3649.13, 1233.93],[3654.81, 864.85],[3659.68, 1053.04],[3664.54, 799.95],[3667.79, 1001.12],[3673.47, 963.81],[3679.96, 1126.85],[3694.56, 1073.32],[3696.99, 927.31],[3696.99, 1219.33],[3701.05, 877.82],[3706.72, 1258.27],[3718.89, 1034.38],[3719.7, 821.04],[3727, 1181.2],[3732.68, 986.52],[3735.93, 778.05],[3743.43, 947.57],[3748.09, 1139.83],[3750.53, 881.07],[3755.39, 1106.58],[3768.37, 1059.53],[3773.24, 842.13],[3778.92, 1008.42],[3778.92, 1233.93],[3787.84, 783.73],[3793.52, 957.32],[3798.39, 1148.76],[3804.14, 880.28],[3814.61, 1092.79],[3815.42, 1264.75],[3818.67, 1197.43],[3823.53, 842.13],[3829.21, 994.63]]},"properties":{"objectType":"annotation"}},{"type":"Feature","id":"adef7bac-ba51-4ca2-ada5-d55cd424b234","geometry":{"type":"MultiPoint","coordinates":[[3676.3, 2123.15],[3680.36, 2205.89],[3698.2, 2154.79],[3698.63, 2064.09],[3703.88, 2270.79],[3705.5, 1920.36],[3707.94, 2024.19],[3717.67, 1866.82],[3726.59, 1987.69],[3729.84, 1950.37],[3734.7, 2218.87],[3742.82, 2312.16],[3744.44, 2160.47],[3745.25, 2016.08],[3746.06, 2090.7],[3765.53, 1855.46],[3769.59, 1902.51],[3786.62, 2179.12],[3800.41, 1978.76],[3800.41, 2131.26],[3811.77, 2087.46],[3814.2, 2281.33],[3817.44, 2323.51],[3819.88, 1863.58],[3820.69, 1938.2],[3820.69, 2225.36],[3826.37, 2012.83],[3832.05, 1892.78],[3838.54, 2171.01],[3855.57, 2115.85],[3858.81, 2201.02],[3862.87, 1950.37],[3870.17, 2312.97],[3874.23, 2066.37],[3879.09, 1873.31],[3885.58, 2244.02],[3894.51, 1930.9],[3898.56, 2131.26],[3900.18, 1973.9],[3903.43, 2013.64],[3915.6, 2175.07],[3915.6, 2324.32],[3923.71, 2260.24],[3926.95, 1874.12],[3939.12, 2110.98],[3939.93, 2203.46],[3944.8, 2053.39],[3957.78, 1990.12],[3962.64, 2095.57],[3965.89, 1939.02],[3979.68, 1891.16],[3980.49, 2274.84],[3986.98, 2033.92],[3989.41, 2131.26],[3989.41, 2224.55],[3997.53, 2313.78],[4008.07, 1992.55],[4023.48, 1939.83],[4025.92, 2117.47],[4027.54, 2192.1],[4030.78, 1903.32],[4035.65, 2062.31],[4044.57, 2282.95],[4047.82, 2329.19],[4067.29, 2261.05],[4068.1, 2036.36],[4073.78, 1848.98],[4076.21, 2218.87],[4081.08, 2129.64],[4082.7, 2171.01],[4087.57, 1913.87],[4090.81, 1962.54],[4098.11, 2072.86],[4102.98, 2283.76],[4115.15, 2033.92],[4115.96, 2312.97],[4123.26, 2201.02],[4128.94, 2143.43],[4133.8, 1934.96],[4136.24, 2098.82],[4137.86, 1995.8],[4143.54, 1879.8],[4148.4, 2278.9],[4153.27, 2049.33]]},"properties":{"objectType":"annotation"}},{"type":"Feature","id":"0db7f6c5-623c-41cf-a7a4-ad1de16ac9e7","geometry":{"type":"MultiPoint","coordinates":[[4067.01, 1188.81],[4086.67, 1125.7],[4129.09, 1177.43],[4145.65, 1142.25],[4164.27, 1185.71],[4223.25, 1162.95]]},"properties":{"objectType":"annotation"}}]}