{
  "type": "FeatureCollection",
  "features": [
    {
      "type": "Feature",
      "properties": {
        "classification": "2",
        "image": "Wat Phleng_800_1.png"
      },
      "geometry": {
        "type": "Polygon",
        "coordinates": [
          [
            [
              3326.11,
              766.08
            ],
            [
              3837.07,
              766.08
            ],
            [
              3837.07,
              1277.03
            ],
            [
              3326.11,
              1277.03
            ],
            [
              3326.11,
              766.08
            ]
          ]
        ]
      }
    },
    {
      "type": "Feature",
      "properties": {
        "classification": "2",
        "image": "Wat Phleng_800_1.png"
      },
      "geometry": {
        "type": "Polygon",
        "coordinates": [
          [
            [
              455.45,
              306.57
            ],
            [
              966.4,
              306.57
            ],
            [
              966.4,
              817.53
            ],
            [
              455.45,
              817.53
            ],
            [
              455.45,
              306.57
            ]
          ]
        ]
      }
    },
    {
      "type": "Feature",
      "properties": {
        "classification": "2",
        "image": "Wat Phleng_800_1.png"
      },
      "geometry": {
        "type": "Polygon",
        "coordinates": [
          [
            [
              7653.89,
              1606.5
            ],
            [
              8164.84,
              1606.5
            ],
            [
              8164.84,
              2117.46
            ],
            [
              7653.89,
              2117.46
            ],
            [
              7653.89,
              1606.5
            ]
          ]
        ]
      }
    },
    {
      "type": "Feature",
      "properties": {
        "classification": "2",
        "image": "Wat Phleng_800_1.png"
      },
      "geometry": {
        "type": "Polygon",
        "coordinates": [
          [
            [
              6631.98,
              2260.22
            ],
            [
              7142.94,
              2260.22
            ],
            [
              7142.94,
              2771.18
            ],
            [
              6631.98,
              2771.18
            ],
            [
              6631.98,
              2260.22
            ]
          ]
        ]
      }
    },
    {
      "type": "Feature",
      "properties": {
        "classification": "2",
        "image": "Wat Phleng_800_1.png"
      },
      "geometry": {
        "type": "Polygon",
        "coordinates": [
          [
            [
              5425.98,
              2197.11
            ],
            [
              5936.94,
              2197.11
            ],
            [
              5936.94,
              2708.06
            ],
            [
              5425.98,
              2708.06
            ],
            [
              5425.98,
              2197.11
            ]
          ]
        ]
      }
    },
    {
      "type": "Feature",
      "properties": {
        "classification": "2",
        "image": "Wat Phleng_800_1.png"
      },
      "geometry": {
        "type": "Polygon",
        "coordinates": [
          [
            [
              6256.28,
              3327.22
            ],
            [
              6767.24,
              3327.22
            ],
            [
              6767.24,
              3838.17
            ],
            [
              6256.28,
              3838.17
            ],
            [
              6256.28,
              3327.22
            ]
          ]
        ]
      }
    },
    {
      "type": "Feature",
      "properties": {
        "classification": "2",
        "image": "Wat Phleng_800_1.png"
      },
      "geometry": {
        "type": "Polygon",
        "coordinates": [
          [
            [
              7015.2,
              3297.16
            ],
            [
              7526.15,
              3297.16
            ],
            [
              7526.15,
              3808.11
            ],
            [
              7015.2,
              3808.11
            ],
            [
              7015.2,
              3297.16
            ]
          ]
        ]
      }
    },
    {
      "type": "Feature",
      "properties": {
        "classification": "2",
        "image": "Wat Phleng_800_1.png"
      },
      "geometry": {
        "type": "Polygon",
        "coordinates": [
          [
            [
              7541.18,
              2711.06
            ],
            [
              8052.14,
              2711.06
            ],
            [
              8052.14,
              3222.02
            ],
            [
              7541.18,
              3222.02
            ],
            [
              7541.18,
              2711.06
            ]
          ]
        ]
      }
    },
    {
      "type": "Feature",
      "properties": {
        "classification": "2",
        "image": "Wat Phleng_800_1.png"
      },
      "geometry": {
        "type": "Polygon",
        "coordinates": [
          [
            [
              117.32,
              1433.68
            ],
            [
              628.27,
              1433.68
            ],
            [
              628.27,
              1944.63
            ],
            [
              117.32,
              1944.63
            ],
            [
              117.32,
              1433.68
            ]
          ]
        ]
      }
    },
    {
      "type": "Feature",
      "properties": {
        "classification": "2",
        "image": "Wat Phleng_800_1.png"
      },
      "geometry": {
        "type": "Polygon",
        "coordinates": [
          [
            [
              4776.01,
              937.75
            ],
            [
              5286.97,
              937.75
            ],
            [
              5286.97,
              1448.71
            ],
            [
              4776.01,
              1448.71
            ],
            [
              4776.01,
              937.75
            ]
          ]
        ]
      }
    },
    {
      "type": "Feature",
      "properties": {
        "classification": "2",
        "image": "Wat Phleng_800_1.png"
      },
      "geometry": {
        "type": "Polygon",
        "coordinates": [
          [
            [
              1973.28,
              547.02
            ],
            [
              2484.24,
              547.02
            ],
            [
              2484.24,
              1057.98
            ],
            [
              1973.28,
              1057.98
            ],
            [
              1973.28,
              547.02
            ]
          ]
        ]
      }
    },
    {
      "type": "Feature",
      "properties": {
        "classification": "2",
        "image": "Wat Phleng_800_1.png"
      },
      "geometry": {
        "type": "Polygon",
        "coordinates": [
          [
            [
              2574.4,
              524.48
            ],
            [
              3085.36,
              524.48
            ],
            [
              3085.36,
              1035.44
            ],
            [
              2574.4,
              1035.44
            ],
            [
              2574.4,
              524.48
            ]
          ]
        ]
      }
    },
    {
      "type": "Feature",
      "properties": {
        "classification": "2",
        "image": "Wat Phleng_800_1.png"
      },
      "geometry": {
        "type": "Polygon",
        "coordinates": [
          [
            [
              3661.73,
              1838.52
            ],
            [
              4172.69,
              1838.52
            ],
            [
              4172.69,
              2349.48
            ],
            [
              3661.73,
              2349.48
            ],
            [
              3661.73,
              1838.52
            ]
          ]
        ]
      }
    },
    {
      "type": "Feature",
      "properties": {
        "classification": "2",
        "image": "Wat Phleng_800_1.png"
      },
      "geometry": {
        "type": "Polygon",
        "coordinates": [
          [
            [
              4017.1,
              1088.03
            ],
            [
              4528.05,
              1088.03
            ],
            [
              4528.05,
              1598.99
            ],
            [
              4017.1,
              1598.99
            ],
            [
              4017.1,
              1088.03
            ]
          ]
        ]
      }
    },
    {
      "type": "Feature",
      "properties": {
        "classification": "2",
        "image": "Wat Phleng_800_1.png"
      },
      "geometry": {
        "type": "Polygon",
        "coordinates": [
          [
            [
              4355.23,
              2357.91
            ],
            [
              4866.18,
              2357.91
            ],
            [
              4866.18,
              2868.86
            ],
            [
              4355.23,
              2868.86
            ],
            [
              4355.23,
              2357.91
            ]
          ]
        ]
      }
    },
    {
      "type": "Feature",
      "properties": {
        "classification": "2",
        "image": "Wat Phleng_800_1.png"
      },
      "geometry": {
        "type": "Polygon",
        "coordinates": [
          [
            [
              2942.59,
              2508.19
            ],
            [
              3453.55,
              2508.19
            ],
            [
              3453.55,
              3019.14
            ],
            [
              2942.59,
              3019.14
            ],
            [
              2942.59,
              2508.19
            ]
          ]
        ]
      }
    },
    {
      "type": "Feature",
      "properties": {
        "classification": "2",
        "image": "Wat Phleng_800_1.png"
      },
      "geometry": {
        "type": "Polygon",
        "coordinates": [
          [
            [
              320.19,
              2876.37
            ],
            [
              831.15,
              2876.37
            ],
            [
              831.15,
              3387.33
            ],
            [
              320.19,
              3387.33
            ],
            [
              320.19,
              2876.37
            ]
          ]
        ]
      }
    },
    {
      "type": "Feature",
      "properties": {
        "classification": "2",
        "image": "Wat Phleng_800_1.png"
      },
      "geometry": {
        "type": "Polygon",
        "coordinates": [
          [
            [
              996.46,
              3056.71
            ],
            [
              1507.41,
              3056.71
            ],
            [
              1507.41,
              3567.66
            ],
            [
              996.46,
              3567.66
            ],
            [
              996.46,
              3056.71
            ]
          ]
        ]
      }
    },
    {
      "type": "Feature",
      "properties": {
        "classification": "2",
        "image": "Wat Phleng_800_1.png"
      },
      "geometry": {
        "type": "Polygon",
        "coordinates": [
          [
            [
              1639.58,
              1600.72
            ],
            [
              2150.54,
              1600.72
            ],
            [
              2150.54,
              2111.67
            ],
            [
              1639.58,
              2111.67
            ],
            [
              1639.58,
              1600.72
            ]
          ]
        ]
      }
    },
    {
      "type": "Feature",
      "properties": {
        "classification": "2",
        "image": "Wat Phleng_800_1.png"
      },
      "geometry": {
        "type": "Polygon",
        "coordinates": [
          [
            [
              2506.78,
              3763.03
            ],
            [
              3017.73,
              3763.03
            ],
            [
              3017.73,
              4273.98
            ],
            [
              2506.78,
              4273.98
            ],
            [
              2506.78,
              3763.03
            ]
          ]
        ]
      }
    },
    {
      "type": "Feature",
      "properties": {
        "classification": "2",
        "image": "Wat Phleng_800_1.png"
      },
      "geometry": {
        "type": "Polygon",
        "coordinates": [
          [
            [
              3355.86,
              3725.46
            ],
            [
              3866.82,
              3725.46
            ],
            [
              3866.82,
              4236.41
            ],
            [
              3355.86,
              4236.41
            ],
            [
              3355.86,
              3725.46
            ]
          ]
        ]
      }
    },
    {
      "type": "Feature",
      "properties": {
        "classification": "2",
        "image": "Wat Phleng_800_1.png"
      },
      "geometry": {
        "type": "Polygon",
        "coordinates": [
          [
            [
              3994.56,
              344.14
            ],
            [
              4505.51,
              344.14
            ],
            [
              4505.51,
              855.1
            ],
            [
              3994.56,
              855.1
            ],
            [
              3994.56,
              344.14
            ]
          ]
        ]
      }
    },
    {
      "type": "Feature",
      "properties": {
        "classification": "2",
        "image": "Wat Phleng_800_1.png"
      },
      "geometry": {
        "type": "Polygon",
        "coordinates": [
          [
            [
              5908.54,
              2733.07
            ],
            [
              6419.5,
              2733.07
            ],
            [
              6419.5,
              3244.02
            ],
            [
              5908.54,
              3244.02
            ],
            [
              5908.54,
              2733.07
            ]
          ]
        ]
      }
    },
    {
      "type": "Feature",
      "properties": {
        "classification": "2",
        "image": "Wat Phleng_800_1.png"
      },
      "geometry": {
        "type": "Polygon",
        "coordinates": [
          [
            [
              6631.98,
              2808.75
            ],
            [
              7142.94,
              2808.75
            ],
            [
              7142.94,
              3319.7
            ],
            [
              6631.98,
              3319.7
            ],
            [
              6631.98,
              2808.75
            ]
          ]
        ]
      }
    },
    {
      "type": "Feature",
      "properties": {
        "classification": "2",
        "image": "Wat Phleng_800_1.png"
      },
      "geometry": {
        "type": "Polygon",
        "coordinates": [
          [
            [
              7180.51,
              2485.64
            ],
            [
              7691.46,
              2485.64
            ],
            [
              7691.46,
              2996.6
            ],
            [
              7180.51,
              2996.6
            ],
            [
              7180.51,
              2485.64
            ]
          ]
        ]
      }
    },
    {
      "type": "Feature",
      "properties": {
        "classification": "2",
        "image": "Wat Phleng_800_1.png"
      },
      "geometry": {
        "type": "Polygon",
        "coordinates": [
          [
            [
              7112.88,
              1674.13
            ],
            [
              7623.84,
              1674.13
            ],
            [
              7623.84,
              2185.08
            ],
            [
              7112.88,
              2185.08
            ],
            [
              7112.88,
              1674.13
            ]
          ]
        ]
      }
    },
    {
      "type": "Feature",
      "properties": {
        "classification": "2",
        "image": "Wat Phleng_800_1.png"
      },
      "geometry": {
        "type": "Polygon",
        "coordinates": [
          [
            [
              7601.29,
              757.42
            ],
            [
              8112.25,
              757.42
            ],
            [
              8112.25,
              1268.37
            ],
            [
              7601.29,
              1268.37
            ],
            [
              7601.29,
              757.42
            ]
          ]
        ]
      }
    },
    {
      "type": "Feature",
      "properties": {
        "classification": "2",
        "image": "Wat Phleng_800_1.png"
      },
      "geometry": {
        "type": "Polygon",
        "coordinates": [
          [
            [
              6511.76,
              1463.73
            ],
            [
              7022.71,
              1463.73
            ],
            [
              7022.71,
              1974.69
            ],
            [
              6511.76,
              1974.69
            ],
            [
              6511.76,
              1463.73
            ]
          ]
        ]
      }
    },
    {
      "type": "Feature",
      "properties": {
        "classification": "2",
        "image": "Wat Phleng_800_1.png"
      },
      "geometry": {
        "type": "Polygon",
        "coordinates": [
          [
            [
              7496.1,
              58.61
            ],
            [
              8007.05,
              58.61
            ],
            [
              8007.05,
              569.56
            ],
            [
              7496.1,
              569.56
            ],
            [
              7496.1,
              58.61
            ]
          ]
        ]
      }
    },
    {
      "type": "Feature",
      "properties": {
        "classification": "2",
        "image": "Wat Phleng_800_1.png"
      },
      "geometry": {
        "type": "Polygon",
        "coordinates": [
          [
            [
              5213.57,
              92.16
            ],
            [
              5724.53,
              92.16
            ],
            [
              5724.53,
              603.12
            ],
            [
              5213.57,
              603.12
            ],
            [
              5213.57,
              92.16
            ]
          ]
        ]
      }
    },
    {
      "type": "Feature",
      "properties": {
        "classification": "2",
        "image": "Wat Phleng_800_1.png"
      },
      "geometry": {
        "type": "Polygon",
        "coordinates": [
          [
            [
              5309.51,
              2883.89
            ],
            [
              5820.47,
              2883.89
            ],
            [
              5820.47,
              3394.84
            ],
            [
              5309.51,
              3394.84
            ],
            [
              5309.51,
              2883.89
            ]
          ]
        ]
      }
    },
    {
      "type": "Feature",
      "properties": {
        "classification": "2",
        "image": "Wat Phleng_800_1.png"
      },
      "geometry": {
        "type": "Polygon",
        "coordinates": [
          [
            [
              2724.68,
              1629.04
            ],
            [
              3235.64,
              1629.04
            ],
            [
              3235.64,
              2140.0
            ],
            [
              2724.68,
              2140.0
            ],
            [
              2724.68,
              1629.04
            ]
          ]
        ]
      }
    },
    {
      "type": "Feature",
      "properties": {
        "classification": "2",
        "image": "Wat Phleng_800_1.png"
      },
      "geometry": {
        "type": "Polygon",
        "coordinates": [
          [
            [
              1236.9,
              764.93
            ],
            [
              1747.86,
              764.93
            ],
            [
              1747.86,
              1275.88
            ],
            [
              1236.9,
              1275.88
            ],
            [
              1236.9,
              764.93
            ]
          ]
        ]
      }
    },
    {
      "type": "Feature",
      "properties": {
        "classification": "2",
        "image": "Wat Phleng_800_1.png"
      },
      "geometry": {
        "type": "Polygon",
        "coordinates": [
          [
            [
              1221.88,
              111.21
            ],
            [
              1732.83,
              111.21
            ],
            [
              1732.83,
              622.16
            ],
            [
              1221.88,
              622.16
            ],
            [
              1221.88,
              111.21
            ]
          ]
        ]
      }
    },
    {
      "type": "Feature",
      "properties": {
        "classification": "2",
        "image": "Wat Phleng_800_1.png"
      },
      "geometry": {
        "type": "Polygon",
        "coordinates": [
          [
            [
              57.2,
              892.67
            ],
            [
              568.16,
              892.67
            ],
            [
              568.16,
              1403.62
            ],
            [
              57.2,
              1403.62
            ],
            [
              57.2,
              892.67
            ]
          ]
        ]
      }
    },
    {
      "type": "Feature",
      "properties": {
        "classification": "2",
        "image": "Wat Phleng_800_1.png"
      },
      "geometry": {
        "type": "Polygon",
        "coordinates": [
          [
            [
              635.78,
              937.75
            ],
            [
              1146.74,
              937.75
            ],
            [
              1146.74,
              1448.71
            ],
            [
              635.78,
              1448.71
            ],
            [
              635.78,
              937.75
            ]
          ]
        ]
      }
    },
    {
      "type": "Feature",
      "properties": {
        "classification": "2",
        "image": "Wat Phleng_800_1.png"
      },
      "geometry": {
        "type": "Polygon",
        "coordinates": [
          [
            [
              1499.9,
              3635.29
            ],
            [
              2010.85,
              3635.29
            ],
            [
              2010.85,
              4146.25
            ],
            [
              1499.9,
              4146.25
            ],
            [
              1499.9,
              3635.29
            ]
          ]
        ]
      }
    },
    {
      "type": "Feature",
      "properties": {
        "classification": "2",
        "image": "Wat Phleng_800_1.png"
      },
      "geometry": {
        "type": "Polygon",
        "coordinates": [
          [
            [
              4347.72,
              2981.57
            ],
            [
              4858.67,
              2981.57
            ],
            [
              4858.67,
              3492.52
            ],
            [
              4347.72,
              3492.52
            ],
            [
              4347.72,
              2981.57
            ]
          ]
        ]
      }
    },
    {
      "type": "Feature",
      "properties": {
        "classification": "2",
        "image": "Wat Phleng_800_1.png"
      },
      "geometry": {
        "type": "Polygon",
        "coordinates": [
          [
            [
              6271.31,
              434.31
            ],
            [
              6782.26,
              434.31
            ],
            [
              6782.26,
              945.27
            ],
            [
              6271.31,
              945.27
            ],
            [
              6271.31,
              434.31
            ]
          ]
        ]
      }
    }
  ]
}