{
  "type": "FeatureCollection",
  "features": [
    {
      "type": "Feature",
      "properties": {
        "classification": "1",
        "image": "Karavatti_800_2.png"
      },
      "geometry": {
        "type": "Polygon",
        "coordinates": [
          [
            [
              79.74,
              1997.23
            ],
            [
              590.7,
              1997.23
            ],
            [
              590.7,
              2508.19
            ],
            [
              79.74,
              2508.19
            ],
            [
              79.74,
              1997.23
            ]
          ]
        ]
      }
    },
    {
      "type": "Feature",
      "properties": {
        "classification": "1",
        "image": "Karavatti_800_2.png"
      },
      "geometry": {
        "type": "Polygon",
        "coordinates": [
          [
            [
              1567.52,
              2868.86
            ],
            [
              2078.48,
              2868.86
            ],
            [
              2078.48,
              3379.81
            ],
            [
              1567.52,
              3379.81
            ],
            [
              1567.52,
              2868.86
            ]
          ]
        ]
      }
    },
    {
      "type": "Feature",
      "properties": {
        "classification": "1",
        "image": "Karavatti_800_2.png"
      },
      "geometry": {
        "type": "Polygon",
        "coordinates": [
          [
            [
              1402.21,
              907.7
            ],
            [
              1913.17,
              907.7
            ],
            [
              1913.17,
              1418.65
            ],
            [
              1402.21,
              1418.65
            ],
            [
              1402.21,
              907.7
            ]
          ]
        ]
      }
    },
    {
      "type": "Feature",
      "properties": {
        "classification": "1",
        "image": "Karavatti_800_2.png"
      },
      "geometry": {
        "type": "Polygon",
        "coordinates": [
          [
            [
              4836.13,
              3732.97
            ],
            [
              5347.08,
              3732.97
            ],
            [
              5347.08,
              4243.93
            ],
            [
              4836.13,
              4243.93
            ],
            [
              4836.13,
              3732.97
            ]
          ]
        ]
      }
    },
    {
      "type": "Feature",
      "properties": {
        "classification": "1",
        "image": "Karavatti_800_2.png"
      },
      "geometry": {
        "type": "Polygon",
        "coordinates": [
          [
            [
              3581.59,
              863.76
            ],
            [
              4092.54,
              863.76
            ],
            [
              4092.54,
              1374.72
            ],
            [
              3581.59,
              1374.72
            ],
            [
              3581.59,
              863.76
            ]
          ]
        ]
      }
    },
    {
      "type": "Feature",
      "properties": {
        "classification": "1",
        "image": "Karavatti_800_2.png"
      },
      "geometry": {
        "type": "Polygon",
        "coordinates": [
          [
            [
              4836.13,
              1591.47
            ],
            [
              5347.08,
              1591.47
            ],
            [
              5347.08,
              2102.43
            ],
            [
              4836.13,
              2102.43
            ],
            [
              4836.13,
              1591.47
            ]
          ]
        ]
      }
    },
    {
      "type": "Feature",
      "properties": {
        "classification": "1",
        "image": "Karavatti_800_2.png"
      },
      "geometry": {
        "type": "Polygon",
        "coordinates": [
          [
            [
              3836.76,
              1606.5
            ],
            [
              4347.72,
              1606.5
            ],
            [
              4347.72,
              2117.46
            ],
            [
              3836.76,
              2117.46
            ],
            [
              3836.76,
              1606.5
            ]
          ]
        ]
      }
    },
    {
      "type": "Feature",
      "properties": {
        "classification": "1",
        "image": "Karavatti_800_2.png"
      },
      "geometry": {
        "type": "Polygon",
        "coordinates": [
          [
            [
              5978.26,
              2350.39
            ],
            [
              6489.22,
              2350.39
            ],
            [
              6489.22,
              2861.35
            ],
            [
              5978.26,
              2861.35
            ],
            [
              5978.26,
              2350.39
            ]
          ]
        ]
      }
    },
    {
      "type": "Feature",
      "properties": {
        "classification": "1",
        "image": "Karavatti_800_2.png"
      },
      "geometry": {
        "type": "Polygon",
        "coordinates": [
          [
            [
              5482.34,
              1598.99
            ],
            [
              5993.29,
              1598.99
            ],
            [
              5993.29,
              2109.94
            ],
            [
              5482.34,
              2109.94
            ],
            [
              5482.34,
              1598.99
            ]
          ]
        ]
      }
    },
    {
      "type": "Feature",
      "properties": {
        "classification": "1",
        "image": "Karavatti_800_2.png"
      },
      "geometry": {
        "type": "Polygon",
        "coordinates": [
          [
            [
              4866.18,
              847.58
            ],
            [
              5377.14,
              847.58
            ],
            [
              5377.14,
              1358.54
            ],
            [
              4866.18,
              1358.54
            ],
            [
              4866.18,
              847.58
            ]
          ]
        ]
      }
    },
    {
      "type": "Feature",
      "properties": {
        "classification": "1",
        "image": "Karavatti_800_2.png"
      },
      "geometry": {
        "type": "Polygon",
        "coordinates": [
          [
            [
              2762.25,
              569.56
            ],
            [
              3273.21,
              569.56
            ],
            [
              3273.21,
              1080.52
            ],
            [
              2762.25,
              1080.52
            ],
            [
              2762.25,
              569.56
            ]
          ]
        ]
      }
    },
    {
      "type": "Feature",
      "properties": {
        "classification": "1",
        "image": "Karavatti_800_2.png"
      },
      "geometry": {
        "type": "Polygon",
        "coordinates": [
          [
            [
              6616.96,
              3710.43
            ],
            [
              7127.91,
              3710.43
            ],
            [
              7127.91,
              4221.39
            ],
            [
              6616.96,
              4221.39
            ],
            [
              6616.96,
              3710.43
            ]
          ]
        ]
      }
    },
    {
      "type": "Feature",
      "properties": {
        "classification": "1",
        "image": "Karavatti_800_2.png"
      },
      "geometry": {
        "type": "Polygon",
        "coordinates": [
          [
            [
              4287.6,
              3034.17
            ],
            [
              4798.56,
              3034.17
            ],
            [
              4798.56,
              3545.12
            ],
            [
              4287.6,
              3545.12
            ],
            [
              4287.6,
              3034.17
            ]
          ]
        ]
      }
    },
    {
      "type": "Feature",
      "properties": {
        "classification": "1",
        "image": "Karavatti_800_2.png"
      },
      "geometry": {
        "type": "Polygon",
        "coordinates": [
          [
            [
              3656.42,
              2801.23
            ],
            [
              4167.38,
              2801.23
            ],
            [
              4167.38,
              3312.19
            ],
            [
              3656.42,
              3312.19
            ],
            [
              3656.42,
              2801.23
            ]
          ]
        ]
      }
    },
    {
      "type": "Feature",
      "properties": {
        "classification": "1",
        "image": "Karavatti_800_2.png"
      },
      "geometry": {
        "type": "Polygon",
        "coordinates": [
          [
            [
              2288.87,
              2320.34
            ],
            [
              2799.83,
              2320.34
            ],
            [
              2799.83,
              2831.29
            ],
            [
              2288.87,
              2831.29
            ],
            [
              2288.87,
              2320.34
            ]
          ]
        ]
      }
    },
    {
      "type": "Feature",
      "properties": {
        "classification": "1",
        "image": "Karavatti_800_2.png"
      },
      "geometry": {
        "type": "Polygon",
        "coordinates": [
          [
            [
              2123.56,
              1012.89
            ],
            [
              2634.52,
              1012.89
            ],
            [
              2634.52,
              1523.85
            ],
            [
              2123.56,
              1523.85
            ],
            [
              2123.56,
              1012.89
            ]
          ]
        ]
      }
    },
    {
      "type": "Feature",
      "properties": {
        "classification": "1",
        "image": "Karavatti_800_2.png"
      },
      "geometry": {
        "type": "Polygon",
        "coordinates": [
          [
            [
              515.56,
              990.35
            ],
            [
              1026.51,
              990.35
            ],
            [
              1026.51,
              1501.3
            ],
            [
              515.56,
              1501.3
            ],
            [
              515.56,
              990.35
            ]
          ]
        ]
      }
    },
    {
      "type": "Feature",
      "properties": {
        "classification": "1",
        "image": "Karavatti_800_2.png"
      },
      "geometry": {
        "type": "Polygon",
        "coordinates": [
          [
            [
              1357.13,
              1869.49
            ],
            [
              1868.08,
              1869.49
            ],
            [
              1868.08,
              2380.45
            ],
            [
              1357.13,
              2380.45
            ],
            [
              1357.13,
              1869.49
            ]
          ]
        ]
      }
    },
    {
      "type": "Feature",
      "properties": {
        "classification": "1",
        "image": "Karavatti_800_2.png"
      },
      "geometry": {
        "type": "Polygon",
        "coordinates": [
          [
            [
              6579.38,
              2906.43
            ],
            [
              7090.34,
              2906.43
            ],
            [
              7090.34,
              3417.38
            ],
            [
              6579.38,
              3417.38
            ],
            [
              6579.38,
              2906.43
            ]
          ]
        ]
      }
    },
    {
      "type": "Feature",
      "properties": {
        "classification": "1",
        "image": "Karavatti_800_2.png"
      },
      "geometry": {
        "type": "Polygon",
        "coordinates": [
          [
            [
              7541.18,
              3732.97
            ],
            [
              8052.14,
              3732.97
            ],
            [
              8052.14,
              4243.93
            ],
            [
              7541.18,
              4243.93
            ],
            [
              7541.18,
              3732.97
            ]
          ]
        ]
      }
    },
    {
      "type": "Feature",
      "properties": {
        "classification": "1",
        "image": "Karavatti_800_2.png"
      },
      "geometry": {
        "type": "Polygon",
        "coordinates": [
          [
            [
              7293.22,
              2853.83
            ],
            [
              7804.17,
              2853.83
            ],
            [
              7804.17,
              3364.79
            ],
            [
              7293.22,
              3364.79
            ],
            [
              7293.22,
              2853.83
            ]
          ]
        ]
      }
    },
    {
      "type": "Feature",
      "properties": {
        "classification": "1",
        "image": "Karavatti_800_2.png"
      },
      "geometry": {
        "type": "Polygon",
        "coordinates": [
          [
            [
              6812.32,
              1591.47
            ],
            [
              7323.27,
              1591.47
            ],
            [
              7323.27,
              2102.43
            ],
            [
              6812.32,
              2102.43
            ],
            [
              6812.32,
              1591.47
            ]
          ]
        ]
      }
    },
    {
      "type": "Feature",
      "properties": {
        "classification": "1",
        "image": "Karavatti_800_2.png"
      },
      "geometry": {
        "type": "Polygon",
        "coordinates": [
          [
            [
              6541.81,
              975.32
            ],
            [
              7052.77,
              975.32
            ],
            [
              7052.77,
              1486.28
            ],
            [
              6541.81,
              1486.28
            ],
            [
              6541.81,
              975.32
            ]
          ]
        ]
      }
    },
    {
      "type": "Feature",
      "properties": {
        "classification": "1",
        "image": "Karavatti_800_2.png"
      },
      "geometry": {
        "type": "Polygon",
        "coordinates": [
          [
            [
              5610.07,
              975.32
            ],
            [
              6121.03,
              975.32
            ],
            [
              6121.03,
              1486.28
            ],
            [
              5610.07,
              1486.28
            ],
            [
              5610.07,
              975.32
            ]
          ]
        ]
      }
    },
    {
      "type": "Feature",
      "properties": {
        "classification": "1",
        "image": "Karavatti_800_2.png"
      },
      "geometry": {
        "type": "Polygon",
        "coordinates": [
          [
            [
              5489.85,
              58.61
            ],
            [
              6000.8,
              58.61
            ],
            [
              6000.8,
              569.57
            ],
            [
              5489.85,
              569.57
            ],
            [
              5489.85,
              58.61
            ]
          ]
        ]
      }
    },
    {
      "type": "Feature",
      "properties": {
        "classification": "1",
        "image": "Karavatti_800_2.png"
      },
      "geometry": {
        "type": "Polygon",
        "coordinates": [
          [
            [
              6060.92,
              419.28
            ],
            [
              6571.87,
              419.28
            ],
            [
              6571.87,
              930.24
            ],
            [
              6060.92,
              930.24
            ],
            [
              6060.92,
              419.28
            ]
          ]
        ]
      }
    },
    {
      "type": "Feature",
      "properties": {
        "classification": "1",
        "image": "Karavatti_800_2.png"
      },
      "geometry": {
        "type": "Polygon",
        "coordinates": [
          [
            [
              4513.02,
              73.64
            ],
            [
              5023.98,
              73.64
            ],
            [
              5023.98,
              584.59
            ],
            [
              4513.02,
              584.59
            ],
            [
              4513.02,
              73.64
            ]
          ]
        ]
      }
    },
    {
      "type": "Feature",
      "properties": {
        "classification": "1",
        "image": "Karavatti_800_2.png"
      },
      "geometry": {
        "type": "Polygon",
        "coordinates": [
          [
            [
              1612.61,
              73.64
            ],
            [
              2123.56,
              73.64
            ],
            [
              2123.56,
              584.59
            ],
            [
              1612.61,
              584.59
            ],
            [
              1612.61,
              73.64
            ]
          ]
        ]
      }
    },
    {
      "type": "Feature",
      "properties": {
        "classification": "1",
        "image": "Karavatti_800_2.png"
      },
      "geometry": {
        "type": "Polygon",
        "coordinates": [
          [
            [
              2867.45,
              1516.33
            ],
            [
              3378.41,
              1516.33
            ],
            [
              3378.41,
              2027.29
            ],
            [
              2867.45,
              2027.29
            ],
            [
              2867.45,
              1516.33
            ]
          ]
        ]
      }
    },
    {
      "type": "Feature",
      "properties": {
        "classification": "1",
        "image": "Karavatti_800_2.png"
      },
      "geometry": {
        "type": "Polygon",
        "coordinates": [
          [
            [
              260.08,
              3665.35
            ],
            [
              771.03,
              3665.35
            ],
            [
              771.03,
              4176.3
            ],
            [
              260.08,
              4176.3
            ],
            [
              260.08,
              3665.35
            ]
          ]
        ]
      }
    }
  ]
}