{
  "type": "FeatureCollection",
  "features": [
    {
      "type": "Feature",
      "properties": {
        "classification": "Organic",
        "image": "Sambava_800_1.png"
      },
      "geometry": {
        "type": "Polygon",
        "coordinates": [
          [
            [
              2613.28,
              491.68
            ],
            [
              3124.93,
              491.68
            ],
            [
              3124.93,
              1003.33
            ],
            [
              2613.28,
              1003.33
            ],
            [
              2613.28,
              491.68
            ]
          ]
        ]
      }
    },
    {
      "type": "Feature",
      "properties": {
        "classification": "Organic-early",
        "image": "Sambava_800_1.png"
      },
      "geometry": {
        "type": "Polygon",
        "coordinates": [
          [
            [
              3047.41,
              1284.35
            ],
            [
              3559.06,
              1284.35
            ],
            [
              3559.06,
              1796.0
            ],
            [
              3047.41,
              1796.0
            ],
            [
              3047.41,
              1284.35
            ]
          ]
        ]
      }
    },
    {
      "type": "Feature",
      "properties": {
        "classification": "Organic-early",
        "image": "Sambava_800_1.png"
      },
      "geometry": {
        "type": "Polygon",
        "coordinates": [
          [
            [
              2849.73,
              1284.35
            ],
            [
              3359.44,
              1284.35
            ],
            [
              3359.44,
              1796.0
            ],
            [
              2849.73,
              1796.0
            ],
            [
              2849.73,
              1284.35
            ]
          ]
        ]
      }
    },
    {
      "type": "Feature",
      "properties": {
        "classification": "Organic-early",
        "image": "Sambava_800_1.png"
      },
      "geometry": {
        "type": "Polygon",
        "coordinates": [
          [
            [
              2905.93,
              1749.49
            ],
            [
              3417.58,
              1749.49
            ],
            [
              3417.58,
              2261.14
            ],
            [
              2905.93,
              2261.14
            ],
            [
              2905.93,
              1749.49
            ]
          ]
        ]
      }
    },
    {
      "type": "Feature",
      "properties": {
        "classification": "Organic-early",
        "image": "Sambava_800_1.png"
      },
      "geometry": {
        "type": "Polygon",
        "coordinates": [
          [
            [
              3223.77,
              2164.23
            ],
            [
              3737.36,
              2164.23
            ],
            [
              3737.36,
              2675.88
            ],
            [
              3223.77,
              2675.88
            ],
            [
              3223.77,
              2164.23
            ]
          ]
        ]
      }
    },
    {
      "type": "Feature",
      "properties": {
        "classification": "Organic-early",
        "image": "Sambava_800_1.png"
      },
      "geometry": {
        "type": "Polygon",
        "coordinates": [
          [
            [
              3291.61,
              919.99
            ],
            [
              3805.19,
              919.99
            ],
            [
              3805.19,
              1425.83
            ],
            [
              3291.61,
              1425.83
            ],
            [
              3291.61,
              919.99
            ]
          ]
        ]
      }
    },
    {
      "type": "Feature",
      "properties": {
        "classification": "Organic-early",
        "image": "Sambava_800_1.png"
      },
      "geometry": {
        "type": "Polygon",
        "coordinates": [
          [
            [
              3390.77,
              1360.58
            ],
            [
              3900.48,
              1360.58
            ],
            [
              3900.48,
              1872.23
            ],
            [
              3390.77,
              1872.23
            ],
            [
              3390.77,
              1360.58
            ]
          ]
        ]
      }
    },
    {
      "type": "Feature",
      "properties": {
        "classification": "Organic",
        "image": "Sambava_800_1.png"
      },
      "geometry": {
        "type": "Polygon",
        "coordinates": [
          [
            [
              4006.75,
              2036.32
            ],
            [
              4528.09,
              2036.32
            ],
            [
              4528.09,
              2542.16
            ],
            [
              4006.75,
              2542.16
            ],
            [
              4006.75,
              2036.32
            ]
          ]
        ]
      }
    },
    {
      "type": "Feature",
      "properties": {
        "classification": "Organic",
        "image": "Sambava_800_1.png"
      },
      "geometry": {
        "type": "Polygon",
        "coordinates": [
          [
            [
              4297.46,
              1790.19
            ],
            [
              4803.3,
              1790.19
            ],
            [
              4803.3,
              2303.77
            ],
            [
              4297.46,
              2303.77
            ],
            [
              4297.46,
              1790.19
            ]
          ]
        ]
      }
    },
    {
      "type": "Feature",
      "properties": {
        "classification": "Organic-early",
        "image": "Sambava_800_1.png"
      },
      "geometry": {
        "type": "Polygon",
        "coordinates": [
          [
            [
              2919.5,
              2166.17
            ],
            [
              3429.21,
              2166.17
            ],
            [
              3429.21,
              2673.95
            ],
            [
              2919.5,
              2673.95
            ],
            [
              2919.5,
              2166.17
            ]
          ]
        ]
      }
    },
    {
      "type": "Feature",
      "properties": {
        "classification": "Organic",
        "image": "Sambava_800_1.png"
      },
      "geometry": {
        "type": "Polygon",
        "coordinates": [
          [
            [
              4937.0,
              1390.0
            ],
            [
              5447.0,
              1390.0
            ],
            [
              5447.0,
              1900.0
            ],
            [
              4937.0,
              1900.0
            ],
            [
              4937.0,
              1390.0
            ]
          ]
        ]
      }
    },
    {
      "type": "Feature",
      "properties": {
        "classification": "Organic",
        "image": "Sambava_800_1.png"
      },
      "geometry": {
        "type": "Polygon",
        "coordinates": [
          [
            [
              5187.0,
              1480.0
            ],
            [
              5697.0,
              1480.0
            ],
            [
              5697.0,
              1990.0
            ],
            [
              5187.0,
              1990.0
            ],
            [
              5187.0,
              1480.0
            ]
          ]
        ]
      }
    },
    {
      "type": "Feature",
      "properties": {
        "classification": "Organic",
        "image": "Sambava_800_1.png"
      },
      "geometry": {
        "type": "Polygon",
        "coordinates": [
          [
            [
              4627.0,
              1360.0
            ],
            [
              5137.0,
              1360.0
            ],
            [
              5137.0,
              1870.0
            ],
            [
              4627.0,
              1870.0
            ],
            [
              4627.0,
              1360.0
            ]
          ]
        ]
      }
    },
    {
      "type": "Feature",
      "properties": {
        "classification": "Organic",
        "image": "Sambava_800_1.png"
      },
      "geometry": {
        "type": "Polygon",
        "coordinates": [
          [
            [
              4837.0,
              900.0
            ],
            [
              5347.0,
              900.0
            ],
            [
              5347.0,
              1410.0
            ],
            [
              4837.0,
              1410.0
            ],
            [
              4837.0,
              900.0
            ]
          ]
        ]
      }
    },
    {
      "type": "Feature",
      "properties": {
        "classification": "Organic",
        "image": "Sambava_800_1.png"
      },
      "geometry": {
        "type": "Polygon",
        "coordinates": [
          [
            [
              4967.0,
              490.0
            ],
            [
              5477.0,
              490.0
            ],
            [
              5477.0,
              1000.0
            ],
            [
              4967.0,
              1000.0
            ],
            [
              4967.0,
              490.0
            ]
          ]
        ]
      }
    },
    {
      "type": "Feature",
      "properties": {
        "classification": "Organic",
        "image": "Sambava_800_1.png"
      },
      "geometry": {
        "type": "Polygon",
        "coordinates": [
          [
            [
              4627.0,
              1860.0
            ],
            [
              5137.0,
              1860.0
            ],
            [
              5137.0,
              2370.0
            ],
            [
              4627.0,
              2370.0
            ],
            [
              4627.0,
              1860.0
            ]
          ]
        ]
      }
    },
    {
      "type": "Feature",
      "properties": {
        "classification": "Organic",
        "image": "Sambava_800_1.png"
      },
      "geometry": {
        "type": "Polygon",
        "coordinates": [
          [
            [
              5127.0,
              970.0
            ],
            [
              5637.0,
              970.0
            ],
            [
              5637.0,
              1480.0
            ],
            [
              5127.0,
              1480.0
            ],
            [
              5127.0,
              970.0
            ]
          ]
        ]
      }
    },
    {
      "type": "Feature",
      "properties": {
        "classification": "Organic",
        "image": "Sambava_800_1.png"
      },
      "geometry": {
        "type": "Polygon",
        "coordinates": [
          [
            [
              4977.0,
              1930.0
            ],
            [
              5487.0,
              1930.0
            ],
            [
              5487.0,
              2440.0
            ],
            [
              4977.0,
              2440.0
            ],
            [
              4977.0,
              1930.0
            ]
          ]
        ]
      }
    },
    {
      "type": "Feature",
      "properties": {
        "classification": "Organic",
        "image": "Sambava_800_1.png"
      },
      "geometry": {
        "type": "Polygon",
        "coordinates": [
          [
            [
              4537.0,
              570.0
            ],
            [
              5047.0,
              570.0
            ],
            [
              5047.0,
              1080.0
            ],
            [
              4537.0,
              1080.0
            ],
            [
              4537.0,
              570.0
            ]
          ]
        ]
      }
    },
    {
      "type": "Feature",
      "properties": {
        "classification": "Organic",
        "image": "Sambava_800_1.png"
      },
      "geometry": {
        "type": "Polygon",
        "coordinates": [
          [
            [
              5347.0,
              440.0
            ],
            [
              5857.0,
              440.0
            ],
            [
              5857.0,
              950.0
            ],
            [
              5347.0,
              950.0
            ],
            [
              5347.0,
              440.0
            ]
          ]
        ]
      }
    },
    {
      "type": "Feature",
      "properties": {
        "classification": "Organic",
        "image": "Sambava_800_1.png"
      },
      "geometry": {
        "type": "Polygon",
        "coordinates": [
          [
            [
              4757.0,
              190.0
            ],
            [
              5267.0,
              190.0
            ],
            [
              5267.0,
              700.0
            ],
            [
              4757.0,
              700.0
            ],
            [
              4757.0,
              190.0
            ]
          ]
        ]
      }
    },
    {
      "type": "Feature",
      "properties": {
        "classification": "Organic",
        "image": "Sambava_800_1.png"
      },
      "geometry": {
        "type": "Polygon",
        "coordinates": [
          [
            [
              5147.0,
              140.0
            ],
            [
              5657.0,
              140.0
            ],
            [
              5657.0,
              650.0
            ],
            [
              5147.0,
              650.0
            ],
            [
              5147.0,
              140.0
            ]
          ]
        ]
      }
    },
    {
      "type": "Feature",
      "properties": {
        "classification": "Organic",
        "image": "Sambava_800_1.png"
      },
      "geometry": {
        "type": "Polygon",
        "coordinates": [
          [
            [
              4597.0,
              1040.0
            ],
            [
              5107.0,
              1040.0
            ],
            [
              5107.0,
              1550.0
            ],
            [
              4597.0,
              1550.0
            ],
            [
              4597.0,
              1040.0
            ]
          ]
        ]
      }
    },
    {
      "type": "Feature",
      "properties": {
        "classification": "Organic",
        "image": "Sambava_800_1.png"
      },
      "geometry": {
        "type": "Polygon",
        "coordinates": [
          [
            [
              2627.0,
              190.0
            ],
            [
              3137.0,
              190.0
            ],
            [
              3137.0,
              700.0
            ],
            [
              2627.0,
              700.0
            ],
            [
              2627.0,
              190.0
            ]
          ]
        ]
      }
    },
    {
      "type": "Feature",
      "properties": {
        "classification": "Organic",
        "image": "Sambava_800_1.png"
      },
      "geometry": {
        "type": "Polygon",
        "coordinates": [
          [
            [
              4607.0,
              230.0
            ],
            [
              5117.0,
              230.0
            ],
            [
              5117.0,
              730.0
            ],
            [
              4607.0,
              730.0
            ],
            [
              4607.0,
              230.0
            ]
          ]
        ]
      }
    },
    {
      "type": "Feature",
      "properties": {
        "classification": "Organic",
        "image": "Sambava_800_1.png"
      },
      "geometry": {
        "type": "Polygon",
        "coordinates": [
          [
            [
              5327.0,
              1590.0
            ],
            [
              5837.0,
              1590.0
            ],
            [
              5837.0,
              2100.0
            ],
            [
              5327.0,
              2100.0
            ],
            [
              5327.0,
              1590.0
            ]
          ]
        ]
      }
    },
    {
      "type": "Feature",
      "properties": {
        "classification": "Organic",
        "image": "Sambava_800_1.png"
      },
      "geometry": {
        "type": "Polygon",
        "coordinates": [
          [
            [
              4537.0,
              1600.0
            ],
            [
              5047.0,
              1600.0
            ],
            [
              5047.0,
              2110.0
            ],
            [
              4537.0,
              2110.0
            ],
            [
              4537.0,
              1600.0
            ]
          ]
        ]
      }
    },
    {
      "type": "Feature",
      "properties": {
        "classification": "Organic",
        "image": "Sambava_800_1.png"
      },
      "geometry": {
        "type": "Polygon",
        "coordinates": [
          [
            [
              2657.0,
              40.0
            ],
            [
              3177.0,
              40.0
            ],
            [
              3177.0,
              550.0
            ],
            [
              2657.0,
              550.0
            ],
            [
              2657.0,
              40.0
            ]
          ]
        ]
      }
    },
    {
      "type": "Feature",
      "properties": {
        "classification": "Organic",
        "image": "Sambava_800_1.png"
      },
      "geometry": {
        "type": "Polygon",
        "coordinates": [
          [
            [
              4787.0,
              40.0
            ],
            [
              5297.0,
              40.0
            ],
            [
              5297.0,
              550.0
            ],
            [
              4787.0,
              550.0
            ],
            [
              4787.0,
              40.0
            ]
          ]
        ]
      }
    },
    {
      "type": "Feature",
      "properties": {
        "classification": "Organic",
        "image": "Sambava_800_1.png"
      },
      "geometry": {
        "type": "Polygon",
        "coordinates": [
          [
            [
              4627.0,
              2190.0
            ],
            [
              5137.0,
              2190.0
            ],
            [
              5137.0,
              2700.0
            ],
            [
              4627.0,
              2700.0
            ],
            [
              4627.0,
              2190.0
            ]
          ]
        ]
      }
    },
    {
      "type": "Feature",
      "properties": {
        "classification": "Organic",
        "image": "Sambava_800_1.png"
      },
      "geometry": {
        "type": "Polygon",
        "coordinates": [
          [
            [
              5217.0,
              1140.0
            ],
            [
              5727.0,
              1140.0
            ],
            [
              5727.0,
              1650.0
            ],
            [
              5217.0,
              1650.0
            ],
            [
              5217.0,
              1140.0
            ]
          ]
        ]
      }
    },
    {
      "type": "Feature",
      "properties": {
        "classification": "Organic",
        "image": "Sambava_800_1.png"
      },
      "geometry": {
        "type": "Polygon",
        "coordinates": [
          [
            [
              5087.0,
              2150.0
            ],
            [
              5597.0,
              2150.0
            ],
            [
              5597.0,
              2660.0
            ],
            [
              5087.0,
              2660.0
            ],
            [
              5087.0,
              2150.0
            ]
          ]
        ]
      }
    },
    {
      "type": "Feature",
      "properties": {
        "classification": "Organic",
        "image": "Sambava_800_1.png"
      },
      "geometry": {
        "type": "Polygon",
        "coordinates": [
          [
            [
              5335.1,
              88.37
            ],
            [
              5846.75,
              88.37
            ],
            [
              5846.75,
              600.02
            ],
            [
              5335.1,
              600.02
            ],
            [
              5335.1,
              88.37
            ]
          ]
        ]
      }
    },
    {
      "type": "Feature",
      "properties": {
        "classification": "Organic",
        "image": "Sambava_800_1.png"
      },
      "geometry": {
        "type": "Polygon",
        "coordinates": [
          [
            [
              5325.8,
              30.23
            ],
            [
              5837.45,
              30.23
            ],
            [
              5837.45,
              541.88
            ],
            [
              5325.8,
              541.88
            ],
            [
              5325.8,
              30.23
            ]
          ]
        ]
      }
    },
    {
      "type": "Feature",
      "properties": {
        "classification": "Organic",
        "image": "Sambava_800_1.png"
      },
      "geometry": {
        "type": "Polygon",
        "coordinates": [
          [
            [
              3981.56,
              2418.7
            ],
            [
              4495.53,
              2418.7
            ],
            [
              4495.53,
              2930.35
            ],
            [
              3981.56,
              2930.35
            ],
            [
              3981.56,
              2418.7
            ]
          ]
        ]
      }
    },
    {
      "type": "Feature",
      "properties": {
        "classification": "Organic",
        "image": "Sambava_800_1.png"
      },
      "geometry": {
        "type": "Polygon",
        "coordinates": [
          [
            [
              4276.92,
              2451.26
            ],
            [
              4788.57,
              2451.26
            ],
            [
              4788.57,
              2965.24
            ],
            [
              4276.92,
              2965.24
            ],
            [
              4276.92,
              2451.26
            ]
          ]
        ]
      }
    },
    {
      "type": "Feature",
      "properties": {
        "classification": "Organic",
        "image": "Sambava_800_1.png"
      },
      "geometry": {
        "type": "Polygon",
        "coordinates": [
          [
            [
              5514.18,
              2158.23
            ],
            [
              6021.18,
              2158.23
            ],
            [
              6021.18,
              2669.87
            ],
            [
              5514.18,
              2669.87
            ],
            [
              5514.18,
              2158.23
            ]
          ]
        ]
      }
    },
    {
      "type": "Feature",
      "properties": {
        "classification": "Organic",
        "image": "Sambava_800_1.png"
      },
      "geometry": {
        "type": "Polygon",
        "coordinates": [
          [
            [
              5495.58,
              1995.43
            ],
            [
              6007.23,
              1995.43
            ],
            [
              6007.23,
              2507.08
            ],
            [
              5495.58,
              2507.08
            ],
            [
              5495.58,
              1995.43
            ]
          ]
        ]
      }
    },
    {
      "type": "Feature",
      "properties": {
        "classification": "Organic",
        "image": "Sambava_800_1.png"
      },
      "geometry": {
        "type": "Polygon",
        "coordinates": [
          [
            [
              4439.72,
              2130.32
            ],
            [
              4951.37,
              2130.32
            ],
            [
              4951.37,
              2637.32
            ],
            [
              4439.72,
              2637.32
            ],
            [
              4439.72,
              2130.32
            ]
          ]
        ]
      }
    },
    {
      "type": "Feature",
      "properties": {
        "classification": "Organic",
        "image": "Sambava_800_1.png"
      },
      "geometry": {
        "type": "Polygon",
        "coordinates": [
          [
            [
              4321.71,
              1187.07
            ],
            [
              4840.8,
              1187.07
            ],
            [
              4840.8,
              1703.37
            ],
            [
              4321.71,
              1703.37
            ],
            [
              4321.71,
              1187.07
            ]
          ]
        ]
      }
    },
    {
      "type": "Feature",
      "properties": {
        "classification": "Organic",
        "image": "Sambava_800_1.png"
      },
      "geometry": {
        "type": "Polygon",
        "coordinates": [
          [
            [
              3548.99,
              1891.65
            ],
            [
              4067.41,
              1891.65
            ],
            [
              4067.41,
              2402.03
            ],
            [
              3548.99,
              2402.03
            ],
            [
              3548.99,
              1891.65
            ]
          ]
        ]
      }
    },
    {
      "type": "Feature",
      "properties": {
        "classification": "Organic-early",
        "image": "Sambava_800_1.png"
      },
      "geometry": {
        "type": "Polygon",
        "coordinates": [
          [
            [
              2829.63,
              1216.49
            ],
            [
              3348.05,
              1216.49
            ],
            [
              3348.05,
              1726.88
            ],
            [
              2829.63,
              1726.88
            ],
            [
              2829.63,
              1216.49
            ]
          ]
        ]
      }
    },
    {
      "type": "Feature",
      "properties": {
        "classification": "Organic",
        "image": "Sambava_800_1.png"
      },
      "geometry": {
        "type": "Polygon",
        "coordinates": [
          [
            [
              2664.25,
              615.32
            ],
            [
              3175.9,
              615.32
            ],
            [
              3175.9,
              1126.97
            ],
            [
              2664.25,
              1126.97
            ],
            [
              2664.25,
              615.32
            ]
          ]
        ]
      }
    },
    {
      "type": "Feature",
      "properties": {
        "classification": "Organic-early",
        "image": "Sambava_800_1.png"
      },
      "geometry": {
        "type": "Polygon",
        "coordinates": [
          [
            [
              2963.4,
              2521.17
            ],
            [
              3474.58,
              2521.17
            ],
            [
              3474.58,
              3032.36
            ],
            [
              2963.4,
              3032.36
            ],
            [
              2963.4,
              2521.17
            ]
          ]
        ]
      }
    },
    {
      "type": "Feature",
      "properties": {
        "classification": "Organic-early",
        "image": "Sambava_800_1.png"
      },
      "geometry": {
        "type": "Polygon",
        "coordinates": [
          [
            [
              3267.05,
              2940.65
            ],
            [
              3778.24,
              2940.65
            ],
            [
              3778.24,
              3451.84
            ],
            [
              3267.05,
              3451.84
            ],
            [
              3267.05,
              2940.65
            ]
          ]
        ]
      }
    },
    {
      "type": "Feature",
      "properties": {
        "classification": "Organic-early",
        "image": "Sambava_800_1.png"
      },
      "geometry": {
        "type": "Polygon",
        "coordinates": [
          [
            [
              3464.78,
              2545.2
            ],
            [
              3975.97,
              2545.2
            ],
            [
              3975.97,
              3056.39
            ],
            [
              3464.78,
              3056.39
            ],
            [
              3464.78,
              2545.2
            ]
          ]
        ]
      }
    },
    {
      "type": "Feature",
      "properties": {
        "classification": "Organic-early",
        "image": "Sambava_800_1.png"
      },
      "geometry": {
        "type": "Polygon",
        "coordinates": [
          [
            [
              3156.11,
              2224.49
            ],
            [
              3667.3,
              2224.49
            ],
            [
              3667.3,
              2735.68
            ],
            [
              3156.11,
              2735.68
            ],
            [
              3156.11,
              2224.49
            ]
          ]
        ]
      }
    },
    {
      "type": "Feature",
      "properties": {
        "classification": "Organic-early",
        "image": "Sambava_800_1.png"
      },
      "geometry": {
        "type": "Polygon",
        "coordinates": [
          [
            [
              3188.26,
              3168.9
            ],
            [
              3699.45,
              3168.9
            ],
            [
              3699.45,
              3680.09
            ],
            [
              3188.26,
              3680.09
            ],
            [
              3188.26,
              3168.9
            ]
          ]
        ]
      }
    },
    {
      "type": "Feature",
      "properties": {
        "classification": "Organic-early",
        "image": "Sambava_800_1.png"
      },
      "geometry": {
        "type": "Polygon",
        "coordinates": [
          [
            [
              3503.04,
              3073.11
            ],
            [
              4014.23,
              3073.11
            ],
            [
              4014.23,
              3584.3
            ],
            [
              3503.04,
              3584.3
            ],
            [
              3503.04,
              3073.11
            ]
          ]
        ]
      }
    },
    {
      "type": "Feature",
      "properties": {
        "classification": "Organic",
        "image": "Sambava_800_1.png"
      },
      "geometry": {
        "type": "Polygon",
        "coordinates": [
          [
            [
              3988.92,
              2170.6
            ],
            [
              4507.34,
              2170.6
            ],
            [
              4507.34,
              2680.99
            ],
            [
              3988.92,
              2680.99
            ],
            [
              3988.92,
              2170.6
            ]
          ]
        ]
      }
    },
    {
      "type": "Feature",
      "properties": {
        "classification": "Organic",
        "image": "Sambava_800_1.png"
      },
      "geometry": {
        "type": "Polygon",
        "coordinates": [
          [
            [
              5391.58,
              2007.55
            ],
            [
              5910.0,
              2007.55
            ],
            [
              5910.0,
              2517.93
            ],
            [
              5391.58,
              2517.93
            ],
            [
              5391.58,
              2007.55
            ]
          ]
        ]
      }
    },
    {
      "type": "Feature",
      "properties": {
        "classification": "Organic",
        "image": "Sambava_800_1.png"
      },
      "geometry": {
        "type": "Polygon",
        "coordinates": [
          [
            [
              4656.28,
              8.46
            ],
            [
              5174.7,
              8.46
            ],
            [
              5174.7,
              518.85
            ],
            [
              4656.28,
              518.85
            ],
            [
              4656.28,
              8.46
            ]
          ]
        ]
      }
    },
    {
      "type": "Feature",
      "properties": {
        "classification": "Organic-early",
        "image": "Sambava_800_1.png"
      },
      "geometry": {
        "type": "Polygon",
        "coordinates": [
          [
            [
              3061.04,
              648.43
            ],
            [
              3574.63,
              648.43
            ],
            [
              3574.63,
              1154.27
            ],
            [
              3061.04,
              1154.27
            ],
            [
              3061.04,
              648.43
            ]
          ]
        ]
      }
    },
    {
      "type": "Feature",
      "properties": {
        "classification": "Organic-v early",
        "image": "Sambava_800_1.png"
      },
      "geometry": {
        "type": "Polygon",
        "coordinates": [
          [
            [
              389.46,
              1175.28
            ],
            [
              903.05,
              1175.28
            ],
            [
              903.05,
              1681.12
            ],
            [
              389.46,
              1681.12
            ],
            [
              389.46,
              1175.28
            ]
          ]
        ]
      }
    },
    {
      "type": "Feature",
      "properties": {
        "classification": "Organic-v early",
        "image": "Sambava_800_1.png"
      },
      "geometry": {
        "type": "Polygon",
        "coordinates": [
          [
            [
              610.5,
              1010.51
            ],
            [
              1124.08,
              1010.51
            ],
            [
              1124.08,
              1516.35
            ],
            [
              610.5,
              1516.35
            ],
            [
              610.5,
              1010.51
            ]
          ]
        ]
      }
    },
    {
      "type": "Feature",
      "properties": {
        "classification": "Organic-v early",
        "image": "Sambava_800_1.png"
      },
      "geometry": {
        "type": "Polygon",
        "coordinates": [
          [
            [
              204.6,
              1203.41
            ],
            [
              718.19,
              1203.41
            ],
            [
              718.19,
              1709.25
            ],
            [
              204.6,
              1709.25
            ],
            [
              204.6,
              1203.41
            ]
          ]
        ]
      }
    },
    {
      "type": "Feature",
      "properties": {
        "classification": "Organic-v early",
        "image": "Sambava_800_1.png"
      },
      "geometry": {
        "type": "Polygon",
        "coordinates": [
          [
            [
              1297.71,
              33.95
            ],
            [
              1811.29,
              33.95
            ],
            [
              1811.29,
              539.78
            ],
            [
              1297.71,
              539.78
            ],
            [
              1297.71,
              33.95
            ]
          ]
        ]
      }
    },
    {
      "type": "Feature",
      "properties": {
        "classification": "Organic-v early",
        "image": "Sambava_800_1.png"
      },
      "geometry": {
        "type": "Polygon",
        "coordinates": [
          [
            [
              1747.81,
              9.84
            ],
            [
              2261.4,
              9.84
            ],
            [
              2261.4,
              515.67
            ],
            [
              1747.81,
              515.67
            ],
            [
              1747.81,
              9.84
            ]
          ]
        ]
      }
    },
    {
      "type": "Feature",
      "properties": {
        "classification": "Organic-v early",
        "image": "Sambava_800_1.png"
      },
      "geometry": {
        "type": "Polygon",
        "coordinates": [
          [
            [
              1410.23,
              21.89
            ],
            [
              1923.82,
              21.89
            ],
            [
              1923.82,
              527.73
            ],
            [
              1410.23,
              527.73
            ],
            [
              1410.23,
              21.89
            ]
          ]
        ]
      }
    },
    {
      "type": "Feature",
      "properties": {
        "classification": "Organic-v early",
        "image": "Sambava_800_1.png"
      },
      "geometry": {
        "type": "Polygon",
        "coordinates": [
          [
            [
              1225.37,
              90.21
            ],
            [
              1738.96,
              90.21
            ],
            [
              1738.96,
              596.05
            ],
            [
              1225.37,
              596.05
            ],
            [
              1225.37,
              90.21
            ]
          ]
        ]
      }
    },
    {
      "type": "Feature",
      "properties": {
        "classification": "Organic-v early",
        "image": "Sambava_800_1.png"
      },
      "geometry": {
        "type": "Polygon",
        "coordinates": [
          [
            [
              424.31,
              1335.47
            ],
            [
              937.9,
              1335.47
            ],
            [
              937.9,
              1841.31
            ],
            [
              424.31,
              1841.31
            ],
            [
              424.31,
              1335.47
            ]
          ]
        ]
      }
    },
    {
      "type": "Feature",
      "properties": {
        "classification": "Organic-v early",
        "image": "Sambava_800_1.png"
      },
      "geometry": {
        "type": "Polygon",
        "coordinates": [
          [
            [
              522.07,
              1588.35
            ],
            [
              1035.66,
              1588.35
            ],
            [
              1035.66,
              2094.19
            ],
            [
              522.07,
              2094.19
            ],
            [
              522.07,
              1588.35
            ]
          ]
        ]
      }
    },
    {
      "type": "Feature",
      "properties": {
        "classification": "Organic-v early",
        "image": "Sambava_800_1.png"
      },
      "geometry": {
        "type": "Polygon",
        "coordinates": [
          [
            [
              687.46,
              1302.09
            ],
            [
              1201.04,
              1302.09
            ],
            [
              1201.04,
              1807.93
            ],
            [
              687.46,
              1807.93
            ],
            [
              687.46,
              1302.09
            ]
          ]
        ]
      }
    },
    {
      "type": "Feature",
      "properties": {
        "classification": "Organic-early",
        "image": "Sambava_800_1.png"
      },
      "geometry": {
        "type": "Polygon",
        "coordinates": [
          [
            [
              3227.83,
              650.62
            ],
            [
              3740.23,
              650.62
            ],
            [
              3740.23,
              1163.02
            ],
            [
              3227.83,
              1163.02
            ],
            [
              3227.83,
              650.62
            ]
          ]
        ]
      }
    },
    {
      "type": "Feature",
      "properties": {
        "classification": "Organic-early",
        "image": "Sambava_800_1.png"
      },
      "geometry": {
        "type": "Polygon",
        "coordinates": [
          [
            [
              2673.24,
              1152.17
            ],
            [
              3185.64,
              1152.17
            ],
            [
              3185.64,
              1664.56
            ],
            [
              2673.24,
              1664.56
            ],
            [
              2673.24,
              1152.17
            ]
          ]
        ]
      }
    },
    {
      "type": "Feature",
      "properties": {
        "classification": "Organic-early",
        "image": "Sambava_800_1.png"
      },
      "geometry": {
        "type": "Polygon",
        "coordinates": [
          [
            [
              2971.59,
              1373.41
            ],
            [
              3482.78,
              1373.41
            ],
            [
              3482.78,
              1884.59
            ],
            [
              2971.59,
              1884.59
            ],
            [
              2971.59,
              1373.41
            ]
          ]
        ]
      }
    },
    {
      "type": "Feature",
      "properties": {
        "classification": "Organic-early",
        "image": "Sambava_800_1.png"
      },
      "geometry": {
        "type": "Polygon",
        "coordinates": [
          [
            [
              3101.8,
              1166.04
            ],
            [
              3612.99,
              1166.04
            ],
            [
              3612.99,
              1677.23
            ],
            [
              3101.8,
              1677.23
            ],
            [
              3101.8,
              1166.04
            ]
          ]
        ]
      }
    },
    {
      "type": "Feature",
      "properties": {
        "classification": "Organic-early",
        "image": "Sambava_800_1.png"
      },
      "geometry": {
        "type": "Polygon",
        "coordinates": [
          [
            [
              2934.46,
              1791.04
            ],
            [
              3440.83,
              1791.04
            ],
            [
              3440.83,
              2297.4
            ],
            [
              2934.46,
              2297.4
            ],
            [
              2934.46,
              1791.04
            ]
          ]
        ]
      }
    },
    {
      "type": "Feature",
      "properties": {
        "classification": "Organic-early",
        "image": "Sambava_800_1.png"
      },
      "geometry": {
        "type": "Polygon",
        "coordinates": [
          [
            [
              2756.03,
              1656.01
            ],
            [
              3267.21,
              1656.01
            ],
            [
              3267.21,
              2167.2
            ],
            [
              2756.03,
              2167.2
            ],
            [
              2756.03,
              1656.01
            ]
          ]
        ]
      }
    },
    {
      "type": "Feature",
      "properties": {
        "classification": "Organic",
        "image": "Sambava_800_1.png"
      },
      "geometry": {
        "type": "Polygon",
        "coordinates": [
          [
            [
              3870.79,
              2536.23
            ],
            [
              4380.51,
              2536.23
            ],
            [
              4380.51,
              3046.61
            ],
            [
              3870.79,
              3046.61
            ],
            [
              3870.79,
              2536.23
            ]
          ]
        ]
      }
    },
    {
      "type": "Feature",
      "properties": {
        "classification": "Organic-early",
        "image": "Sambava_800_1.png"
      },
      "geometry": {
        "type": "Polygon",
        "coordinates": [
          [
            [
              3360.13,
              131.71
            ],
            [
              3870.85,
              131.71
            ],
            [
              3870.85,
              642.43
            ],
            [
              3360.13,
              642.43
            ],
            [
              3360.13,
              131.71
            ]
          ]
        ]
      }
    },
    {
      "type": "Feature",
      "properties": {
        "classification": "Organic-early",
        "image": "Sambava_800_1.png"
      },
      "geometry": {
        "type": "Polygon",
        "coordinates": [
          [
            [
              3438.27,
              45.2
            ],
            [
              3948.99,
              45.2
            ],
            [
              3948.99,
              555.92
            ],
            [
              3438.27,
              555.92
            ],
            [
              3438.27,
              45.2
            ]
          ]
        ]
      }
    },
    {
      "type": "Feature",
      "properties": {
        "classification": "Organic-early",
        "image": "Sambava_800_1.png"
      },
      "geometry": {
        "type": "Polygon",
        "coordinates": [
          [
            [
              3360.07,
              572.72
            ],
            [
              3872.47,
              572.72
            ],
            [
              3872.47,
              1085.11
            ],
            [
              3360.07,
              1085.11
            ],
            [
              3360.07,
              572.72
            ]
          ]
        ]
      }
    },
    {
      "type": "Feature",
      "properties": {
        "classification": "Organic-early",
        "image": "Sambava_800_1.png"
      },
      "geometry": {
        "type": "Polygon",
        "coordinates": [
          [
            [
              3303.38,
              617.72
            ],
            [
              3814.57,
              617.72
            ],
            [
              3814.57,
              1128.9
            ],
            [
              3303.38,
              1128.9
            ],
            [
              3303.38,
              617.72
            ]
          ]
        ]
      }
    },
    {
      "type": "Feature",
      "properties": {
        "classification": "Organic-early",
        "image": "Sambava_800_1.png"
      },
      "geometry": {
        "type": "Polygon",
        "coordinates": [
          [
            [
              3040.3,
              109.67
            ],
            [
              3551.02,
              109.67
            ],
            [
              3551.02,
              620.39
            ],
            [
              3040.3,
              620.39
            ],
            [
              3040.3,
              109.67
            ]
          ]
        ]
      }
    }
  ]
}