{"type":"FeatureCollection","features":[{"type":"Feature","id":"eced3fe2-5e73-404d-97da-213c207d03f9","geometry":{"type":"Polygon","coordinates":[[[3581.59, 863.76],[4092.54, 863.76],[4092.54, 1374.72],[3581.59, 1374.72],[3581.59, 863.76]]]},"properties":{"objectType":"annotation","classification":{"name":"1","color":[186, 103, 31]}}},{"type":"Feature","id":"e62a506c-e920-4d35-baa8-093d621c51c9","geometry":{"type":"Polygon","coordinates":[[[4836.13, 1591.47],[5347.08, 1591.47],[5347.08, 2102.43],[4836.13, 2102.43],[4836.13, 1591.47]]]},"properties":{"objectType":"annotation","classification":{"name":"1","color":[186, 103, 31]}}},{"type":"Feature","id":"f7f31f35-af18-4480-be6e-6e4fa424df52","geometry":{"type":"Polygon","coordinates":[[[3836.76, 1606.5],[4347.72, 1606.5],[4347.72, 2117.46],[3836.76, 2117.46],[3836.76, 1606.5]]]},"properties":{"objectType":"annotation","classification":{"name":"1","color":[186, 103, 31]}}},{"type":"Feature","id":"086cf2aa-9a9f-4cd7-92e0-c534a539ef7d","geometry":{"type":"Polygon","coordinates":[[[5978.26, 2350.39],[6489.22, 2350.39],[6489.22, 2861.35],[5978.26, 2861.35],[5978.26, 2350.39]]]},"properties":{"objectType":"annotation","classification":{"name":"1","color":[186, 103, 31]}}},{"type":"Feature","id":"686a14a6-ad82-49fd-9a75-6db167a154d8","geometry":{"type":"Polygon","coordinates":[[[5482.34, 1598.99],[5993.29, 1598.99],[5993.29, 2109.94],[5482.34, 2109.94],[5482.34, 1598.99]]]},"properties":{"objectType":"annotation","classification":{"name":"1","color":[186, 103, 31]}}},{"type":"Feature","id":"620763ee-1443-4494-af20-86bd93b469d3","geometry":{"type":"Polygon","coordinates":[[[4866.18, 847.58],[5377.14, 847.58],[5377.14, 1358.54],[4866.18, 1358.54],[4866.18, 847.58]]]},"properties":{"objectType":"annotation","classification":{"name":"1","color":[186, 103, 31]}}},{"type":"Feature","id":"9624ed27-43df-4ab3-911e-9b10f6174f52","geometry":{"type":"Polygon","coordinates":[[[6616.96, 3710.43],[7127.91, 3710.43],[7127.91, 4221.39],[6616.96, 4221.39],[6616.96, 3710.43]]]},"properties":{"objectType":"annotation","classification":{"name":"1","color":[186, 103, 31]}}},{"type":"Feature","id":"ed1dd6f6-a30b-42f7-a56d-1e3591ca1636","geometry":{"type":"Polygon","coordinates":[[[6579.38, 2906.43],[7090.34, 2906.43],[7090.34, 3417.38],[6579.38, 3417.38],[6579.38, 2906.43]]]},"properties":{"objectType":"annotation","classification":{"name":"1","color":[186, 103, 31]}}},{"type":"Feature","id":"2542fa91-571c-4a54-bbe1-84862118b030","geometry":{"type":"Polygon","coordinates":[[[5610.07, 975.32],[6121.03, 975.32],[6121.03, 1486.28],[5610.07, 1486.28],[5610.07, 975.32]]]},"properties":{"objectType":"annotation","classification":{"name":"1","color":[186, 103, 31]}}},{"type":"Feature","id":"1f444019-8ed4-4a8b-b831-d0a02457649a","geometry":{"type":"Polygon","coordinates":[[[2867.45, 1516.33],[3378.41, 1516.33],[3378.41, 2027.29],[2867.45, 2027.29],[2867.45, 1516.33]]]},"properties":{"objectType":"annotation","classification":{"name":"1","color":[186, 103, 31]}}},{"type":"Feature","id":"388bcd99-f0c7-40dd-9498-c9cb89bc47a1","geometry":{"type":"Polygon","coordinates":[[[2213.87, 1540.34],[2724.83, 1540.34],[2724.83, 2051.29],[2213.87, 2051.29],[2213.87, 1540.34]]]},"properties":{"objectType":"annotation","classification":{"name":"1","color":[186, 103, 31]}}},{"type":"Feature","id":"6a6b8054-0b7a-4260-812e-c242ccd72b57","geometry":{"type":"Polygon","coordinates":[[[5708.6, 2575.17],[6219.56, 2575.17],[6219.56, 3086.12],[5708.6, 3086.12],[5708.6, 2575.17]]]},"properties":{"objectType":"annotation","classification":{"name":"1","color":[186, 103, 31]}}},{"type":"Feature","id":"4db0d31e-3dbb-4736-ac13-ed6bd5f909d7","geometry":{"type":"Polygon","coordinates":[[[6092.42, 3087.23],[6603.38, 3087.23],[6603.38, 3598.19],[6092.42, 3598.19],[6092.42, 3087.23]]]},"properties":{"objectType":"annotation","classification":{"name":"1","color":[186, 103, 31]}}},{"type":"Feature","id":"890f6a29-30ce-4a4b-bc59-809ba8897bc2","geometry":{"type":"Polygon","coordinates":[[[4530.52, 1777.86],[5041.48, 1777.86],[5041.48, 2288.81],[4530.52, 2288.81],[4530.52, 1777.86]]]},"properties":{"objectType":"annotation","classification":{"name":"1","color":[186, 103, 31]}}},{"type":"Feature","id":"dc35e768-a916-4ebf-b62d-afa5207d9164","geometry":{"type":"Polygon","coordinates":[[[3957.21, 1091.7],[4468.17, 1091.7],[4468.17, 1602.65],[3957.21, 1602.65],[3957.21, 1091.7]]]},"properties":{"objectType":"annotation","classification":{"name":"1","color":[186, 103, 31]}}},{"type":"Feature","id":"bdd065e2-82b2-485f-81cb-a5539fd1242b","geometry":{"type":"Polygon","coordinates":[[[5794.74, 2214.23],[6305.7, 2214.23],[6305.7, 2725.19],[5794.74, 2725.19],[5794.74, 2214.23]]]},"properties":{"objectType":"annotation","classification":{"name":"1","color":[186, 103, 31]}}},{"type":"Feature","id":"482a9591-0c15-430c-bd50-fc32a6eb4149","geometry":{"type":"Polygon","coordinates":[[[4156.13, 1718.49],[4667.08, 1718.49],[4667.08, 2229.45],[4156.13, 2229.45],[4156.13, 1718.49]]]},"properties":{"objectType":"annotation","classification":{"name":"1","color":[186, 103, 31]}}},{"type":"Feature","id":"ca1ed535-1f01-4077-9f6c-81b75a30098c","geometry":{"type":"Polygon","coordinates":[[[4476.56, 1443.35],[4987.51, 1443.35],[4987.51, 1954.3],[4476.56, 1954.3],[4476.56, 1443.35]]]},"properties":{"objectType":"annotation","classification":{"name":"1","color":[186, 103, 31]}}},{"type":"Feature","id":"1144400a-c5e2-4fd0-8a9c-2bd9750e0bf1","geometry":{"type":"Polygon","coordinates":[[[6158.61, 2195.64],[6669.56, 2195.64],[6669.56, 2706.59],[6158.61, 2706.59],[6158.61, 2195.64]]]},"properties":{"objectType":"annotation","classification":{"name":"1","color":[186, 103, 31]}}},{"type":"Feature","id":"cf025b9a-b1c8-4031-bc94-1afb1766dcdd","geometry":{"type":"Polygon","coordinates":[[[4523.08, 1523.35],[5034.03, 1523.35],[5034.03, 2034.3],[4523.08, 2034.3],[4523.08, 1523.35]]]},"properties":{"objectType":"annotation","classification":{"name":"1","color":[186, 103, 31]}}},{"type":"Feature","id":"3d979a13-d9ef-4bef-a3eb-ea29d8f57958","geometry":{"type":"Polygon","coordinates":[[[2145.56, 1086.89],[2656.52, 1086.89],[2656.52, 1597.85],[2145.56, 1597.85],[2145.56, 1086.89]]]},"properties":{"objectType":"annotation","classification":{"name":"1","color":[186, 103, 31]}}},{"type":"Feature","id":"969de6f0-f272-40bd-a438-a49bf96bf99c","geometry":{"type":"Polygon","coordinates":[[[3569.25, 1577.56],[4080.21, 1577.56],[4080.21, 2088.52],[3569.25, 2088.52],[3569.25, 1577.56]]]},"properties":{"objectType":"annotation","classification":{"name":"1","color":[186, 103, 31]}}},{"type":"Feature","id":"e0fca1ee-fdb3-43c5-b379-6c474dfe2982","geometry":{"type":"Polygon","coordinates":[[[5646.13, 3745.97],[6157.08, 3745.97],[6157.08, 4256.93],[5646.13, 4256.93],[5646.13, 3745.97]]]},"properties":{"objectType":"annotation","classification":{"name":"1","color":[186, 103, 31]}}},{"type":"Feature","id":"06c032b7-4b47-4f75-b3e8-37321772f7c0","geometry":{"type":"Polygon","coordinates":[[[6633.18, 3567.97],[7144.14, 3567.97],[7144.14, 4078.93],[6633.18, 4078.93],[6633.18, 3567.97]]]},"properties":{"objectType":"annotation","classification":{"name":"1","color":[186, 103, 31]}}},{"type":"Feature","id":"33028bca-d83f-4c93-af56-2300369a1c75","geometry":{"type":"Polygon","coordinates":[[[5790.22, 1880.83],[6301.17, 1880.83],[6301.17, 2391.79],[5790.22, 2391.79],[5790.22, 1880.83]]]},"properties":{"objectType":"annotation","classification":{"name":"1","color":[186, 103, 31]}}},{"type":"Feature","id":"a7af4555-3ae6-4367-a54a-51136d73d0cd","geometry":{"type":"Polygon","coordinates":[[[2270.32, 844.47],[2781.27, 844.47],[2781.27, 1355.43],[2270.32, 1355.43],[2270.32, 844.47]]]},"properties":{"objectType":"annotation","classification":{"name":"1","color":[186, 103, 31]}}},{"type":"Feature","id":"9ece3da6-7787-4f35-9172-78f0d6446bec","geometry":{"type":"Polygon","coordinates":[[[4352.02, 746.64],[4862.98, 746.64],[4862.98, 1257.59],[4352.02, 1257.59],[4352.02, 746.64]]]},"properties":{"objectType":"annotation","classification":{"name":"1","color":[186, 103, 31]}}},{"type":"Feature","id":"d888683f-5f9b-4e1b-b91c-a26d11bfb09d","geometry":{"type":"Polygon","coordinates":[[[5163.85, 1026.61],[5674.8, 1026.61],[5674.8, 1537.57],[5163.85, 1537.57],[5163.85, 1026.61]]]},"properties":{"objectType":"annotation","classification":{"name":"1","color":[186, 103, 31]}}},{"type":"Feature","id":"88441f8a-7cbe-4800-bc87-9288b3a9a31b","geometry":{"type":"Polygon","coordinates":[[[2599.92, 693.28],[3110.87, 693.28],[3110.87, 1204.24],[2599.92, 1204.24],[2599.92, 693.28]]]},"properties":{"objectType":"annotation","classification":{"name":"1","color":[186, 103, 31]}}},{"type":"Feature","id":"859ad8df-e112-4e7a-b9e3-979895fa278a","geometry":{"type":"Polygon","coordinates":[[[5807.81, 3433.32],[6318.77, 3433.32],[6318.77, 3944.28],[5807.81, 3944.28],[5807.81, 3433.32]]]},"properties":{"objectType":"annotation","classification":{"name":"1","color":[186, 103, 31]}}}]}