{"type":"FeatureCollection","features":[{"type":"Feature","id":"836a70eb-c5ce-4527-bb80-e85a6684d909","geometry":{"type":"Polygon","coordinates":[[[5144.2, 3146.88],[5655.16, 3146.88],[5655.16, 3657.83],[5144.2, 3657.83],[5144.2, 3146.88]]]},"properties":{"objectType":"annotation","classification":{"name":"1","color":[186, 103, 31]}}},{"type":"Feature","id":"5d7f3340-9d31-4b8f-923f-b6b5a2f1eba2","geometry":{"type":"Polygon","coordinates":[[[6196.17, 1659.1],[6707.12, 1659.1],[6707.12, 2170.05],[6196.17, 2170.05],[6196.17, 1659.1]]]},"properties":{"objectType":"annotation","classification":{"name":"1","color":[186, 103, 31]}}},{"type":"Feature","id":"41a7adbd-c18c-426f-a8c7-7533d78c2f66","geometry":{"type":"Polygon","coordinates":[[[6121.03, 261.49],[6631.98, 261.49],[6631.98, 772.44],[6121.03, 772.44],[6121.03, 261.49]]]},"properties":{"objectType":"annotation","classification":{"name":"1","color":[186, 103, 31]}}},{"type":"Feature","id":"0f285212-bcfe-4a8b-956b-ba166e266ee5","geometry":{"type":"Polygon","coordinates":[[[743.58, 3306.67],[1254.53, 3306.67],[1254.53, 3817.63],[743.58, 3817.63],[743.58, 3306.67]]]},"properties":{"objectType":"annotation","classification":{"name":"1","color":[186, 103, 31]}}},{"type":"Feature","id":"7d1165e4-b022-46a8-9c28-2ccfb98f7f40","geometry":{"type":"Polygon","coordinates":[[[141.77, 3571.38],[652.73, 3571.38],[652.73, 4082.34],[141.77, 4082.34],[141.77, 3571.38]]]},"properties":{"objectType":"annotation","classification":{"name":"1","color":[186, 103, 31]}}},{"type":"Feature","id":"c9745983-0458-414e-8793-9e967d22961b","geometry":{"type":"Polygon","coordinates":[[[4326.81, 2805.6],[4837.76, 2805.6],[4837.76, 3316.55],[4326.81, 3316.55],[4326.81, 2805.6]]]},"properties":{"objectType":"annotation","classification":{"name":"1","color":[186, 103, 31]}}},{"type":"Feature","id":"94e17da0-2a6e-4232-a96d-ba2fe96f396b","geometry":{"type":"Polygon","coordinates":[[[3695.68, 2907.4],[4206.63, 2907.4],[4206.63, 3418.36],[3695.68, 3418.36],[3695.68, 2907.4]]]},"properties":{"objectType":"annotation","classification":{"name":"1","color":[186, 103, 31]}}},{"type":"Feature","id":"5f80edd4-1664-49da-bf8f-d21dd839afef","geometry":{"type":"Polygon","coordinates":[[[5791.52, 2383.96],[6302.48, 2383.96],[6302.48, 2894.92],[5791.52, 2894.92],[5791.52, 2383.96]]]},"properties":{"objectType":"annotation","classification":{"name":"1","color":[186, 103, 31]}}},{"type":"Feature","id":"0da79ce6-c123-4c5d-a30f-d1a9efc31a08","geometry":{"type":"Polygon","coordinates":[[[4365.65, 2230.54],[4876.61, 2230.54],[4876.61, 2741.49],[4365.65, 2741.49],[4365.65, 2230.54]]]},"properties":{"objectType":"annotation","classification":{"name":"1","color":[186, 103, 31]}}},{"type":"Feature","id":"916212c1-ba6b-40c2-adcf-d35e17a7489d","geometry":{"type":"Polygon","coordinates":[[[4011.73, 2627.05],[4522.69, 2627.05],[4522.69, 3138.01],[4011.73, 3138.01],[4011.73, 2627.05]]]},"properties":{"objectType":"annotation","classification":{"name":"1","color":[186, 103, 31]}}},{"type":"Feature","id":"12a9ff7d-accd-412d-b7a2-fa557d7e7d9e","geometry":{"type":"Polygon","coordinates":[[[4617.69, 3070.04],[5128.64, 3070.04],[5128.64, 3581],[4617.69, 3581],[4617.69, 3070.04]]]},"properties":{"objectType":"annotation","classification":{"name":"1","color":[186, 103, 31]}}},{"type":"Feature","id":"466c56c6-b22e-4a5f-9386-64dd1d2d61dd","geometry":{"type":"Polygon","coordinates":[[[3591.81, 1634.73],[4102.76, 1634.73],[4102.76, 2145.69],[3591.81, 2145.69],[3591.81, 1634.73]]]},"properties":{"objectType":"annotation","classification":{"name":"1","color":[186, 103, 31]}}},{"type":"Feature","id":"55bd27d5-cdc0-433f-9cb8-fd9e1fe64e18","geometry":{"type":"Polygon","coordinates":[[[4239.01, 2137.55],[4749.97, 2137.55],[4749.97, 2648.5],[4239.01, 2648.5],[4239.01, 2137.55]]]},"properties":{"objectType":"annotation","classification":{"name":"1","color":[186, 103, 31]}}},{"type":"Feature","id":"a483430d-eadb-40ad-acc5-c1105166f4d4","geometry":{"type":"Polygon","coordinates":[[[5694.99, 1482.67],[6205.94, 1482.67],[6205.94, 1993.62],[5694.99, 1993.62],[5694.99, 1482.67]]]},"properties":{"objectType":"annotation","classification":{"name":"1","color":[186, 103, 31]}}},{"type":"Feature","id":"07b43481-4ee1-42d5-bcc7-206fe09af212","geometry":{"type":"Polygon","coordinates":[[[6512.71, 449.78],[7023.66, 449.78],[7023.66, 960.74],[6512.71, 960.74],[6512.71, 449.78]]]},"properties":{"objectType":"annotation","classification":{"name":"1","color":[186, 103, 31]}}},{"type":"Feature","id":"6bfcc839-857a-49e6-8945-2140d66a7885","geometry":{"type":"Polygon","coordinates":[[[6254.48, 873.98],[6765.43, 873.98],[6765.43, 1384.93],[6254.48, 1384.93],[6254.48, 873.98]]]},"properties":{"objectType":"annotation","classification":{"name":"1","color":[186, 103, 31]}}},{"type":"Feature","id":"8eee55ed-55dc-4a0b-8dfe-b014f39bfb29","geometry":{"type":"Polygon","coordinates":[[[5817.68, 591.99],[6328.64, 591.99],[6328.64, 1102.94],[5817.68, 1102.94],[5817.68, 591.99]]]},"properties":{"objectType":"annotation","classification":{"name":"1","color":[186, 103, 31]}}},{"type":"Feature","id":"0c306d73-b512-4e71-8a20-147b0cac0e3e","geometry":{"type":"Polygon","coordinates":[[[5489.18, 42.18],[6000.13, 42.18],[6000.13, 553.14],[5489.18, 553.14],[5489.18, 42.18]]]},"properties":{"objectType":"annotation","classification":{"name":"1","color":[186, 103, 31]}}},{"type":"Feature","id":"2c8a0e1e-f503-43de-8609-dd4417d6b785","geometry":{"type":"Polygon","coordinates":[[[4910.74, 2.32],[5421.7, 2.32],[5421.7, 513.28],[4910.74, 513.28],[4910.74, 2.32]]]},"properties":{"objectType":"annotation","classification":{"name":"1","color":[186, 103, 31]}}},{"type":"Feature","id":"3d7e0f02-a64d-44aa-bf61-2095fd3613fc","geometry":{"type":"Polygon","coordinates":[[[5261.02, 653.6],[5771.97, 653.6],[5771.97, 1148.02],[5261.02, 1148.02],[5261.02, 653.6]]]},"properties":{"objectType":"annotation","classification":{"name":"1","color":[186, 103, 31]}}},{"type":"Feature","id":"7ec215ab-9ab1-4748-8e1c-a2acbf598420","geometry":{"type":"Polygon","coordinates":[[[5020.06, 508.57],[5531.01, 508.57],[5531.01, 980.45],[5020.06, 980.45],[5020.06, 508.57]]]},"properties":{"objectType":"annotation","classification":{"name":"1","color":[186, 103, 31]}}},{"type":"Feature","id":"e968f806-8d1e-49c4-bf72-4590ef2d08f8","geometry":{"type":"Polygon","coordinates":[[[4577.98, 1870.74],[5088.94, 1870.74],[5088.94, 2381.7],[4577.98, 2381.7],[4577.98, 1870.74]]]},"properties":{"objectType":"annotation","classification":{"name":"1","color":[186, 103, 31]}}},{"type":"Feature","id":"5ed27478-cd24-4285-a029-3004a6159b11","geometry":{"type":"Polygon","coordinates":[[[3489.96, 1736.76],[4000.91, 1736.76],[4000.91, 2247.72],[3489.96, 2247.72],[3489.96, 1736.76]]]},"properties":{"objectType":"annotation","classification":{"name":"1","color":[186, 103, 31]}}},{"type":"Feature","id":"ad61a0ab-5618-4175-8d70-2fff67b6cb82","geometry":{"type":"Polygon","coordinates":[[[4917.26, 2777.41],[5428.21, 2777.41],[5428.21, 3288.36],[4917.26, 3288.36],[4917.26, 2777.41]]]},"properties":{"objectType":"annotation","classification":{"name":"1","color":[186, 103, 31]}}},{"type":"Feature","id":"c6a2cf7f-d95a-4c75-a626-f442a71580d4","geometry":{"type":"Polygon","coordinates":[[[4742.99, 3564.26],[5253.94, 3564.26],[5253.94, 4075.22],[4742.99, 4075.22],[4742.99, 3564.26]]]},"properties":{"objectType":"annotation","classification":{"name":"1","color":[186, 103, 31]}}},{"type":"Feature","id":"c46ff7c0-51a2-41ff-84db-54351082b28c","geometry":{"type":"Polygon","coordinates":[[[2508.92, 3730.92],[3019.87, 3730.92],[3019.87, 4241.87],[2508.92, 4241.87],[2508.92, 3730.92]]]},"properties":{"objectType":"annotation","classification":{"name":"1","color":[186, 103, 31]}}},{"type":"Feature","id":"013840bd-5119-44ff-91c3-4802dc36dd3a","geometry":{"type":"Polygon","coordinates":[[[2624.26, 3339.1],[3135.22, 3339.1],[3135.22, 3850.05],[2624.26, 3850.05],[2624.26, 3339.1]]]},"properties":{"objectType":"annotation","classification":{"name":"1","color":[186, 103, 31]}}},{"type":"Feature","id":"44ef75c3-f156-4cc1-98e2-1ff62e24620b","geometry":{"type":"Polygon","coordinates":[[[5853.44, 3154.06],[6364.39, 3154.06],[6364.39, 3659],[5853.44, 3659],[5853.44, 3154.06]]]},"properties":{"objectType":"annotation","classification":{"name":"1","color":[186, 103, 31]}}},{"type":"Feature","id":"e98b2c77-c180-4320-9ba6-2b2f67032d26","geometry":{"type":"Polygon","coordinates":[[[6003.19, 1280.24],[6514.15, 1280.24],[6514.15, 1791.19],[6003.19, 1791.19],[6003.19, 1280.24]]]},"properties":{"objectType":"annotation","classification":{"name":"1","color":[186, 103, 31]}}},{"type":"Feature","id":"fe0b7776-c621-48ff-bdbf-3f8d4f127e8d","geometry":{"type":"Polygon","coordinates":[[[4054.6, 3140.89],[4565.55, 3140.89],[4565.55, 3651.84],[4054.6, 3651.84],[4054.6, 3140.89]]]},"properties":{"objectType":"annotation","classification":{"name":"1","color":[186, 103, 31]}}}]}