{"type":"FeatureCollection","features":[{"type":"Feature","id":"e562ef91-cfa7-43bf-9548-c362b37663bc","geometry":{"type":"Polygon","coordinates":[[[5197.43, 3021],[5709.97, 3021],[5709.97, 3533.54],[5197.43, 3533.54],[5197.43, 3021]]]},"properties":{"objectType":"annotation","classification":{"name":"Dense Coconut Farms","color":[196, 92, 238]}}},{"type":"Feature","id":"55dfa30c-db5e-479e-a35a-17bdda7e0e4e","geometry":{"type":"Polygon","coordinates":[[[5688.36, 3095.84],[6200.9, 3095.84],[6200.9, 3608.37],[5688.36, 3608.37],[5688.36, 3095.84]]]},"properties":{"objectType":"annotation","classification":{"name":"Dense Coconut Farms","color":[196, 92, 238]}}},{"type":"Feature","id":"e75f25fe-d88e-48e5-a529-d8d0c9a176f8","geometry":{"type":"Polygon","coordinates":[[[6221.2, 3218.57],[6733.73, 3218.57],[6733.73, 3731.11],[6221.2, 3731.11],[6221.2, 3218.57]]]},"properties":{"objectType":"annotation","classification":{"name":"Dense Coconut Farms","color":[196, 92, 238]}}},{"type":"Feature","id":"365dc554-4bd1-4d31-9970-25d45eb0cb7a","geometry":{"type":"Polygon","coordinates":[[[6748.05, 3673.58],[7260.58, 3673.58],[7260.58, 4186.11],[6748.05, 4186.11],[6748.05, 3673.58]]]},"properties":{"objectType":"annotation","classification":{"name":"Dense Coconut Farms","color":[196, 92, 238]}}},{"type":"Feature","id":"f092485e-4fc9-4dd4-9e6b-ceac031e504d","geometry":{"type":"Polygon","coordinates":[[[3.03, 753.42],[515.56, 753.42],[515.56, 1265.95],[3.03, 1265.95],[3.03, 753.42]]]},"properties":{"objectType":"annotation","classification":{"name":"Dense Coconut Farms","color":[196, 92, 238]}}},{"type":"Feature","id":"253d4bdc-7f45-48e6-b8d2-0a1c06919c53","geometry":{"type":"Polygon","coordinates":[[[3.02, 1275.86],[515.56, 1275.86],[515.56, 1788.39],[3.02, 1788.39],[3.02, 1275.86]]]},"properties":{"objectType":"annotation","classification":{"name":"Dense Coconut Farms","color":[196, 92, 238]}}},{"type":"Feature","id":"4d04b774-452a-413a-88f2-06db620cac98","geometry":{"type":"Polygon","coordinates":[[[509.95, 836.18],[1022.48, 836.18],[1022.48, 1348.71],[509.95, 1348.71],[509.95, 836.18]]]},"properties":{"objectType":"annotation","classification":{"name":"Dense Coconut Farms","color":[196, 92, 238]}}},{"type":"Feature","id":"9ceafd6c-26e9-4d76-9fdd-b4508c1ab047","geometry":{"type":"Polygon","coordinates":[[[1032.39, 2563.86],[1544.93, 2563.86],[1544.93, 3076.4],[1032.39, 3076.4],[1032.39, 2563.86]]]},"properties":{"objectType":"annotation","classification":{"name":"Dense Coconut Farms","color":[196, 92, 238]}}},{"type":"Feature","id":"cb6cf3f6-afd2-47a1-980e-e4d4fa7a7325","geometry":{"type":"Polygon","coordinates":[[[1699.67, 2615.59],[2212.2, 2615.59],[2212.2, 3128.13],[1699.67, 3128.13],[1699.67, 2615.59]]]},"properties":{"objectType":"annotation","classification":{"name":"Dense Coconut Farms","color":[196, 92, 238]}}},{"type":"Feature","id":"c9b05177-67a1-478f-8c0e-01749a39a65e","geometry":{"type":"Polygon","coordinates":[[[2408.33, 2517.31],[2920.86, 2517.31],[2920.86, 3029.84],[2408.33, 3029.84],[2408.33, 2517.31]]]},"properties":{"objectType":"annotation","classification":{"name":"Dense Coconut Farms","color":[196, 92, 238]}}},{"type":"Feature","id":"b7273f5c-b9d0-4973-93ac-45ab1c426a6c","geometry":{"type":"Polygon","coordinates":[[[2211.77, 3039.75],[2724.3, 3039.75],[2724.3, 3552.29],[2211.77, 3552.29],[2211.77, 3039.75]]]},"properties":{"objectType":"annotation","classification":{"name":"Dense Coconut Farms","color":[196, 92, 238]}}},{"type":"Feature","id":"c00982c7-8867-41f4-926a-b3ed01d188a2","geometry":{"type":"Polygon","coordinates":[[[1735.88, 3117.34],[2248.41, 3117.34],[2248.41, 3629.88],[1735.88, 3629.88],[1735.88, 3117.34]]]},"properties":{"objectType":"annotation","classification":{"name":"Dense Coconut Farms","color":[196, 92, 238]}}},{"type":"Feature","id":"b2c2589a-03f1-410f-a712-3dcd1cf6da80","geometry":{"type":"Polygon","coordinates":[[[1772.09, 3582.88],[2284.62, 3582.88],[2284.62, 4095.42],[1772.09, 4095.42],[1772.09, 3582.88]]]},"properties":{"objectType":"annotation","classification":{"name":"Dense Coconut Farms","color":[196, 92, 238]}}},{"type":"Feature","id":"9a08b433-fe1a-4149-8589-960853faacdf","geometry":{"type":"Polygon","coordinates":[[[3921.34, 0],[4433.87, 0],[4433.87, 504.7],[3921.34, 504.7],[3921.34, 0]]]},"properties":{"objectType":"annotation","classification":{"name":"Dense Coconut Farms","color":[196, 92, 238]}}},{"type":"Feature","id":"b77b64be-1e55-4ce3-8ab5-c45ff00c1357","geometry":{"type":"Polygon","coordinates":[[[4438.61, 5.1],[4951.14, 5.1],[4951.14, 517.63],[4438.61, 517.63],[4438.61, 5.1]]]},"properties":{"objectType":"annotation","classification":{"name":"Dense Coconut Farms","color":[196, 92, 238]}}},{"type":"Feature","id":"0706b745-471a-4d40-947c-ecb4a66f9b2e","geometry":{"type":"Polygon","coordinates":[[[4955.88, 5.1],[5468.41, 5.1],[5468.41, 517.63],[4955.88, 517.63],[4955.88, 5.1]]]},"properties":{"objectType":"annotation","classification":{"name":"Dense Coconut Farms","color":[196, 92, 238]}}},{"type":"Feature","id":"ae647a9c-bc58-4ec2-8295-4b978ffe557c","geometry":{"type":"Polygon","coordinates":[[[5477.46, 5.1],[5989.99, 5.1],[5989.99, 517.63],[5477.46, 517.63],[5477.46, 5.1]]]},"properties":{"objectType":"annotation","classification":{"name":"Dense Coconut Farms","color":[196, 92, 238]}}},{"type":"Feature","id":"b7d667d6-638d-4106-a810-49a1babdb00f","geometry":{"type":"Polygon","coordinates":[[[5990.42, 9.41],[6502.95, 9.41],[6502.95, 521.94],[5990.42, 521.94],[5990.42, 9.41]]]},"properties":{"objectType":"annotation","classification":{"name":"Dense Coconut Farms","color":[196, 92, 238]}}},{"type":"Feature","id":"7595aee7-95b5-4bf1-bdee-e02ab3fcb16d","geometry":{"type":"Polygon","coordinates":[[[4554.99, 880.15],[5067.52, 880.15],[5067.52, 1392.68],[4554.99, 1392.68],[4554.99, 880.15]]]},"properties":{"objectType":"annotation","classification":{"name":"Dense Coconut Farms","color":[196, 92, 238]}}},{"type":"Feature","id":"b73083a7-0eec-4a22-9ab6-682433ce3022","geometry":{"type":"Polygon","coordinates":[[[5119.68, 526.68],[5632.21, 526.68],[5632.21, 1039.21],[5119.68, 1039.21],[5119.68, 526.68]]]},"properties":{"objectType":"annotation","classification":{"name":"Dense Coconut Farms","color":[196, 92, 238]}}},{"type":"Feature","id":"3b28e13a-8421-43f6-a65f-308b369192b9","geometry":{"type":"Polygon","coordinates":[[[6128.36, 530.99],[6640.89, 530.99],[6640.89, 1043.52],[6128.36, 1043.52],[6128.36, 530.99]]]},"properties":{"objectType":"annotation","classification":{"name":"Dense Coconut Farms","color":[196, 92, 238]}}},{"type":"Feature","id":"f2196b56-3915-41ea-8e4b-b4a4f0d9f87a","geometry":{"type":"Polygon","coordinates":[[[6253.36, 1048.26],[6765.9, 1048.26],[6765.9, 1560.8],[6253.36, 1560.8],[6253.36, 1048.26]]]},"properties":{"objectType":"annotation","classification":{"name":"Dense Coconut Farms","color":[196, 92, 238]}}},{"type":"Feature","id":"2c75fb64-5ea9-43ae-be32-b38206ac2bc7","geometry":{"type":"Polygon","coordinates":[[[7671.55, 1582.77],[8184.08, 1582.77],[8184.08, 2095.31],[7671.55, 2095.31],[7671.55, 1582.77]]]},"properties":{"objectType":"annotation","classification":{"name":"Dense Coconut Farms","color":[196, 92, 238]}}},{"type":"Feature","id":"9275fb5f-3e09-4078-942b-985575fafae8","geometry":{"type":"Polygon","coordinates":[[[7667.24, 2104.35],[8179.77, 2104.35],[8179.77, 2616.89],[7667.24, 2616.89],[7667.24, 2104.35]]]},"properties":{"objectType":"annotation","classification":{"name":"Dense Coconut Farms","color":[196, 92, 238]}}},{"type":"Feature","id":"944c182b-4021-40b6-a3ab-7089105a2a30","geometry":{"type":"Polygon","coordinates":[[[7145.66, 2112.98],[7658.19, 2112.98],[7658.19, 2625.51],[7145.66, 2625.51],[7145.66, 2112.98]]]},"properties":{"objectType":"annotation","classification":{"name":"Dense Coconut Farms","color":[196, 92, 238]}}},{"type":"Feature","id":"777d9ea6-64c1-4709-86a7-21ac9f8f2973","geometry":{"type":"Polygon","coordinates":[[[6628.38, 2242.29],[7140.92, 2242.29],[7140.92, 2754.83],[6628.38, 2754.83],[6628.38, 2242.29]]]},"properties":{"objectType":"annotation","classification":{"name":"Dense Coconut Farms","color":[196, 92, 238]}}},{"type":"Feature","id":"2076b8a5-ccb9-4b69-8fe5-77d6958a9c14","geometry":{"type":"Polygon","coordinates":[[[7137.03, 2630.25],[7649.57, 2630.25],[7649.57, 3142.78],[7137.03, 3142.78],[7137.03, 2630.25]]]},"properties":{"objectType":"annotation","classification":{"name":"Dense Coconut Farms","color":[196, 92, 238]}}},{"type":"Feature","id":"dfae9a93-110e-4f64-bf43-17a92e778430","geometry":{"type":"Polygon","coordinates":[[[7124.1, 3143.2],[7636.64, 3143.2],[7636.64, 3655.74],[7124.1, 3655.74],[7124.1, 3143.2]]]},"properties":{"objectType":"annotation","classification":{"name":"Dense Coconut Farms","color":[196, 92, 238]}}},{"type":"Feature","id":"c61e3f58-547f-45e1-8367-a59399195210","geometry":{"type":"Polygon","coordinates":[[[7137.03, 3656.17],[7649.57, 3656.17],[7649.57, 4168.7],[7137.03, 4168.7],[7137.03, 3656.17]]]},"properties":{"objectType":"annotation","classification":{"name":"Dense Coconut Farms","color":[196, 92, 238]}}},{"type":"Feature","id":"70097f6d-9d50-4951-ad77-f938c2e667b0","geometry":{"type":"Polygon","coordinates":[[[6624.07, 2750.94],[7136.61, 2750.94],[7136.61, 3263.48],[6624.07, 3263.48],[6624.07, 2750.94]]]},"properties":{"objectType":"annotation","classification":{"name":"Dense Coconut Farms","color":[196, 92, 238]}}},{"type":"Feature","id":"6a6f7c60-0c5e-41fa-85c1-db82f34876f1","geometry":{"type":"Polygon","coordinates":[[[6093.87, 2759.56],[6606.4, 2759.56],[6606.4, 3272.1],[6093.87, 3272.1],[6093.87, 2759.56]]]},"properties":{"objectType":"annotation","classification":{"name":"Dense Coconut Farms","color":[196, 92, 238]}}},{"type":"Feature","id":"c6ac8bac-8024-40c2-b465-5ad186f5e349","geometry":{"type":"Polygon","coordinates":[[[6102.49, 2225.05],[6615.03, 2225.05],[6615.03, 2737.59],[6102.49, 2737.59],[6102.49, 2225.05]]]},"properties":{"objectType":"annotation","classification":{"name":"Dense Coconut Farms","color":[196, 92, 238]}}},{"type":"Feature","id":"31138d27-2b68-4ff9-9cac-4c0b812153fc","geometry":{"type":"Polygon","coordinates":[[[5507.63, 1561.22],[6020.16, 1561.22],[6020.16, 2073.76],[5507.63, 2073.76],[5507.63, 1561.22]]]},"properties":{"objectType":"annotation","classification":{"name":"Dense Coconut Farms","color":[196, 92, 238]}}},{"type":"Feature","id":"209e1df1-e069-413c-8648-ea0c61c5941e","geometry":{"type":"Polygon","coordinates":[[[5499.01, 2078.49],[6011.54, 2078.49],[6011.54, 2591.03],[5499.01, 2591.03],[5499.01, 2078.49]]]},"properties":{"objectType":"annotation","classification":{"name":"Dense Coconut Farms","color":[196, 92, 238]}}},{"type":"Feature","id":"af4ab211-bbd1-4786-a112-763bb8ff5803","geometry":{"type":"Polygon","coordinates":[[[5580.91, 2591.45],[6093.44, 2591.45],[6093.44, 3103.99],[5580.91, 3103.99],[5580.91, 2591.45]]]},"properties":{"objectType":"annotation","classification":{"name":"Dense Coconut Farms","color":[196, 92, 238]}}},{"type":"Feature","id":"18e61892-ddd2-4c0a-8af9-66fb291eba0c","geometry":{"type":"Polygon","coordinates":[[[5001.24, 1554.2],[5513.77, 1554.2],[5513.77, 2066.74],[5001.24, 2066.74],[5001.24, 1554.2]]]},"properties":{"objectType":"annotation","classification":{"name":"Dense Coconut Farms","color":[196, 92, 238]}}},{"type":"Feature","id":"45037cb7-6084-424a-90c4-4fd28145031d","geometry":{"type":"Polygon","coordinates":[[[4986.27, 2072.07],[5498.8, 2072.07],[5498.8, 2584.61],[4986.27, 2584.61],[4986.27, 2072.07]]]},"properties":{"objectType":"annotation","classification":{"name":"Dense Coconut Farms","color":[196, 92, 238]}}},{"type":"Feature","id":"bbd8ae14-d744-4bea-bd72-3686cbf68bba","geometry":{"type":"Polygon","coordinates":[[[5070.09, 2589.94],[5582.62, 2589.94],[5582.62, 3102.48],[5070.09, 3102.48],[5070.09, 2589.94]]]},"properties":{"objectType":"annotation","classification":{"name":"Dense Coconut Farms","color":[196, 92, 238]}}},{"type":"Feature","id":"dc16223f-a17e-46c4-9509-34be13bd1398","geometry":{"type":"Polygon","coordinates":[[[4462.42, 2072.07],[4974.95, 2072.07],[4974.95, 2584.61],[4462.42, 2584.61],[4462.42, 2072.07]]]},"properties":{"objectType":"annotation","classification":{"name":"Dense Coconut Farms","color":[196, 92, 238]}}},{"type":"Feature","id":"e852af22-5c41-4df9-b694-cb0aade23da9","geometry":{"type":"Polygon","coordinates":[[[4477.38, 1560.19],[4989.91, 1560.19],[4989.91, 2072.73],[4477.38, 2072.73],[4477.38, 1560.19]]]},"properties":{"objectType":"annotation","classification":{"name":"Dense Coconut Farms","color":[196, 92, 238]}}},{"type":"Feature","id":"38d5e3ff-b2fd-4e6d-9967-d40862e1090d","geometry":{"type":"Polygon","coordinates":[[[3956.52, 1461.41],[4469.05, 1461.41],[4469.05, 1973.94],[3956.52, 1973.94],[3956.52, 1461.41]]]},"properties":{"objectType":"annotation","classification":{"name":"Dense Coconut Farms","color":[196, 92, 238]}}},{"type":"Feature","id":"5a824c3e-dfc1-4e59-a8dc-81750ac64bcd","geometry":{"type":"Polygon","coordinates":[[[3950.53, 1982.27],[4463.07, 1982.27],[4463.07, 2494.81],[3950.53, 2494.81],[3950.53, 1982.27]]]},"properties":{"objectType":"annotation","classification":{"name":"Dense Coconut Farms","color":[196, 92, 238]}}},{"type":"Feature","id":"c3c7e171-079e-4dcf-b8ac-034c228d18ad","geometry":{"type":"Polygon","coordinates":[[[3456.61, 2392.37],[3969.14, 2392.37],[3969.14, 2904.91],[3456.61, 2904.91],[3456.61, 2392.37]]]},"properties":{"objectType":"annotation","classification":{"name":"Dense Coconut Farms","color":[196, 92, 238]}}},{"type":"Feature","id":"457332d7-3830-448a-bcbc-698c748afb81","geometry":{"type":"Polygon","coordinates":[[[3453.62, 1880.49],[3966.15, 1880.49],[3966.15, 2393.03],[3453.62, 2393.03],[3453.62, 1880.49]]]},"properties":{"objectType":"annotation","classification":{"name":"Dense Coconut Farms","color":[196, 92, 238]}}},{"type":"Feature","id":"c8efe827-385e-4019-b617-7ef2a5c66a97","geometry":{"type":"Polygon","coordinates":[[[3447.63, 1374.6],[3960.16, 1374.6],[3960.16, 1887.13],[3447.63, 1887.13],[3447.63, 1374.6]]]},"properties":{"objectType":"annotation","classification":{"name":"Dense Coconut Farms","color":[196, 92, 238]}}},{"type":"Feature","id":"79debe60-fefb-4125-a87d-c7d458721657","geometry":{"type":"Polygon","coordinates":[[[657.81, 1543.75],[1170.35, 1543.75],[1170.35, 2056.29],[657.81, 2056.29],[657.81, 1543.75]]]},"properties":{"objectType":"annotation","classification":{"name":"Traditional Coconut Farms","color":[165, 69, 116]}}},{"type":"Feature","id":"2e6cf5fb-2114-4365-874a-99e0e0e15be2","geometry":{"type":"Polygon","coordinates":[[[591.65, 1739.66],[1104.18, 1739.66],[1104.18, 2252.2],[591.65, 2252.2],[591.65, 1739.66]]]},"properties":{"objectType":"annotation","classification":{"name":"Traditional Coconut Farms","color":[165, 69, 116]}}},{"type":"Feature","id":"754bc0d5-9554-4282-a6ad-84e23c9d2289","geometry":{"type":"Polygon","coordinates":[[[2821.81, 222.16],[3334.35, 222.16],[3334.35, 734.7],[2821.81, 734.7],[2821.81, 222.16]]]},"properties":{"objectType":"annotation","classification":{"name":"Dense Coconut Farms","color":[196, 92, 238]}}},{"type":"Feature","id":"b868ff9d-ad3a-4bc3-95e9-366344f94797","geometry":{"type":"Polygon","coordinates":[[[6163.69, 15.1],[6676.22, 15.1],[6676.22, 527.63],[6163.69, 527.63],[6163.69, 15.1]]]},"properties":{"objectType":"annotation","classification":{"name":"Dense Coconut Farms","color":[196, 92, 238]}}},{"type":"Feature","id":"146ac8e9-f294-4010-b4be-f5baf541c65d","geometry":{"type":"Polygon","coordinates":[[[4893.08, 737.66],[5405.61, 737.66],[5405.61, 1250.2],[4893.08, 1250.2],[4893.08, 737.66]]]},"properties":{"objectType":"annotation","classification":{"name":"Dense Coconut Farms","color":[196, 92, 238]}}},{"type":"Feature","id":"145272a1-f6d4-46a7-8594-c7e8f409c00b","geometry":{"type":"Polygon","coordinates":[[[5897.02, 1157.57],[6409.56, 1157.57],[6409.56, 1670.11],[5897.02, 1670.11],[5897.02, 1157.57]]]},"properties":{"objectType":"annotation","classification":{"name":"Dense Coconut Farms","color":[196, 92, 238]}}},{"type":"Feature","id":"51221bed-95e2-4c4a-9cd3-d33edd26a81b","geometry":{"type":"Polygon","coordinates":[[[7043.02, 911.51],[7555.56, 911.51],[7555.56, 1424.05],[7043.02, 1424.05],[7043.02, 911.51]]]},"properties":{"objectType":"annotation","classification":{"name":"Traditional Coconut Farms","color":[165, 69, 116]}}},{"type":"Feature","id":"e6bc7085-f858-416f-ae97-09480d4fa5ad","geometry":{"type":"Polygon","coordinates":[[[7678.67, 1319.67],[8191.21, 1319.67],[8191.21, 1832.2],[7678.67, 1832.2],[7678.67, 1319.67]]]},"properties":{"objectType":"annotation","classification":{"name":"Dense Coconut Farms","color":[196, 92, 238]}}},{"type":"Feature","id":"9f0ebbfa-7b72-4c7e-8e09-ef8c9f52d8cd","geometry":{"type":"Polygon","coordinates":[[[7621.93, 3738.79],[8134.46, 3738.79],[8134.46, 4251.32],[7621.93, 4251.32],[7621.93, 3738.79]]]},"properties":{"objectType":"annotation","classification":{"name":"Dense Coconut Farms","color":[196, 92, 238]}}},{"type":"Feature","id":"4621d27b-4450-491a-854b-a457ae484690","geometry":{"type":"Polygon","coordinates":[[[4714.22, 2411.95],[5226.75, 2411.95],[5226.75, 2924.48],[4714.22, 2924.48],[4714.22, 2411.95]]]},"properties":{"objectType":"annotation","classification":{"name":"Dense Coconut Farms","color":[196, 92, 238]}}},{"type":"Feature","id":"037f26a3-1a46-4b50-a809-cf6959460cdd","geometry":{"type":"Polygon","coordinates":[[[3.02, 2386.67],[515.56, 2386.67],[515.56, 2899.21],[3.02, 2899.21],[3.02, 2386.67]]]},"properties":{"objectType":"annotation","classification":{"name":"Dense Coconut Farms","color":[196, 92, 238]}}},{"type":"Feature","id":"b69f4ad8-c8a9-47b3-b3fc-39bf6255e6ad","geometry":{"type":"Polygon","coordinates":[[[5167.8, 3754.4],[5680.33, 3754.4],[5680.33, 4266.94],[5167.8, 4266.94],[5167.8, 3754.4]]]},"properties":{"objectType":"annotation","classification":{"name":"Dense Coconut Farms","color":[196, 92, 238]}}},{"type":"Feature","id":"58fa3d96-1009-493a-9724-7d9419c62107","geometry":{"type":"Polygon","coordinates":[[[1417.42, 1628.81],[1929.95, 1628.81],[1929.95, 2141.35],[1417.42, 2141.35],[1417.42, 1628.81]]]},"properties":{"objectType":"annotation","color":[165, 69, 116],"classification":{"name":"Dense Coconut Farms","color":[196, 92, 238]}}}]}