{"type":"FeatureCollection","features":[{"type":"Feature","id":"9c9f1291-2613-43ca-a64f-423265fad083","geometry":{"type":"Polygon","coordinates":[[[4851.69, 2911.17],[5364.22, 2911.17],[5364.22, 3418.45],[4851.69, 3418.45],[4851.69, 2911.17]]]},"properties":{"objectType":"annotation","classification":{"name":"Dense Coconut Farms","color":[196, 92, 238]}}},{"type":"Feature","id":"e3180d5f-d44e-48a9-a6a9-41fb391a006f","geometry":{"type":"Polygon","coordinates":[[[646.06, 532.69],[1158.59, 532.69],[1158.59, 1045.22],[646.06, 1045.22],[646.06, 532.69]]]},"properties":{"objectType":"annotation","classification":{"name":"Dense Coconut Farms","color":[196, 92, 238]}}},{"type":"Feature","id":"379f544d-4ef5-44af-98a7-2836f0a88e59","geometry":{"type":"Polygon","coordinates":[[[2194.28, 529.09],[2706.81, 529.09],[2706.81, 1041.63],[2194.28, 1041.63],[2194.28, 529.09]]]},"properties":{"objectType":"annotation","classification":{"name":"Dense Coconut Farms","color":[196, 92, 238]}}},{"type":"Feature","id":"1faaefd5-da1f-442d-8508-07b6d3a43d34","geometry":{"type":"Polygon","coordinates":[[[3.06, 8.23],[515.59, 8.23],[515.59, 520.77],[3.06, 520.77],[3.06, 8.23]]]},"properties":{"objectType":"annotation","classification":{"name":"Dense Coconut Farms","color":[196, 92, 238]}}},{"type":"Feature","id":"3b4f60ab-423e-4190-b504-9c6beeb503f5","geometry":{"type":"Polygon","coordinates":[[[516.74, 4.64],[1029.27, 4.64],[1029.27, 517.17],[516.74, 517.17],[516.74, 4.64]]]},"properties":{"objectType":"annotation","classification":{"name":"Dense Coconut Farms","color":[196, 92, 238]}}},{"type":"Feature","id":"3b31dffe-0fa9-4369-aba8-27eb0663c72e","geometry":{"type":"Polygon","coordinates":[[[10.25, 2091.68],[522.78, 2091.68],[522.78, 2604.22],[10.25, 2604.22],[10.25, 2091.68]]]},"properties":{"objectType":"annotation","classification":{"name":"Dense Coconut Farms","color":[196, 92, 238]}}},{"type":"Feature","id":"86216e0f-8c12-43c9-9910-3e3db0494a13","geometry":{"type":"Polygon","coordinates":[[[6.65, 2608.95],[519.19, 2608.95],[519.19, 3121.49],[6.65, 3121.49],[6.65, 2608.95]]]},"properties":{"objectType":"annotation","classification":{"name":"Dense Coconut Farms","color":[196, 92, 238]}}},{"type":"Feature","id":"80588800-c44a-45e0-8c81-c3331df40e2c","geometry":{"type":"Polygon","coordinates":[[[6515.81, 1025.73],[7028.34, 1025.73],[7028.34, 1538.27],[6515.81, 1538.27],[6515.81, 1025.73]]]},"properties":{"objectType":"annotation","classification":{"name":"Dense Coconut Farms","color":[196, 92, 238]}}},{"type":"Feature","id":"9a682e71-f3f7-4b84-9b5a-e817d4487795","geometry":{"type":"Polygon","coordinates":[[[7021.7, 1031.72],[7534.23, 1031.72],[7534.23, 1544.26],[7021.7, 1544.26],[7021.7, 1031.72]]]},"properties":{"objectType":"annotation","classification":{"name":"Dense Coconut Farms","color":[196, 92, 238]}}},{"type":"Feature","id":"4206c11e-135e-4652-aa95-54de3c7c1f18","geometry":{"type":"Polygon","coordinates":[[[7412.06, 1027.9],[7924.59, 1027.9],[7924.59, 1540.44],[7412.06, 1540.44],[7412.06, 1027.9]]]},"properties":{"objectType":"annotation","classification":{"name":"Dense Coconut Farms","color":[196, 92, 238]}}},{"type":"Feature","id":"95663763-d6bc-4d0c-8882-45efeb9d804a","geometry":{"type":"Polygon","coordinates":[[[2699.43, 1059.09],[3211.96, 1059.09],[3211.96, 1571.62],[2699.43, 1571.62],[2699.43, 1059.09]]]},"properties":{"objectType":"annotation","classification":{"name":"Dense Coconut Farms","color":[196, 92, 238]}}},{"type":"Feature","id":"8c3ebb33-c3e7-4dca-abbc-9485dbfa9c73","geometry":{"type":"Polygon","coordinates":[[[1628.27, 3775.72],[2140.8, 3775.72],[2140.8, 4283],[1628.27, 4283],[1628.27, 3775.72]]]},"properties":{"objectType":"annotation","classification":{"name":"Dense Coconut Farms","color":[196, 92, 238]}}},{"type":"Feature","id":"5f109dcd-1449-4d50-b29a-e365de10b588","geometry":{"type":"Polygon","coordinates":[[[1123.12, 3773.64],[1635.66, 3773.64],[1635.66, 4283],[1123.12, 4283],[1123.12, 3773.64]]]},"properties":{"objectType":"annotation","classification":{"name":"Dense Coconut Farms","color":[196, 92, 238]}}},{"type":"Feature","id":"69aeaa05-db3e-4201-b9c2-79cd05a76058","geometry":{"type":"Polygon","coordinates":[[[1410, 3256.02],[1922.53, 3256.02],[1922.53, 3768.56],[1410, 3768.56],[1410, 3256.02]]]},"properties":{"objectType":"annotation","classification":{"name":"Dense Coconut Farms","color":[196, 92, 238]}}},{"type":"Feature","id":"9626fd80-de97-48b4-a463-dbc7aed0bbbf","geometry":{"type":"Polygon","coordinates":[[[1921.38, 3262.26],[2433.91, 3262.26],[2433.91, 3774.8],[1921.38, 3774.8],[1921.38, 3262.26]]]},"properties":{"objectType":"annotation","classification":{"name":"Dense Coconut Farms","color":[196, 92, 238]}}},{"type":"Feature","id":"fa843fba-54d6-40ae-8acb-85af188d952b","geometry":{"type":"Polygon","coordinates":[[[1684.4, 2815.32],[2196.93, 2815.32],[2196.93, 3327.86],[1684.4, 3327.86],[1684.4, 2815.32]]]},"properties":{"objectType":"annotation","classification":{"name":"Dense Coconut Farms","color":[196, 92, 238]}}},{"type":"Feature","id":"3a3593e9-d1a8-4c12-b82c-34afddeca002","geometry":{"type":"Polygon","coordinates":[[[1917.22, 2784.14],[2429.76, 2784.14],[2429.76, 3296.67],[1917.22, 3296.67],[1917.22, 2784.14]]]},"properties":{"objectType":"annotation","classification":{"name":"Dense Coconut Farms","color":[196, 92, 238]}}},{"type":"Feature","id":"a9b482f4-ac07-4151-884d-5ac322f17059","geometry":{"type":"Polygon","coordinates":[[[5638.97, 2408.27],[6151.5, 2408.27],[6151.5, 2915.54],[5638.97, 2915.54],[5638.97, 2408.27]]]},"properties":{"objectType":"annotation","classification":{"name":"Dense Coconut Farms","color":[196, 92, 238]}}},{"type":"Feature","id":"2ff682fc-f152-4564-8158-654b0403aaff","geometry":{"type":"Polygon","coordinates":[[[5641.96, 2920.15],[6154.5, 2920.15],[6154.5, 3427.43],[5641.96, 3427.43],[5641.96, 2920.15]]]},"properties":{"objectType":"annotation","classification":{"name":"Dense Coconut Farms","color":[196, 92, 238]}}},{"type":"Feature","id":"95be461c-dea5-49d0-8608-5e0a9ff4ee0a","geometry":{"type":"Polygon","coordinates":[[[5130.08, 2408.27],[5642.61, 2408.27],[5642.61, 2915.54],[5130.08, 2915.54],[5130.08, 2408.27]]]},"properties":{"objectType":"annotation","classification":{"name":"Dense Coconut Farms","color":[196, 92, 238]}}},{"type":"Feature","id":"c60eda30-587d-4682-9e25-71aceb1de3bf","geometry":{"type":"Polygon","coordinates":[[[4612.21, 2393.3],[5124.74, 2393.3],[5124.74, 2900.58],[4612.21, 2900.58],[4612.21, 2393.3]]]},"properties":{"objectType":"annotation","classification":{"name":"Dense Coconut Farms","color":[196, 92, 238]}}},{"type":"Feature","id":"d5a278cb-ba99-4247-8947-f2b15f43eb76","geometry":{"type":"Polygon","coordinates":[[[5133.08, 2920.15],[5645.61, 2920.15],[5645.61, 3427.43],[5133.08, 3427.43],[5133.08, 2920.15]]]},"properties":{"objectType":"annotation","classification":{"name":"Dense Coconut Farms","color":[196, 92, 238]}}},{"type":"Feature","id":"43ef9e10-0cad-43f2-ac74-4e68e680aa63","geometry":{"type":"Polygon","coordinates":[[[3980.59, 3776.28],[4493.12, 3776.28],[4493.12, 4283],[3980.59, 4283],[3980.59, 3776.28]]]},"properties":{"objectType":"annotation","classification":{"name":"Dense Coconut Farms","color":[196, 92, 238]}}},{"type":"Feature","id":"3b951aaf-c198-4201-a9f8-28cabc3e16e2","geometry":{"type":"Polygon","coordinates":[[[3423.81, 1585.06],[3936.34, 1585.06],[3936.34, 2092.34],[3423.81, 2092.34],[3423.81, 1585.06]]]},"properties":{"objectType":"annotation","classification":{"name":"Dense Coconut Farms","color":[196, 92, 238]}}},{"type":"Feature","id":"2f74316e-728f-40f3-b684-8df5580cf833","geometry":{"type":"Polygon","coordinates":[[[3450.75, 1091.14],[3963.28, 1091.14],[3963.28, 1598.42],[3450.75, 1598.42],[3450.75, 1091.14]]]},"properties":{"objectType":"annotation","classification":{"name":"Dense Coconut Farms","color":[196, 92, 238]}}},{"type":"Feature","id":"9b2b847a-993e-41fa-9e03-6540cf45de6f","geometry":{"type":"Polygon","coordinates":[[[3444.76, 752.88],[3957.29, 752.88],[3957.29, 1260.16],[3444.76, 1260.16],[3444.76, 752.88]]]},"properties":{"objectType":"annotation","classification":{"name":"Dense Coconut Farms","color":[196, 92, 238]}}},{"type":"Feature","id":"66e9c23b-efcc-4d68-8c78-68f0f0b92aa7","geometry":{"type":"Polygon","coordinates":[[[6532.81, 1548.47],[7045.35, 1548.47],[7045.35, 2055.74],[6532.81, 2055.74],[6532.81, 1548.47]]]},"properties":{"objectType":"annotation","classification":{"name":"Dense Coconut Farms","color":[196, 92, 238]}}},{"type":"Feature","id":"06971143-87e8-47a8-8298-b44a8dfe4b1c","geometry":{"type":"Polygon","coordinates":[[[7671.68, 2283.55],[8184.21, 2283.55],[8184.21, 2790.83],[7671.68, 2790.83],[7671.68, 2283.55]]]},"properties":{"objectType":"annotation","classification":{"name":"Dense Coconut Farms","color":[196, 92, 238]}}},{"type":"Feature","id":"2853c867-9ba5-4755-8ecd-4a23306d9ec2","geometry":{"type":"Polygon","coordinates":[[[6141.98, 2288.73],[6654.51, 2288.73],[6654.51, 2796.01],[6141.98, 2796.01],[6141.98, 2288.73]]]},"properties":{"objectType":"annotation","classification":{"name":"Dense Coconut Farms","color":[196, 92, 238]}}},{"type":"Feature","id":"521e1057-d56c-409b-97ac-0933ea933c52","geometry":{"type":"Polygon","coordinates":[[[7216.13, 2868.52],[7728.67, 2868.52],[7728.67, 3375.79],[7216.13, 3375.79],[7216.13, 2868.52]]]},"properties":{"objectType":"annotation","classification":{"name":"Dense Coconut Farms","color":[196, 92, 238]}}},{"type":"Feature","id":"78189af6-1532-46df-b8bb-38a964c79bab","geometry":{"type":"Polygon","coordinates":[[[7682.03, 3388.77],[8192, 3388.77],[8192, 3896.05],[7682.03, 3896.05],[7682.03, 3388.77]]]},"properties":{"objectType":"annotation","classification":{"name":"Dense Coconut Farms","color":[196, 92, 238]}}},{"type":"Feature","id":"2bfd4324-2375-43ce-aaec-b822c276a925","geometry":{"type":"Polygon","coordinates":[[[7679.44, 3774.43],[8191.98, 3774.43],[8191.98, 4281.71],[7679.44, 4281.71],[7679.44, 3774.43]]]},"properties":{"objectType":"annotation","classification":{"name":"Dense Coconut Farms","color":[196, 92, 238]}}},{"type":"Feature","id":"faa603ff-6136-4884-8c48-43440e7e88ef","geometry":{"type":"Polygon","coordinates":[[[3486.97, 3783.34],[3999.5, 3783.34],[3999.5, 4283],[3486.97, 4283],[3486.97, 3783.34]]]},"properties":{"objectType":"annotation","classification":{"name":"Dense Coconut Farms","color":[196, 92, 238]}}},{"type":"Feature","id":"0789ea8e-799e-42fe-bf26-6e004396fa84","geometry":{"type":"Polygon","coordinates":[[[3834.24, 3267.83],[4346.77, 3267.83],[4346.77, 3775.11],[3834.24, 3775.11],[3834.24, 3267.83]]]},"properties":{"objectType":"annotation","classification":{"name":"Dense Coconut Farms","color":[196, 92, 238]}}},{"type":"Feature","id":"1d2e2bd1-101e-42c0-923e-d1bac8088cd0","geometry":{"type":"Polygon","coordinates":[[[3057.74, 3789.81],[3570.27, 3789.81],[3570.27, 4278.69],[3057.74, 4278.69],[3057.74, 3789.81]]]},"properties":{"objectType":"annotation","classification":{"name":"Dense Coconut Farms","color":[196, 92, 238]}}},{"type":"Feature","id":"6ae33a50-0440-437c-b586-834a4a661135","geometry":{"type":"Polygon","coordinates":[[[3316.57, 3272.15],[3829.11, 3272.15],[3829.11, 3779.43],[3316.57, 3779.43],[3316.57, 3272.15]]]},"properties":{"objectType":"annotation","classification":{"name":"Dense Coconut Farms","color":[196, 92, 238]}}},{"type":"Feature","id":"d9b43449-1cc0-49d9-87a1-805944914c0a","geometry":{"type":"Polygon","coordinates":[[[3687.02, 206.51],[4199.55, 206.51],[4199.55, 712.32],[3687.02, 712.32],[3687.02, 206.51]]]},"properties":{"objectType":"annotation","color":[165, 69, 116],"classification":{"name":"Organic Coconut Farms","color":[77, 226, 207]}}},{"type":"Feature","id":"2d525c04-c0bf-4799-8f2a-5b13afa2d206","geometry":{"type":"Polygon","coordinates":[[[7040.41, 622.84],[7552.94, 622.84],[7552.94, 1135.37],[7040.41, 1135.37],[7040.41, 622.84]]]},"properties":{"objectType":"annotation","classification":{"name":"Dense Coconut Farms","color":[196, 92, 238]}}},{"type":"Feature","id":"de9e7aa1-e504-4c73-b941-a3fcdec9d447","geometry":{"type":"Polygon","coordinates":[[[6891, 762.85],[7403.53, 762.85],[7403.53, 1275.39],[6891, 1275.39],[6891, 762.85]]]},"properties":{"objectType":"annotation","classification":{"name":"Dense Coconut Farms","color":[196, 92, 238]}}},{"type":"Feature","id":"e329487c-6575-4541-ac64-48d0a60e19bf","geometry":{"type":"Polygon","coordinates":[[[6424.1, 707.86],[6936.63, 707.86],[6936.63, 1220.39],[6424.1, 1220.39],[6424.1, 707.86]]]},"properties":{"objectType":"annotation","classification":{"name":"Dense Coconut Farms","color":[196, 92, 238]}}},{"type":"Feature","id":"807149be-0979-4476-a4ba-9d5cfcb8365b","geometry":{"type":"Polygon","coordinates":[[[400.33, 976.55],[912.86, 976.55],[912.86, 1489.08],[400.33, 1489.08],[400.33, 976.55]]]},"properties":{"objectType":"annotation","classification":{"name":"Dense Coconut Farms","color":[196, 92, 238]}}},{"type":"Feature","id":"b9e7c0cf-4d0c-45c1-ab01-c6652584c170","geometry":{"type":"Polygon","coordinates":[[[1108.46, 3293.65],[1620.99, 3293.65],[1620.99, 3806.19],[1108.46, 3806.19],[1108.46, 3293.65]]]},"properties":{"objectType":"annotation","classification":{"name":"Dense Coconut Farms","color":[196, 92, 238]}}},{"type":"Feature","id":"98f7e7e7-1434-4029-845e-e3ece6101496","geometry":{"type":"Polygon","coordinates":[[[7417.27, 1741.24],[7929.8, 1741.24],[7929.8, 2248.52],[7417.27, 2248.52],[7417.27, 1741.24]]]},"properties":{"objectType":"annotation","color":[165, 69, 116],"classification":{"name":"Dense Coconut Farms","color":[196, 92, 238]}}},{"type":"Feature","id":"74e1ed9a-9327-4858-b808-e6d34cfc63b7","geometry":{"type":"Polygon","coordinates":[[[1818.6, 330.5],[2331.13, 330.5],[2331.13, 843.04],[1818.6, 843.04],[1818.6, 330.5]]]},"properties":{"objectType":"annotation","classification":{"name":"Dense Coconut Farms","color":[196, 92, 238]}}},{"type":"Feature","id":"7d424391-42c9-45de-a203-929bf7d06076","geometry":{"type":"Polygon","coordinates":[[[6453.7, 2252.32],[6966.23, 2252.32],[6966.23, 2759.6],[6453.7, 2759.6],[6453.7, 2252.32]]]},"properties":{"objectType":"annotation","classification":{"name":"Dense Coconut Farms","color":[196, 92, 238]}}},{"type":"Feature","id":"acf715a3-3599-4da8-853a-f999a4d408d0","geometry":{"type":"Polygon","coordinates":[[[4697.62, 1597.63],[5210.15, 1597.63],[5210.15, 2104.9],[4697.62, 2104.9],[4697.62, 1597.63]]]},"properties":{"objectType":"annotation","classification":{"name":"Dense Coconut Farms","color":[196, 92, 238]}}},{"type":"Feature","id":"080d231a-fdc0-4595-99be-73995507e719","geometry":{"type":"Polygon","coordinates":[[[5153.11, 3372.06],[5665.65, 3372.06],[5665.65, 3879.33],[5153.11, 3879.33],[5153.11, 3372.06]]]},"properties":{"objectType":"annotation","classification":{"name":"Dense Coconut Farms","color":[196, 92, 238]}}}]}