{"type":"FeatureCollection","features":[{"type":"Feature","id":"709821b1-60f9-4ee4-989f-7e1c865235dc","geometry":{"type":"Polygon","coordinates":[[[807.54, 1658.41],[1320.07, 1658.41],[1320.07, 2165.68],[807.54, 2165.68],[807.54, 1658.41]]]},"properties":{"objectType":"annotation","classification":{"name":"Dense Coconut Farms","color":[196, 92, 238]}}},{"type":"Feature","id":"29a55e54-19a0-4a26-a122-eb2050980182","geometry":{"type":"Polygon","coordinates":[[[509.37, 1408.68],[1021.9, 1408.68],[1021.9, 1915.96],[509.37, 1915.96],[509.37, 1408.68]]]},"properties":{"objectType":"annotation","classification":{"name":"Dense Coconut Farms","color":[196, 92, 238]}}},{"type":"Feature","id":"3c6cc1ef-d94e-4c88-9e57-081b3fb287bd","geometry":{"type":"Polygon","coordinates":[[[378.91, 1915.58],[891.45, 1915.58],[891.45, 2422.86],[378.91, 2422.86],[378.91, 1915.58]]]},"properties":{"objectType":"annotation","classification":{"name":"Dense Coconut Farms","color":[196, 92, 238]}}},{"type":"Feature","id":"08768570-fad3-425f-ad37-d55dfb429020","geometry":{"type":"Polygon","coordinates":[[[528, 2243.58],[1040.53, 2243.58],[1040.53, 2750.85],[528, 2750.85],[528, 2243.58]]]},"properties":{"objectType":"annotation","classification":{"name":"Dense Coconut Farms","color":[196, 92, 238]}}},{"type":"Feature","id":"4b759139-52d7-4bac-aafd-0611bb16b43e","geometry":{"type":"Polygon","coordinates":[[[733, 2679.66],[1245.53, 2679.66],[1245.53, 3186.94],[733, 3186.94],[733, 2679.66]]]},"properties":{"objectType":"annotation","classification":{"name":"Dense Coconut Farms","color":[196, 92, 238]}}},{"type":"Feature","id":"19fa750d-0cad-4697-a759-3b8298122f78","geometry":{"type":"Polygon","coordinates":[[[1668.28, 3770.71],[2180.82, 3770.71],[2180.82, 4277.99],[1668.28, 4277.99],[1668.28, 3770.71]]]},"properties":{"objectType":"annotation","classification":{"name":"Dense Coconut Farms","color":[196, 92, 238]}}},{"type":"Feature","id":"0ec7adda-5804-4a5d-9fa6-800946fd6bd0","geometry":{"type":"Polygon","coordinates":[[[1525.32, 6.87],[2037.85, 6.87],[2037.85, 514.15],[1525.32, 514.15],[1525.32, 6.87]]]},"properties":{"objectType":"annotation","classification":{"name":"Dense Coconut Farms","color":[196, 92, 238]}}},{"type":"Feature","id":"703612b1-495c-46b7-ba6a-6b76129af4f4","geometry":{"type":"Polygon","coordinates":[[[2659.01, 2062.01],[3171.54, 2062.01],[3171.54, 2569.29],[2659.01, 2569.29],[2659.01, 2062.01]]]},"properties":{"objectType":"annotation","classification":{"name":"Dense Coconut Farms","color":[196, 92, 238]}}},{"type":"Feature","id":"903e44a5-e4a4-4b03-8a01-5715ccc21d63","geometry":{"type":"Polygon","coordinates":[[[3176.68, 2121.54],[3689.21, 2121.54],[3689.21, 2628.82],[3176.68, 2628.82],[3176.68, 2121.54]]]},"properties":{"objectType":"annotation","classification":{"name":"Dense Coconut Farms","color":[196, 92, 238]}}},{"type":"Feature","id":"da57d226-f819-4af2-9ed1-79e668d076c3","geometry":{"type":"Polygon","coordinates":[[[2868.66, 2574.5],[3381.2, 2574.5],[3381.2, 3081.78],[2868.66, 3081.78],[2868.66, 2574.5]]]},"properties":{"objectType":"annotation","classification":{"name":"Dense Coconut Farms","color":[196, 92, 238]}}},{"type":"Feature","id":"ac59f333-7650-4d69-8104-23f2e7b1305f","geometry":{"type":"Polygon","coordinates":[[[3391.51, 2628.85],[3904.04, 2628.85],[3904.04, 3136.13],[3391.51, 3136.13],[3391.51, 2628.85]]]},"properties":{"objectType":"annotation","classification":{"name":"Dense Coconut Farms","color":[196, 92, 238]}}},{"type":"Feature","id":"5884fb75-9861-4928-a727-246e64db281a","geometry":{"type":"Polygon","coordinates":[[[3111.97, 3084.4],[3624.5, 3084.4],[3624.5, 3591.68],[3111.97, 3591.68],[3111.97, 3084.4]]]},"properties":{"objectType":"annotation","classification":{"name":"Dense Coconut Farms","color":[196, 92, 238]}}},{"type":"Feature","id":"7f168a66-9277-4026-ab60-437ec60f0d65","geometry":{"type":"Polygon","coordinates":[[[3663.28, 2949.8],[4175.82, 2949.8],[4175.82, 3457.08],[3663.28, 3457.08],[3663.28, 2949.8]]]},"properties":{"objectType":"annotation","classification":{"name":"Dense Coconut Farms","color":[196, 92, 238]}}},{"type":"Feature","id":"8f3d488f-2e90-4b8b-8d4a-869ae5379031","geometry":{"type":"Polygon","coordinates":[[[2281.11, 3780.66],[2793.65, 3780.66],[2793.65, 4283],[2281.11, 4283],[2281.11, 3780.66]]]},"properties":{"objectType":"annotation","classification":{"name":"Dense Coconut Farms","color":[196, 92, 238]}}},{"type":"Feature","id":"8106503b-01ba-4ced-be58-9843de512bd7","geometry":{"type":"Polygon","coordinates":[[[4412.35, 9.95],[4924.89, 9.95],[4924.89, 517.22],[4412.35, 517.22],[4412.35, 9.95]]]},"properties":{"objectType":"annotation","color":[165, 69, 116],"classification":{"name":"Dense Coconut Farms","color":[196, 92, 238]}}},{"type":"Feature","id":"233c9551-1864-4d7f-86c1-20c7e34c67e2","geometry":{"type":"Polygon","coordinates":[[[4024.1, 547.28],[4536.64, 547.28],[4536.64, 1054.56],[4024.1, 1054.56],[4024.1, 547.28]]]},"properties":{"objectType":"annotation","classification":{"name":"Dense Coconut Farms","color":[196, 92, 238]}}},{"type":"Feature","id":"4b60ae3d-08be-4344-b166-f432f6a8a3b6","geometry":{"type":"Polygon","coordinates":[[[5636.08, 1288.5],[6148.61, 1288.5],[6148.61, 1795.78],[5636.08, 1795.78],[5636.08, 1288.5]]]},"properties":{"objectType":"annotation","classification":{"name":"Dense Coconut Farms","color":[196, 92, 238]}}},{"type":"Feature","id":"073e4326-805d-406b-ae48-68f75538d11a","geometry":{"type":"Polygon","coordinates":[[[5126.18, 1304.03],[5638.71, 1304.03],[5638.71, 1811.31],[5126.18, 1811.31],[5126.18, 1304.03]]]},"properties":{"objectType":"annotation","classification":{"name":"Dense Coconut Farms","color":[196, 92, 238]}}},{"type":"Feature","id":"88a80514-f3b7-4822-90d6-8ce20402249f","geometry":{"type":"Polygon","coordinates":[[[4587.8, 1544.74],[5100.33, 1544.74],[5100.33, 2052.02],[4587.8, 2052.02],[4587.8, 1544.74]]]},"properties":{"objectType":"annotation","classification":{"name":"Dense Coconut Farms","color":[196, 92, 238]}}},{"type":"Feature","id":"d58c15a8-f7c9-43ab-90f7-d369fc7a1afa","geometry":{"type":"Polygon","coordinates":[[[4077.9, 1829.46],[4590.43, 1829.46],[4590.43, 2336.74],[4077.9, 2336.74],[4077.9, 1829.46]]]},"properties":{"objectType":"annotation","classification":{"name":"Dense Coconut Farms","color":[196, 92, 238]}}},{"type":"Feature","id":"42b33982-34cd-4194-b266-ee69749c07c2","geometry":{"type":"Polygon","coordinates":[[[4598.16, 2067.59],[5110.69, 2067.59],[5110.69, 2574.87],[4598.16, 2574.87],[4598.16, 2067.59]]]},"properties":{"objectType":"annotation","classification":{"name":"Dense Coconut Farms","color":[196, 92, 238]}}},{"type":"Feature","id":"d886d860-9dca-43c5-a4c9-9d46fe65069e","geometry":{"type":"Polygon","coordinates":[[[4603.33, 2580.08],[5115.86, 2580.08],[5115.86, 3087.36],[4603.33, 3087.36],[4603.33, 2580.08]]]},"properties":{"objectType":"annotation","classification":{"name":"Dense Coconut Farms","color":[196, 92, 238]}}},{"type":"Feature","id":"d72a4170-8d14-4c89-8ce3-acd092cdb466","geometry":{"type":"Polygon","coordinates":[[[5115.82, 2598.2],[5628.35, 2598.2],[5628.35, 3105.47],[5115.82, 3105.47],[5115.82, 2598.2]]]},"properties":{"objectType":"annotation","classification":{"name":"Dense Coconut Farms","color":[196, 92, 238]}}},{"type":"Feature","id":"e256a9fc-2cf6-418d-a259-b7b4a7ad4ce7","geometry":{"type":"Polygon","coordinates":[[[5126.18, 2098.65],[5638.71, 2098.65],[5638.71, 2605.93],[5126.18, 2605.93],[5126.18, 2098.65]]]},"properties":{"objectType":"annotation","classification":{"name":"Dense Coconut Farms","color":[196, 92, 238]}}},{"type":"Feature","id":"32780d2c-e62e-478b-9a0a-1bf02aa82dfa","geometry":{"type":"Polygon","coordinates":[[[5126.18, 1700.04],[5638.71, 1700.04],[5638.71, 2207.32],[5126.18, 2207.32],[5126.18, 1700.04]]]},"properties":{"objectType":"annotation","classification":{"name":"Dense Coconut Farms","color":[196, 92, 238]}}},{"type":"Feature","id":"430c52ae-611a-4eeb-ac6e-b916f14f3608","geometry":{"type":"Polygon","coordinates":[[[5646.43, 1795.81],[6158.96, 1795.81],[6158.96, 2303.09],[5646.43, 2303.09],[5646.43, 1795.81]]]},"properties":{"objectType":"annotation","classification":{"name":"Dense Coconut Farms","color":[196, 92, 238]}}},{"type":"Feature","id":"af7e9988-8bb9-4b62-9bf4-ba05b7bb18df","geometry":{"type":"Polygon","coordinates":[[[5651.61, 2308.3],[6164.14, 2308.3],[6164.14, 2815.58],[5651.61, 2815.58],[5651.61, 2308.3]]]},"properties":{"objectType":"annotation","classification":{"name":"Dense Coconut Farms","color":[196, 92, 238]}}},{"type":"Feature","id":"21affd36-7bf1-4246-80ce-6baaa6dc6eab","geometry":{"type":"Polygon","coordinates":[[[6174.45, 2318.66],[6686.98, 2318.66],[6686.98, 2825.93],[6174.45, 2825.93],[6174.45, 2318.66]]]},"properties":{"objectType":"annotation","classification":{"name":"Dense Coconut Farms","color":[196, 92, 238]}}},{"type":"Feature","id":"95fe8b45-c738-4e91-b726-2801fe1f9afc","geometry":{"type":"Polygon","coordinates":[[[4603.33, 3092.57],[5115.86, 3092.57],[5115.86, 3599.85],[4603.33, 3599.85],[4603.33, 3092.57]]]},"properties":{"objectType":"annotation","classification":{"name":"Dense Coconut Farms","color":[196, 92, 238]}}},{"type":"Feature","id":"98115955-7a7e-4622-892d-c4e0e6c9c412","geometry":{"type":"Polygon","coordinates":[[[5113.23, 3100.33],[5625.77, 3100.33],[5625.77, 3607.61],[5113.23, 3607.61],[5113.23, 3100.33]]]},"properties":{"objectType":"annotation","classification":{"name":"Dense Coconut Farms","color":[196, 92, 238]}}},{"type":"Feature","id":"9f59bd11-e122-41f9-8ff4-b7aab6117f91","geometry":{"type":"Polygon","coordinates":[[[7163.19, 3530],[7675.73, 3530],[7675.73, 4037.27],[7163.19, 4037.27],[7163.19, 3530]]]},"properties":{"objectType":"annotation","classification":{"name":"Dense Coconut Farms","color":[196, 92, 238]}}},{"type":"Feature","id":"2ea091e9-386a-49a3-bc24-2c43a2804a69","geometry":{"type":"Polygon","coordinates":[[[7683.45, 3519.64],[8192, 3519.64],[8192, 4026.92],[7683.45, 4026.92],[7683.45, 3519.64]]]},"properties":{"objectType":"annotation","classification":{"name":"Dense Coconut Farms","color":[196, 92, 238]}}},{"type":"Feature","id":"6d672e12-74c4-4d51-872b-7cc2a5aa9ea8","geometry":{"type":"Polygon","coordinates":[[[7678.27, 3775.89],[8190.81, 3775.89],[8190.81, 4283],[7678.27, 4283],[7678.27, 3775.89]]]},"properties":{"objectType":"annotation","classification":{"name":"Dense Coconut Farms","color":[196, 92, 238]}}},{"type":"Feature","id":"d033721f-f674-4f80-8c38-096b688f8516","geometry":{"type":"Polygon","coordinates":[[[7173.55, 3786.24],[7686.08, 3786.24],[7686.08, 4283],[7173.55, 4283],[7173.55, 3786.24]]]},"properties":{"objectType":"annotation","classification":{"name":"Dense Coconut Farms","color":[196, 92, 238]}}},{"type":"Feature","id":"1b615f86-acbd-4136-99c3-e8673ec3cf41","geometry":{"type":"Polygon","coordinates":[[[6158.92, 3778.48],[6671.45, 3778.48],[6671.45, 4283],[6158.92, 4283],[6158.92, 3778.48]]]},"properties":{"objectType":"annotation","classification":{"name":"Dense Coconut Farms","color":[196, 92, 238]}}},{"type":"Feature","id":"267e98c8-dba5-44a5-812c-98d6ab79df76","geometry":{"type":"Polygon","coordinates":[[[5470.42, 3775.89],[5982.96, 3775.89],[5982.96, 4283],[5470.42, 4283],[5470.42, 3775.89]]]},"properties":{"objectType":"annotation","classification":{"name":"Dense Coconut Farms","color":[196, 92, 238]}}},{"type":"Feature","id":"6bd80725-7e55-4c43-bb53-44615c1ef22b","geometry":{"type":"Polygon","coordinates":[[[68.16, 3645.18],[580.69, 3645.18],[580.69, 4152.46],[68.16, 4152.46],[68.16, 3645.18]]]},"properties":{"objectType":"annotation","classification":{"name":"Dense Coconut Farms","color":[196, 92, 238]}}},{"type":"Feature","id":"6319a17f-d181-4faf-93f9-90cc81daf340","geometry":{"type":"Polygon","coordinates":[[[527.64, 1196.24],[1040.17, 1196.24],[1040.17, 1703.52],[527.64, 1703.52],[527.64, 1196.24]]]},"properties":{"objectType":"annotation","classification":{"name":"Dense Coconut Farms","color":[196, 92, 238]}}},{"type":"Feature","id":"425a8d99-ccb8-44d7-ba05-db83090742fd","geometry":{"type":"Polygon","coordinates":[[[178, 1808.22],[685.54, 1808.22],[685.54, 2315.5],[178, 2315.5],[178, 1808.22]]]},"properties":{"objectType":"annotation","classification":{"name":"Dense Coconut Farms","color":[196, 92, 238]}}},{"type":"Feature","id":"77f89603-9045-485d-aff7-03eddd092987","geometry":{"type":"Polygon","coordinates":[[[2333.82, 459.6],[2846.35, 459.6],[2846.35, 966.87],[2333.82, 966.87],[2333.82, 459.6]]]},"properties":{"objectType":"annotation","color":[165, 69, 116],"classification":{"name":"Dense Coconut Farms","color":[196, 92, 238]}}},{"type":"Feature","id":"4d8afe41-8e93-4548-ae9b-a4a5b898884a","geometry":{"type":"Polygon","coordinates":[[[1969.8, 1001.97],[2482.33, 1001.97],[2482.33, 1509.25],[1969.8, 1509.25],[1969.8, 1001.97]]]},"properties":{"objectType":"annotation","color":[165, 69, 116],"classification":{"name":"Dense Coconut Farms","color":[196, 92, 238]}}},{"type":"Feature","id":"20067ef8-e5ff-4772-9247-777671ff16b8","geometry":{"type":"Polygon","coordinates":[[[2601.07, 579.3],[3113.6, 579.3],[3113.6, 1086.58],[2601.07, 1086.58],[2601.07, 579.3]]]},"properties":{"objectType":"annotation","color":[165, 69, 116],"classification":{"name":"Dense Coconut Farms","color":[196, 92, 238]}}},{"type":"Feature","id":"2b70c5cc-8fb6-464c-abf5-988f1ca9662c","geometry":{"type":"Polygon","coordinates":[[[2417.35, 886.09],[2929.88, 886.09],[2929.88, 1393.36],[2417.35, 1393.36],[2417.35, 886.09]]]},"properties":{"objectType":"annotation","color":[165, 69, 116],"classification":{"name":"Dense Coconut Farms","color":[196, 92, 238]}}},{"type":"Feature","id":"b1fa3c8c-f87b-4153-8b0d-6aaf9fbff016","geometry":{"type":"Polygon","coordinates":[[[4671.44, 325.44],[5183.98, 325.44],[5183.98, 832.71],[4671.44, 832.71],[4671.44, 325.44]]]},"properties":{"objectType":"annotation","color":[165, 69, 116],"classification":{"name":"Dense Coconut Farms","color":[196, 92, 238]}}},{"type":"Feature","id":"31b4e8ac-db16-4c48-8d14-b959b94f52d6","geometry":{"type":"Polygon","coordinates":[[[7529.91, 2247.59],[8042.44, 2247.59],[8042.44, 2754.86],[7529.91, 2754.86],[7529.91, 2247.59]]]},"properties":{"objectType":"annotation","color":[165, 69, 116],"classification":{"name":"Dense Coconut Farms","color":[196, 92, 238]}}},{"type":"Feature","id":"10a37716-55d9-4863-bea0-384ae8886dfd","geometry":{"type":"Polygon","coordinates":[[[7549.96, 2323.07],[8062.49, 2323.07],[8062.49, 2830.35],[7549.96, 2830.35],[7549.96, 2323.07]]]},"properties":{"objectType":"annotation","color":[165, 69, 116],"classification":{"name":"Dense Coconut Farms","color":[196, 92, 238]}}},{"type":"Feature","id":"108bcad9-6707-4f8b-9ed5-2700fa633dc2","geometry":{"type":"Polygon","coordinates":[[[6663.7, 3227.62],[7176.24, 3227.62],[7176.24, 3734.9],[6663.7, 3734.9],[6663.7, 3227.62]]]},"properties":{"objectType":"annotation","classification":{"name":"Dense Coconut Farms","color":[196, 92, 238]}}},{"type":"Feature","id":"97b3b1c5-52e2-4b01-b272-c652a1fdeb5e","geometry":{"type":"Polygon","coordinates":[[[6366.04, 1429.1],[6878.57, 1429.1],[6878.57, 1936.38],[6366.04, 1936.38],[6366.04, 1429.1]]]},"properties":{"objectType":"annotation","color":[165, 69, 116],"classification":{"name":"Dense Coconut Farms","color":[196, 92, 238]}}},{"type":"Feature","id":"9c4392d6-92ab-427b-8b8a-23e5e1289010","geometry":{"type":"Polygon","coordinates":[[[4004.04, 1103.93],[4516.58, 1103.93],[4516.58, 1611.21],[4004.04, 1611.21],[4004.04, 1103.93]]]},"properties":{"objectType":"annotation","color":[165, 69, 116],"classification":{"name":"Dense Coconut Farms","color":[196, 92, 238]}}},{"type":"Feature","id":"11838c46-f262-405c-942a-edbef97b62cd","geometry":{"type":"Polygon","coordinates":[[[3458.51, 610.83],[3971.04, 610.83],[3971.04, 1118.11],[3458.51, 1118.11],[3458.51, 610.83]]]},"properties":{"objectType":"annotation","classification":{"name":"Dense Coconut Farms","color":[196, 92, 238]}}},{"type":"Feature","id":"11af6439-0132-47e1-b7b9-47b72a881dc9","geometry":{"type":"Polygon","coordinates":[[[4583.81, 1138.82],[5096.34, 1138.82],[5096.34, 1646.1],[4583.81, 1646.1],[4583.81, 1138.82]]]},"properties":{"objectType":"annotation","classification":{"name":"Dense Coconut Farms","color":[196, 92, 238]}}},{"type":"Feature","id":"7ee5771e-cfc0-41a7-a070-79939030d947","geometry":{"type":"Polygon","coordinates":[[[5914.32, 890.36],[6426.85, 890.36],[6426.85, 1397.64],[5914.32, 1397.64],[5914.32, 890.36]]]},"properties":{"objectType":"annotation","classification":{"name":"Dense Coconut Farms","color":[196, 92, 238]}}},{"type":"Feature","id":"b0b6511a-cf9d-418d-b71e-7c4396da685e","geometry":{"type":"Polygon","coordinates":[[[5330.86, 3564.46],[5843.39, 3564.46],[5843.39, 4071.74],[5330.86, 4071.74],[5330.86, 3564.46]]]},"properties":{"objectType":"annotation","classification":{"name":"Dense Coconut Farms","color":[196, 92, 238]}}},{"type":"Feature","id":"ca868105-916f-425b-b86d-9612affae03c","geometry":{"type":"Polygon","coordinates":[[[6853.94, 3522.29],[7366.47, 3522.29],[7366.47, 4029.57],[6853.94, 4029.57],[6853.94, 3522.29]]]},"properties":{"objectType":"annotation","classification":{"name":"Dense Coconut Farms","color":[196, 92, 238]}}},{"type":"Feature","id":"999e1f34-16b6-41d3-b3f9-86c9810024a2","geometry":{"type":"Polygon","coordinates":[[[6099.63, 2610.97],[6612.16, 2610.97],[6612.16, 3118.25],[6099.63, 3118.25],[6099.63, 2610.97]]]},"properties":{"objectType":"annotation","classification":{"name":"Dense Coconut Farms","color":[196, 92, 238]}}},{"type":"Feature","id":"15588b07-a19a-4960-909f-5ee327e69c33","geometry":{"type":"Polygon","coordinates":[[[2793.53, 2972.22],[3306.07, 2972.22],[3306.07, 3479.5],[2793.53, 3479.5],[2793.53, 2972.22]]]},"properties":{"objectType":"annotation","classification":{"name":"Dense Coconut Farms","color":[196, 92, 238]}}},{"type":"Feature","id":"3f7f0ca2-97f6-4a72-8181-02cbf007adad","geometry":{"type":"Polygon","coordinates":[[[2567.17, 2588.32],[3079.71, 2588.32],[3079.71, 3095.6],[2567.17, 3095.6],[2567.17, 2588.32]]]},"properties":{"objectType":"annotation","classification":{"name":"Dense Coconut Farms","color":[196, 92, 238]}}},{"type":"Feature","id":"0c356b0b-f0cc-4fd7-9e57-bd9e19e74bb7","geometry":{"type":"Polygon","coordinates":[[[2369.69, 2072.6],[2882.23, 2072.6],[2882.23, 2579.87],[2369.69, 2579.87],[2369.69, 2072.6]]]},"properties":{"objectType":"annotation","classification":{"name":"Dense Coconut Farms","color":[196, 92, 238]}}},{"type":"Feature","id":"849f0f3e-1570-4859-8c97-56bd9a2b9e51","geometry":{"type":"Polygon","coordinates":[[[2195.16, 1610.87],[2707.69, 1610.87],[2707.69, 2118.15],[2195.16, 2118.15],[2195.16, 1610.87]]]},"properties":{"objectType":"annotation","classification":{"name":"Dense Coconut Farms","color":[196, 92, 238]}}},{"type":"Feature","id":"ca3f3264-ce60-4e57-bfad-46f68fab2dec","geometry":{"type":"Polygon","coordinates":[[[2482.24, 1668.75],[2994.77, 1668.75],[2994.77, 2176.03],[2482.24, 2176.03],[2482.24, 1668.75]]]},"properties":{"objectType":"annotation","classification":{"name":"Dense Coconut Farms","color":[196, 92, 238]}}}]}